<?xml version="1.0" encoding="UTF-8"?>
<gpx creator="StravaGPX" version="1.1" xmlns="http://www.topografix.com/GPX/1/1" xmlns:xsi="http://www.w3.org/2001/XMLSchema-instance" xsi:schemaLocation="http://www.topografix.com/GPX/1/1 http://www.topografix.com/GPX/1/1/gpx.xsd">
 <metadata>
  <name>IRONMAN California - HOKA Run Course</name>
  <author>
   <name>IRONMAN North America Admin</name>
   <link href="https://www.strava.com/athletes/152522621"/>
  </author>
  <copyright author="OpenStreetMap contributors">
   <year>2020</year>
   <license>https://www.openstreetmap.org/copyright</license>
  </copyright>
  <link href="https://www.strava.com/routes/3317378511326727610"/>
 </metadata>
 <trk>
  <name>IRONMAN California - HOKA Run Course</name>
  <link href="https://www.strava.com/routes/3317378511326727610"/>
  <type>running</type>
  <trkseg>
   <trkpt lat="38.58068" lon="-121.51004">
    <ele>11.7</ele>
   </trkpt>
   <trkpt lat="38.58041" lon="-121.51001000000001">
    <ele>11.62</ele>
   </trkpt>
   <trkpt lat="38.579750000000004" lon="-121.51027">
    <ele>11.540000000000001</ele>
   </trkpt>
   <trkpt lat="38.57897500065504" lon="-121.51068000445565">
    <ele>11.13</ele>
   </trkpt>
   <trkpt lat="38.5782" lon="-121.51109000000001">
    <ele>11.06</ele>
   </trkpt>
   <trkpt lat="38.57784" lon="-121.5113">
    <ele>10.990000000000002</ele>
   </trkpt>
   <trkpt lat="38.57713500090017" lon="-121.51174500433103">
    <ele>10.81</ele>
   </trkpt>
   <trkpt lat="38.57643" lon="-121.51219">
    <ele>10.690000000000001</ele>
   </trkpt>
   <trkpt lat="38.576130000000006" lon="-121.51243000000001">
    <ele>10.690000000000001</ele>
   </trkpt>
   <trkpt lat="38.575566670040715" lon="-121.51306334330991">
    <ele>10.77</ele>
   </trkpt>
   <trkpt lat="38.575003336668665" lon="-121.51369667668662">
    <ele>11.01</ele>
   </trkpt>
   <trkpt lat="38.57444" lon="-121.51433000000002">
    <ele>11.340000000000002</ele>
   </trkpt>
   <trkpt lat="38.57417" lon="-121.51461">
    <ele>11.040000000000001</ele>
   </trkpt>
   <trkpt lat="38.57376" lon="-121.51507000000001">
    <ele>10.8</ele>
   </trkpt>
   <trkpt lat="38.57341" lon="-121.5156">
    <ele>10.440000000000001</ele>
   </trkpt>
   <trkpt lat="38.57372000054238" lon="-121.51603999770225">
    <ele>9.92</ele>
   </trkpt>
   <trkpt lat="38.57403" lon="-121.51648000000002">
    <ele>9.850000000000001</ele>
   </trkpt>
   <trkpt lat="38.57359" lon="-121.51698">
    <ele>9.080000000000002</ele>
   </trkpt>
   <trkpt lat="38.5731066685258" lon="-121.51744667293976">
    <ele>8.96</ele>
   </trkpt>
   <trkpt lat="38.572623335198735" lon="-121.51791333960031">
    <ele>9.09</ele>
   </trkpt>
   <trkpt lat="38.572140000000005" lon="-121.51838000000001">
    <ele>9.58</ele>
   </trkpt>
   <trkpt lat="38.57209" lon="-121.51854000000002">
    <ele>9.65</ele>
   </trkpt>
   <trkpt lat="38.572100000000006" lon="-121.5186">
    <ele>9.670000000000002</ele>
   </trkpt>
   <trkpt lat="38.57223500143737" lon="-121.51918499882082">
    <ele>8.96</ele>
   </trkpt>
   <trkpt lat="38.57237000000001" lon="-121.51977000000001">
    <ele>7.390000000000001</ele>
   </trkpt>
   <trkpt lat="38.57215" lon="-121.51993000000002">
    <ele>7.5600000000000005</ele>
   </trkpt>
   <trkpt lat="38.57217" lon="-121.51996000000001">
    <ele>7.5600000000000005</ele>
   </trkpt>
   <trkpt lat="38.57159000078529" lon="-121.52039500352643">
    <ele>7.94</ele>
   </trkpt>
   <trkpt lat="38.57101" lon="-121.52083">
    <ele>10.110000000000001</ele>
   </trkpt>
   <trkpt lat="38.57060000063994" lon="-121.52123000232226">
    <ele>10.83</ele>
   </trkpt>
   <trkpt lat="38.570190000000004" lon="-121.52163000000002">
    <ele>11.83</ele>
   </trkpt>
   <trkpt lat="38.56960333597434" lon="-121.52219000917057">
    <ele>12.100000000000001</ele>
   </trkpt>
   <trkpt lat="38.569016669280614" lon="-121.52275000919626">
    <ele>12.17</ele>
   </trkpt>
   <trkpt lat="38.568430000000006" lon="-121.52331000000001">
    <ele>12.23</ele>
   </trkpt>
   <trkpt lat="38.567890000000006" lon="-121.52371000000001">
    <ele>12.22</ele>
   </trkpt>
   <trkpt lat="38.567440000000005" lon="-121.52388">
    <ele>12.24</ele>
   </trkpt>
   <trkpt lat="38.56725" lon="-121.52392">
    <ele>12.24</ele>
   </trkpt>
   <trkpt lat="38.566700000000004" lon="-121.52396000000002">
    <ele>12.290000000000001</ele>
   </trkpt>
   <trkpt lat="38.56644" lon="-121.52388">
    <ele>12.360000000000001</ele>
   </trkpt>
   <trkpt lat="38.56627" lon="-121.52384">
    <ele>12.41</ele>
   </trkpt>
   <trkpt lat="38.565900000000006" lon="-121.52371000000001">
    <ele>12.5</ele>
   </trkpt>
   <trkpt lat="38.565780000000004" lon="-121.52363000000001">
    <ele>12.700000000000001</ele>
   </trkpt>
   <trkpt lat="38.56557" lon="-121.52352">
    <ele>12.700000000000001</ele>
   </trkpt>
   <trkpt lat="38.565400000000004" lon="-121.52345000000001">
    <ele>12.870000000000001</ele>
   </trkpt>
   <trkpt lat="38.56505000000001" lon="-121.52342000000002">
    <ele>13.110000000000001</ele>
   </trkpt>
   <trkpt lat="38.56423666666479" lon="-121.52339999954718">
    <ele>13.8</ele>
   </trkpt>
   <trkpt lat="38.56342333332617" lon="-121.52337999954706">
    <ele>13.99</ele>
   </trkpt>
   <trkpt lat="38.56261000000001" lon="-121.52336000000001">
    <ele>13.46</ele>
   </trkpt>
   <trkpt lat="38.56248" lon="-121.52338">
    <ele>13.32</ele>
   </trkpt>
   <trkpt lat="38.56223000000001" lon="-121.52337000000001">
    <ele>13.280000000000001</ele>
   </trkpt>
   <trkpt lat="38.562000000000005" lon="-121.52334">
    <ele>13.290000000000001</ele>
   </trkpt>
   <trkpt lat="38.561366666751645" lon="-121.52332999982511">
    <ele>13.46</ele>
   </trkpt>
   <trkpt lat="38.56073333350244" lon="-121.52331999982644">
    <ele>13.240000000000002</ele>
   </trkpt>
   <trkpt lat="38.560100000000006" lon="-121.52331000000001">
    <ele>12.690000000000001</ele>
   </trkpt>
   <trkpt lat="38.56010667175317" lon="-121.52253666694025">
    <ele>11.160000000000002</ele>
   </trkpt>
   <trkpt lat="38.56011333841871" lon="-121.52176333373697">
    <ele>11.240000000000002</ele>
   </trkpt>
   <trkpt lat="38.560120000000005" lon="-121.52099000000001">
    <ele>11.3</ele>
   </trkpt>
   <trkpt lat="38.560080000000006" lon="-121.52013000000001">
    <ele>11.47</ele>
   </trkpt>
   <trkpt lat="38.560030000000005" lon="-121.51985">
    <ele>11.420000000000002</ele>
   </trkpt>
   <trkpt lat="38.559920000000005" lon="-121.51953">
    <ele>11.4</ele>
   </trkpt>
   <trkpt lat="38.55975" lon="-121.51918">
    <ele>11.28</ele>
   </trkpt>
   <trkpt lat="38.55953" lon="-121.51891">
    <ele>11.15</ele>
   </trkpt>
   <trkpt lat="38.559360000000005" lon="-121.51874000000001">
    <ele>11.15</ele>
   </trkpt>
   <trkpt lat="38.559070000000006" lon="-121.51859">
    <ele>11.13</ele>
   </trkpt>
   <trkpt lat="38.55831000039979" lon="-121.51832499723336">
    <ele>10.93</ele>
   </trkpt>
   <trkpt lat="38.557550000000006" lon="-121.51806">
    <ele>10.94</ele>
   </trkpt>
   <trkpt lat="38.55733" lon="-121.51793">
    <ele>10.92</ele>
   </trkpt>
   <trkpt lat="38.557100000000005" lon="-121.51775">
    <ele>10.92</ele>
   </trkpt>
   <trkpt lat="38.55684" lon="-121.51751000000002">
    <ele>10.98</ele>
   </trkpt>
   <trkpt lat="38.55648" lon="-121.51694">
    <ele>10.92</ele>
   </trkpt>
   <trkpt lat="38.556200000000004" lon="-121.51658">
    <ele>10.89</ele>
   </trkpt>
   <trkpt lat="38.5561" lon="-121.51650000000001">
    <ele>10.89</ele>
   </trkpt>
   <trkpt lat="38.55539" lon="-121.51617000000002">
    <ele>11.600000000000001</ele>
   </trkpt>
   <trkpt lat="38.55474" lon="-121.51591">
    <ele>10.49</ele>
   </trkpt>
   <trkpt lat="38.554165000236665" lon="-121.51570499838104">
    <ele>10.3</ele>
   </trkpt>
   <trkpt lat="38.55359" lon="-121.5155">
    <ele>10.4</ele>
   </trkpt>
   <trkpt lat="38.55276500028267" lon="-121.51527499743649">
    <ele>10.540000000000001</ele>
   </trkpt>
   <trkpt lat="38.55194" lon="-121.51505000000002">
    <ele>10.860000000000001</ele>
   </trkpt>
   <trkpt lat="38.55135333362041" lon="-121.51486999706607">
    <ele>11.02</ele>
   </trkpt>
   <trkpt lat="38.55076666696521" lon="-121.51468999706961">
    <ele>11.11</ele>
   </trkpt>
   <trkpt lat="38.550180000000005" lon="-121.51451000000002">
    <ele>11.31</ele>
   </trkpt>
   <trkpt lat="38.55013" lon="-121.51477000000001">
    <ele>6.19</ele>
   </trkpt>
   <trkpt lat="38.54992" lon="-121.51493">
    <ele>6.21</ele>
   </trkpt>
   <trkpt lat="38.549455000239895" lon="-121.51475499890954">
    <ele>6.46</ele>
   </trkpt>
   <trkpt lat="38.54899" lon="-121.51458000000001">
    <ele>6.24</ele>
   </trkpt>
   <trkpt lat="38.548770000000005" lon="-121.51455000000001">
    <ele>6.0600000000000005</ele>
   </trkpt>
   <trkpt lat="38.548640000000006" lon="-121.51455000000001">
    <ele>6.0600000000000005</ele>
   </trkpt>
   <trkpt lat="38.54822" lon="-121.5147">
    <ele>5.7700000000000005</ele>
   </trkpt>
   <trkpt lat="38.54768" lon="-121.51485000000001">
    <ele>5.6000000000000005</ele>
   </trkpt>
   <trkpt lat="38.54726" lon="-121.51491000000001">
    <ele>5.6000000000000005</ele>
   </trkpt>
   <trkpt lat="38.546530000000004" lon="-121.51486000000001">
    <ele>5.280000000000001</ele>
   </trkpt>
   <trkpt lat="38.54636" lon="-121.51480000000001">
    <ele>5.46</ele>
   </trkpt>
   <trkpt lat="38.545950000000005" lon="-121.51462000000001">
    <ele>5.64</ele>
   </trkpt>
   <trkpt lat="38.54552" lon="-121.51449000000001">
    <ele>5.710000000000001</ele>
   </trkpt>
   <trkpt lat="38.54516" lon="-121.51442000000002">
    <ele>5.710000000000001</ele>
   </trkpt>
   <trkpt lat="38.54469" lon="-121.51440000000001">
    <ele>5.78</ele>
   </trkpt>
   <trkpt lat="38.54421" lon="-121.51444000000001">
    <ele>5.82</ele>
   </trkpt>
   <trkpt lat="38.54364" lon="-121.51456">
    <ele>6.33</ele>
   </trkpt>
   <trkpt lat="38.54310500018647" lon="-121.51477500160344">
    <ele>6.23</ele>
   </trkpt>
   <trkpt lat="38.542570000000005" lon="-121.51499000000001">
    <ele>6.390000000000001</ele>
   </trkpt>
   <trkpt lat="38.54175" lon="-121.51545000000002">
    <ele>6.82</ele>
   </trkpt>
   <trkpt lat="38.541500000000006" lon="-121.51565000000001">
    <ele>6.82</ele>
   </trkpt>
   <trkpt lat="38.5416" lon="-121.51556000000001">
    <ele>6.78</ele>
   </trkpt>
   <trkpt lat="38.54193" lon="-121.51534000000001">
    <ele>6.82</ele>
   </trkpt>
   <trkpt lat="38.542530000000006" lon="-121.51501">
    <ele>6.42</ele>
   </trkpt>
   <trkpt lat="38.54303" lon="-121.51480000000001">
    <ele>6.23</ele>
   </trkpt>
   <trkpt lat="38.54361" lon="-121.51458000000001">
    <ele>6.33</ele>
   </trkpt>
   <trkpt lat="38.544160000000005" lon="-121.51445000000001">
    <ele>5.81</ele>
   </trkpt>
   <trkpt lat="38.54482" lon="-121.51440000000001">
    <ele>5.790000000000001</ele>
   </trkpt>
   <trkpt lat="38.545120000000004" lon="-121.51442000000002">
    <ele>5.69</ele>
   </trkpt>
   <trkpt lat="38.54569" lon="-121.51454000000001">
    <ele>5.69</ele>
   </trkpt>
   <trkpt lat="38.54613500002811" lon="-121.51469999898086">
    <ele>5.620000000000001</ele>
   </trkpt>
   <trkpt lat="38.546580000000006" lon="-121.51486000000001">
    <ele>5.37</ele>
   </trkpt>
   <trkpt lat="38.54719" lon="-121.51491000000001">
    <ele>5.61</ele>
   </trkpt>
   <trkpt lat="38.54771" lon="-121.51484">
    <ele>5.670000000000001</ele>
   </trkpt>
   <trkpt lat="38.548260000000006" lon="-121.51468000000001">
    <ele>5.85</ele>
   </trkpt>
   <trkpt lat="38.54867" lon="-121.51455000000001">
    <ele>5.960000000000001</ele>
   </trkpt>
   <trkpt lat="38.54891000000001" lon="-121.51457">
    <ele>6.050000000000001</ele>
   </trkpt>
   <trkpt lat="38.549040000000005" lon="-121.51460000000002">
    <ele>6.37</ele>
   </trkpt>
   <trkpt lat="38.549890000000005" lon="-121.51493">
    <ele>6.32</ele>
   </trkpt>
   <trkpt lat="38.55017" lon="-121.51476000000001">
    <ele>7.5</ele>
   </trkpt>
   <trkpt lat="38.55021" lon="-121.51452">
    <ele>12.39</ele>
   </trkpt>
   <trkpt lat="38.55107500040242" lon="-121.51478499684364">
    <ele>11.11</ele>
   </trkpt>
   <trkpt lat="38.55194" lon="-121.51505000000002">
    <ele>10.860000000000001</ele>
   </trkpt>
   <trkpt lat="38.552765000147986" lon="-121.51527499739976">
    <ele>10.540000000000001</ele>
   </trkpt>
   <trkpt lat="38.55359" lon="-121.5155">
    <ele>10.4</ele>
   </trkpt>
   <trkpt lat="38.554165000120825" lon="-121.51570499833974">
    <ele>10.3</ele>
   </trkpt>
   <trkpt lat="38.55474" lon="-121.51591">
    <ele>10.49</ele>
   </trkpt>
   <trkpt lat="38.55539" lon="-121.51617000000002">
    <ele>11.600000000000001</ele>
   </trkpt>
   <trkpt lat="38.5561" lon="-121.51650000000001">
    <ele>10.89</ele>
   </trkpt>
   <trkpt lat="38.556200000000004" lon="-121.51658">
    <ele>10.89</ele>
   </trkpt>
   <trkpt lat="38.55648" lon="-121.51694">
    <ele>10.92</ele>
   </trkpt>
   <trkpt lat="38.55684" lon="-121.51751000000002">
    <ele>10.98</ele>
   </trkpt>
   <trkpt lat="38.557100000000005" lon="-121.51775">
    <ele>10.92</ele>
   </trkpt>
   <trkpt lat="38.55733" lon="-121.51793">
    <ele>10.92</ele>
   </trkpt>
   <trkpt lat="38.557550000000006" lon="-121.51806">
    <ele>10.94</ele>
   </trkpt>
   <trkpt lat="38.558310000197615" lon="-121.51832499716289">
    <ele>10.93</ele>
   </trkpt>
   <trkpt lat="38.559070000000006" lon="-121.51859">
    <ele>11.13</ele>
   </trkpt>
   <trkpt lat="38.559360000000005" lon="-121.51874000000001">
    <ele>11.15</ele>
   </trkpt>
   <trkpt lat="38.55953" lon="-121.51891">
    <ele>11.15</ele>
   </trkpt>
   <trkpt lat="38.55975" lon="-121.51918">
    <ele>11.28</ele>
   </trkpt>
   <trkpt lat="38.559920000000005" lon="-121.51953">
    <ele>11.4</ele>
   </trkpt>
   <trkpt lat="38.560030000000005" lon="-121.51985">
    <ele>11.420000000000002</ele>
   </trkpt>
   <trkpt lat="38.560080000000006" lon="-121.52013000000001">
    <ele>11.47</ele>
   </trkpt>
   <trkpt lat="38.560120000000005" lon="-121.52099000000001">
    <ele>11.3</ele>
   </trkpt>
   <trkpt lat="38.56011333842207" lon="-121.52176333334668">
    <ele>11.240000000000002</ele>
   </trkpt>
   <trkpt lat="38.56010667175653" lon="-121.52253666654997">
    <ele>11.31</ele>
   </trkpt>
   <trkpt lat="38.560100000000006" lon="-121.52331000000001">
    <ele>12.690000000000001</ele>
   </trkpt>
   <trkpt lat="38.56073333325007" lon="-121.52331999982243">
    <ele>13.240000000000002</ele>
   </trkpt>
   <trkpt lat="38.56136666649928" lon="-121.52332999982112">
    <ele>13.46</ele>
   </trkpt>
   <trkpt lat="38.562000000000005" lon="-121.52334">
    <ele>13.290000000000001</ele>
   </trkpt>
   <trkpt lat="38.56223000000001" lon="-121.52337000000001">
    <ele>13.280000000000001</ele>
   </trkpt>
   <trkpt lat="38.56248" lon="-121.52338">
    <ele>13.32</ele>
   </trkpt>
   <trkpt lat="38.56261000000001" lon="-121.52336000000001">
    <ele>13.46</ele>
   </trkpt>
   <trkpt lat="38.56342333334203" lon="-121.52337999954744">
    <ele>13.99</ele>
   </trkpt>
   <trkpt lat="38.56423666668064" lon="-121.52339999954758">
    <ele>13.72</ele>
   </trkpt>
   <trkpt lat="38.56505000000001" lon="-121.52342000000002">
    <ele>13.110000000000001</ele>
   </trkpt>
   <trkpt lat="38.565400000000004" lon="-121.52345000000001">
    <ele>12.870000000000001</ele>
   </trkpt>
   <trkpt lat="38.56557" lon="-121.52352">
    <ele>12.700000000000001</ele>
   </trkpt>
   <trkpt lat="38.565780000000004" lon="-121.52363000000001">
    <ele>12.700000000000001</ele>
   </trkpt>
   <trkpt lat="38.565900000000006" lon="-121.52371000000001">
    <ele>12.5</ele>
   </trkpt>
   <trkpt lat="38.56627" lon="-121.52384">
    <ele>12.41</ele>
   </trkpt>
   <trkpt lat="38.56644" lon="-121.52388">
    <ele>12.360000000000001</ele>
   </trkpt>
   <trkpt lat="38.566700000000004" lon="-121.52396000000002">
    <ele>12.290000000000001</ele>
   </trkpt>
   <trkpt lat="38.56725" lon="-121.52392">
    <ele>12.24</ele>
   </trkpt>
   <trkpt lat="38.567440000000005" lon="-121.52388">
    <ele>12.24</ele>
   </trkpt>
   <trkpt lat="38.567890000000006" lon="-121.52371000000001">
    <ele>12.22</ele>
   </trkpt>
   <trkpt lat="38.568430000000006" lon="-121.52331000000001">
    <ele>12.23</ele>
   </trkpt>
   <trkpt lat="38.5690166693617" lon="-121.5227500091189">
    <ele>12.17</ele>
   </trkpt>
   <trkpt lat="38.569603336055415" lon="-121.52219000909318">
    <ele>12.100000000000001</ele>
   </trkpt>
   <trkpt lat="38.570190000000004" lon="-121.52163000000002">
    <ele>11.83</ele>
   </trkpt>
   <trkpt lat="38.57060000072131" lon="-121.52123000224289">
    <ele>10.83</ele>
   </trkpt>
   <trkpt lat="38.57101" lon="-121.52083">
    <ele>10.110000000000001</ele>
   </trkpt>
   <trkpt lat="38.57159000082462" lon="-121.52039500349692">
    <ele>7.94</ele>
   </trkpt>
   <trkpt lat="38.57217" lon="-121.51996000000001">
    <ele>7.5600000000000005</ele>
   </trkpt>
   <trkpt lat="38.57238" lon="-121.51983000000001">
    <ele>7.55</ele>
   </trkpt>
   <trkpt lat="38.572240001571416" lon="-121.5192149986367">
    <ele>8.96</ele>
   </trkpt>
   <trkpt lat="38.572100000000006" lon="-121.5186">
    <ele>9.670000000000002</ele>
   </trkpt>
   <trkpt lat="38.57209" lon="-121.51854000000002">
    <ele>9.65</ele>
   </trkpt>
   <trkpt lat="38.572140000000005" lon="-121.51838000000001">
    <ele>9.58</ele>
   </trkpt>
   <trkpt lat="38.572623335179884" lon="-121.5179133396185">
    <ele>9.09</ele>
   </trkpt>
   <trkpt lat="38.57310666850695" lon="-121.51744667295797">
    <ele>8.96</ele>
   </trkpt>
   <trkpt lat="38.57359" lon="-121.51698">
    <ele>9.160000000000002</ele>
   </trkpt>
   <trkpt lat="38.57403" lon="-121.51648000000002">
    <ele>9.850000000000001</ele>
   </trkpt>
   <trkpt lat="38.57372000110478" lon="-121.51603999850049">
    <ele>10.010000000000002</ele>
   </trkpt>
   <trkpt lat="38.57341" lon="-121.5156">
    <ele>10.440000000000001</ele>
   </trkpt>
   <trkpt lat="38.57376" lon="-121.51507000000001">
    <ele>10.8</ele>
   </trkpt>
   <trkpt lat="38.57417" lon="-121.51461">
    <ele>11.040000000000001</ele>
   </trkpt>
   <trkpt lat="38.57444" lon="-121.51433000000002">
    <ele>11.340000000000002</ele>
   </trkpt>
   <trkpt lat="38.57500333678469" lon="-121.51369667655615">
    <ele>11.01</ele>
   </trkpt>
   <trkpt lat="38.57556667015673" lon="-121.51306334317944">
    <ele>10.77</ele>
   </trkpt>
   <trkpt lat="38.576130000000006" lon="-121.51243000000001">
    <ele>10.690000000000001</ele>
   </trkpt>
   <trkpt lat="38.57643" lon="-121.51219">
    <ele>10.690000000000001</ele>
   </trkpt>
   <trkpt lat="38.57713500078468" lon="-121.51174500440395">
    <ele>10.81</ele>
   </trkpt>
   <trkpt lat="38.57784" lon="-121.5113">
    <ele>10.990000000000002</ele>
   </trkpt>
   <trkpt lat="38.5782" lon="-121.51109000000001">
    <ele>11.06</ele>
   </trkpt>
   <trkpt lat="38.57897500077522" lon="-121.51068000439203">
    <ele>11.13</ele>
   </trkpt>
   <trkpt lat="38.579750000000004" lon="-121.51027">
    <ele>11.540000000000001</ele>
   </trkpt>
   <trkpt lat="38.58019" lon="-121.51011000000001">
    <ele>11.63</ele>
   </trkpt>
   <trkpt lat="38.58061500055083" lon="-121.50989500109307">
    <ele>12.38</ele>
   </trkpt>
   <trkpt lat="38.58104" lon="-121.50968">
    <ele>12.38</ele>
   </trkpt>
   <trkpt lat="38.58111" lon="-121.50965000000001">
    <ele>10.84</ele>
   </trkpt>
   <trkpt lat="38.581070000000004" lon="-121.50950000000002">
    <ele>10.84</ele>
   </trkpt>
   <trkpt lat="38.58124" lon="-121.50932000000002">
    <ele>8.870000000000001</ele>
   </trkpt>
   <trkpt lat="38.58146" lon="-121.50915">
    <ele>6.840000000000001</ele>
   </trkpt>
   <trkpt lat="38.58153" lon="-121.50913000000001">
    <ele>6.8100000000000005</ele>
   </trkpt>
   <trkpt lat="38.58196" lon="-121.5091">
    <ele>8.66</ele>
   </trkpt>
   <trkpt lat="38.58247" lon="-121.50901">
    <ele>11.21</ele>
   </trkpt>
   <trkpt lat="38.58249" lon="-121.50904000000001">
    <ele>11.21</ele>
   </trkpt>
   <trkpt lat="38.58274" lon="-121.50893">
    <ele>11.170000000000002</ele>
   </trkpt>
   <trkpt lat="38.58349500007642" lon="-121.50878000158082">
    <ele>11.170000000000002</ele>
   </trkpt>
   <trkpt lat="38.584250000000004" lon="-121.50863000000001">
    <ele>11.170000000000002</ele>
   </trkpt>
   <trkpt lat="38.58492500015711" lon="-121.50848500134839">
    <ele>11.21</ele>
   </trkpt>
   <trkpt lat="38.58560000000001" lon="-121.50834">
    <ele>11.15</ele>
   </trkpt>
   <trkpt lat="38.585660000000004" lon="-121.50820000000002">
    <ele>10.85</ele>
   </trkpt>
   <trkpt lat="38.586330000000004" lon="-121.50782000000001">
    <ele>7.53</ele>
   </trkpt>
   <trkpt lat="38.58643" lon="-121.50779000000001">
    <ele>7.48</ele>
   </trkpt>
   <trkpt lat="38.586650000000006" lon="-121.50765000000001">
    <ele>7.46</ele>
   </trkpt>
   <trkpt lat="38.586780000000005" lon="-121.50798">
    <ele>8.370000000000001</ele>
   </trkpt>
   <trkpt lat="38.5869" lon="-121.50813000000001">
    <ele>11.71</ele>
   </trkpt>
   <trkpt lat="38.58717" lon="-121.50804000000001">
    <ele>11.82</ele>
   </trkpt>
   <trkpt lat="38.587664999960204" lon="-121.50795500059807">
    <ele>11.98</ele>
   </trkpt>
   <trkpt lat="38.58816" lon="-121.50787000000001">
    <ele>11.91</ele>
   </trkpt>
   <trkpt lat="38.58865" lon="-121.50788000000001">
    <ele>11.36</ele>
   </trkpt>
   <trkpt lat="38.5891" lon="-121.50800000000001">
    <ele>8.71</ele>
   </trkpt>
   <trkpt lat="38.58937" lon="-121.50814000000001">
    <ele>12.190000000000001</ele>
   </trkpt>
   <trkpt lat="38.589400000000005" lon="-121.50847000000002">
    <ele>10.8</ele>
   </trkpt>
   <trkpt lat="38.589510000000004" lon="-121.50845000000001">
    <ele>11.370000000000001</ele>
   </trkpt>
   <trkpt lat="38.58979500174221" lon="-121.50906499784587">
    <ele>11.240000000000002</ele>
   </trkpt>
   <trkpt lat="38.59008" lon="-121.50968">
    <ele>11.06</ele>
   </trkpt>
   <trkpt lat="38.590140000000005" lon="-121.50976000000001">
    <ele>10.93</ele>
   </trkpt>
   <trkpt lat="38.59046" lon="-121.51031">
    <ele>10.93</ele>
   </trkpt>
   <trkpt lat="38.59103" lon="-121.51095000000001">
    <ele>10.59</ele>
   </trkpt>
   <trkpt lat="38.59122" lon="-121.51111000000002">
    <ele>10.700000000000001</ele>
   </trkpt>
   <trkpt lat="38.5914" lon="-121.51143">
    <ele>10.97</ele>
   </trkpt>
   <trkpt lat="38.59156" lon="-121.51161">
    <ele>10.97</ele>
   </trkpt>
   <trkpt lat="38.591660000000005" lon="-121.51166">
    <ele>10.98</ele>
   </trkpt>
   <trkpt lat="38.59237" lon="-121.51184">
    <ele>10.76</ele>
   </trkpt>
   <trkpt lat="38.59315000019492" lon="-121.51199999651851">
    <ele>10.730000000000002</ele>
   </trkpt>
   <trkpt lat="38.59393000017201" lon="-121.51215999651374">
    <ele>11.340000000000002</ele>
   </trkpt>
   <trkpt lat="38.594710000000006" lon="-121.51232000000002">
    <ele>11.19</ele>
   </trkpt>
   <trkpt lat="38.595040000000004" lon="-121.51242">
    <ele>11.18</ele>
   </trkpt>
   <trkpt lat="38.595330000000004" lon="-121.51252000000001">
    <ele>11.120000000000001</ele>
   </trkpt>
   <trkpt lat="38.59564" lon="-121.51270000000001">
    <ele>11.11</ele>
   </trkpt>
   <trkpt lat="38.5962" lon="-121.51304">
    <ele>10.98</ele>
   </trkpt>
   <trkpt lat="38.59693" lon="-121.51327">
    <ele>10.560000000000002</ele>
   </trkpt>
   <trkpt lat="38.59713" lon="-121.51327">
    <ele>10.6</ele>
   </trkpt>
   <trkpt lat="38.59729" lon="-121.51323000000001">
    <ele>10.57</ele>
   </trkpt>
   <trkpt lat="38.59741" lon="-121.51318">
    <ele>10.57</ele>
   </trkpt>
   <trkpt lat="38.59801" lon="-121.51277">
    <ele>10.950000000000001</ele>
   </trkpt>
   <trkpt lat="38.59807" lon="-121.51275000000001">
    <ele>10.950000000000001</ele>
   </trkpt>
   <trkpt lat="38.59817" lon="-121.51277">
    <ele>10.870000000000001</ele>
   </trkpt>
   <trkpt lat="38.59886" lon="-121.51326000000002">
    <ele>11.21</ele>
   </trkpt>
   <trkpt lat="38.59949000106283" lon="-121.51374499579065">
    <ele>11.540000000000001</ele>
   </trkpt>
   <trkpt lat="38.600120000000004" lon="-121.51423000000001">
    <ele>11.79</ele>
   </trkpt>
   <trkpt lat="38.600350000000006" lon="-121.51443">
    <ele>12.860000000000001</ele>
   </trkpt>
   <trkpt lat="38.600390000000004" lon="-121.51443">
    <ele>9.71</ele>
   </trkpt>
   <trkpt lat="38.60049" lon="-121.51452">
    <ele>9.75</ele>
   </trkpt>
   <trkpt lat="38.600620000000006" lon="-121.5147">
    <ele>9.75</ele>
   </trkpt>
   <trkpt lat="38.601060000000004" lon="-121.51552000000001">
    <ele>9.73</ele>
   </trkpt>
   <trkpt lat="38.60108" lon="-121.51555">
    <ele>9.73</ele>
   </trkpt>
   <trkpt lat="38.60142500470088" lon="-121.51659999498246">
    <ele>10.040000000000001</ele>
   </trkpt>
   <trkpt lat="38.60177" lon="-121.51765">
    <ele>10.370000000000001</ele>
   </trkpt>
   <trkpt lat="38.60201" lon="-121.5185">
    <ele>10.440000000000001</ele>
   </trkpt>
   <trkpt lat="38.60216500186525" lon="-121.51914999887931">
    <ele>10.560000000000002</ele>
   </trkpt>
   <trkpt lat="38.602320000000006" lon="-121.5198">
    <ele>10.690000000000001</ele>
   </trkpt>
   <trkpt lat="38.60237" lon="-121.52016">
    <ele>10.700000000000001</ele>
   </trkpt>
   <trkpt lat="38.60242" lon="-121.52115">
    <ele>10.910000000000002</ele>
   </trkpt>
   <trkpt lat="38.6025250027422" lon="-121.5219549987062">
    <ele>11.23</ele>
   </trkpt>
   <trkpt lat="38.602630000000005" lon="-121.52276">
    <ele>11.44</ele>
   </trkpt>
   <trkpt lat="38.602720000000005" lon="-121.52365">
    <ele>11.520000000000001</ele>
   </trkpt>
   <trkpt lat="38.60275" lon="-121.52420000000001">
    <ele>11.71</ele>
   </trkpt>
   <trkpt lat="38.60276000236034" lon="-121.52494499980006">
    <ele>11.690000000000001</ele>
   </trkpt>
   <trkpt lat="38.60277000000001" lon="-121.52569000000001">
    <ele>11.690000000000001</ele>
   </trkpt>
   <trkpt lat="38.602790000000006" lon="-121.52601000000001">
    <ele>11.8</ele>
   </trkpt>
   <trkpt lat="38.602790000000006" lon="-121.52602000000002">
    <ele>12.93</ele>
   </trkpt>
   <trkpt lat="38.602790000000006" lon="-121.52661">
    <ele>12.520000000000001</ele>
   </trkpt>
   <trkpt lat="38.602790000000006" lon="-121.52701">
    <ele>12.0</ele>
   </trkpt>
   <trkpt lat="38.60272500413438" lon="-121.52799500079992">
    <ele>11.73</ele>
   </trkpt>
   <trkpt lat="38.60266" lon="-121.52898">
    <ele>12.06</ele>
   </trkpt>
   <trkpt lat="38.602555002593846" lon="-121.52976000110321">
    <ele>12.42</ele>
   </trkpt>
   <trkpt lat="38.602450000000005" lon="-121.53054000000002">
    <ele>12.870000000000001</ele>
   </trkpt>
   <trkpt lat="38.60230000360157" lon="-121.53146000192191">
    <ele>13.06</ele>
   </trkpt>
   <trkpt lat="38.60215" lon="-121.53238">
    <ele>12.990000000000002</ele>
   </trkpt>
   <trkpt lat="38.602090001510746" lon="-121.53297000020218">
    <ele>12.990000000000002</ele>
   </trkpt>
   <trkpt lat="38.602030000000006" lon="-121.53356000000001">
    <ele>13.070000000000002</ele>
   </trkpt>
   <trkpt lat="38.601850000000006" lon="-121.53463">
    <ele>13.15</ele>
   </trkpt>
   <trkpt lat="38.60156500291569" lon="-121.5354550032192">
    <ele>13.260000000000002</ele>
   </trkpt>
   <trkpt lat="38.60128" lon="-121.53628">
    <ele>12.110000000000001</ele>
   </trkpt>
   <trkpt lat="38.60099" lon="-121.53661000000001">
    <ele>10.790000000000001</ele>
   </trkpt>
   <trkpt lat="38.60067" lon="-121.53690000000002">
    <ele>7.470000000000001</ele>
   </trkpt>
   <trkpt lat="38.60058" lon="-121.53687000000001">
    <ele>7.050000000000001</ele>
   </trkpt>
   <trkpt lat="38.60067" lon="-121.53690000000002">
    <ele>7.470000000000001</ele>
   </trkpt>
   <trkpt lat="38.601000000000006" lon="-121.5366">
    <ele>11.240000000000002</ele>
   </trkpt>
   <trkpt lat="38.60128" lon="-121.53628">
    <ele>12.110000000000001</ele>
   </trkpt>
   <trkpt lat="38.60156500287635" lon="-121.53545500333308">
    <ele>13.260000000000002</ele>
   </trkpt>
   <trkpt lat="38.601850000000006" lon="-121.53463">
    <ele>13.15</ele>
   </trkpt>
   <trkpt lat="38.602030000000006" lon="-121.53356000000001">
    <ele>13.070000000000002</ele>
   </trkpt>
   <trkpt lat="38.60209000145155" lon="-121.5329700007843">
    <ele>12.990000000000002</ele>
   </trkpt>
   <trkpt lat="38.60215" lon="-121.53238">
    <ele>12.990000000000002</ele>
   </trkpt>
   <trkpt lat="38.60230000360126" lon="-121.53146000192388">
    <ele>13.06</ele>
   </trkpt>
   <trkpt lat="38.602450000000005" lon="-121.53054000000002">
    <ele>12.870000000000001</ele>
   </trkpt>
   <trkpt lat="38.60255500258361" lon="-121.52976000117923">
    <ele>12.42</ele>
   </trkpt>
   <trkpt lat="38.60266" lon="-121.52898">
    <ele>12.06</ele>
   </trkpt>
   <trkpt lat="38.6027250051557" lon="-121.52788000087497">
    <ele>11.73</ele>
   </trkpt>
   <trkpt lat="38.602790000000006" lon="-121.52678000000002">
    <ele>12.08</ele>
   </trkpt>
   <trkpt lat="38.60278000261939" lon="-121.52599499968319">
    <ele>12.780000000000001</ele>
   </trkpt>
   <trkpt lat="38.60277000000001" lon="-121.52521000000002">
    <ele>12.780000000000001</ele>
   </trkpt>
   <trkpt lat="38.60275" lon="-121.52420000000001">
    <ele>11.71</ele>
   </trkpt>
   <trkpt lat="38.602720000000005" lon="-121.52365">
    <ele>11.580000000000002</ele>
   </trkpt>
   <trkpt lat="38.602630000000005" lon="-121.52276">
    <ele>11.44</ele>
   </trkpt>
   <trkpt lat="38.602525002772474" lon="-121.52195499893827">
    <ele>11.23</ele>
   </trkpt>
   <trkpt lat="38.60242" lon="-121.52115">
    <ele>10.910000000000002</ele>
   </trkpt>
   <trkpt lat="38.60237" lon="-121.52016">
    <ele>10.700000000000001</ele>
   </trkpt>
   <trkpt lat="38.602320000000006" lon="-121.5198">
    <ele>10.690000000000001</ele>
   </trkpt>
   <trkpt lat="38.60216500173021" lon="-121.51914999831304">
    <ele>10.560000000000002</ele>
   </trkpt>
   <trkpt lat="38.60201" lon="-121.5185">
    <ele>10.440000000000001</ele>
   </trkpt>
   <trkpt lat="38.60177" lon="-121.51765">
    <ele>10.370000000000001</ele>
   </trkpt>
   <trkpt lat="38.60142500468126" lon="-121.51659999492274">
    <ele>10.040000000000001</ele>
   </trkpt>
   <trkpt lat="38.60108" lon="-121.51555">
    <ele>9.73</ele>
   </trkpt>
   <trkpt lat="38.600620000000006" lon="-121.5147">
    <ele>9.74</ele>
   </trkpt>
   <trkpt lat="38.600500000000004" lon="-121.51455000000001">
    <ele>9.74</ele>
   </trkpt>
   <trkpt lat="38.60049" lon="-121.51453000000001">
    <ele>13.14</ele>
   </trkpt>
   <trkpt lat="38.60049" lon="-121.51451000000002">
    <ele>13.14</ele>
   </trkpt>
   <trkpt lat="38.600390000000004" lon="-121.51438000000002">
    <ele>12.860000000000001</ele>
   </trkpt>
   <trkpt lat="38.59995" lon="-121.51410000000001">
    <ele>13.27</ele>
   </trkpt>
   <trkpt lat="38.599405000719166" lon="-121.51367999678669">
    <ele>11.540000000000001</ele>
   </trkpt>
   <trkpt lat="38.59886" lon="-121.51326000000002">
    <ele>11.21</ele>
   </trkpt>
   <trkpt lat="38.59817" lon="-121.51277">
    <ele>10.870000000000001</ele>
   </trkpt>
   <trkpt lat="38.59807" lon="-121.51275000000001">
    <ele>10.950000000000001</ele>
   </trkpt>
   <trkpt lat="38.59801" lon="-121.51277">
    <ele>10.950000000000001</ele>
   </trkpt>
   <trkpt lat="38.59741" lon="-121.51318">
    <ele>10.57</ele>
   </trkpt>
   <trkpt lat="38.59729" lon="-121.51323000000001">
    <ele>10.57</ele>
   </trkpt>
   <trkpt lat="38.59713" lon="-121.51327">
    <ele>10.6</ele>
   </trkpt>
   <trkpt lat="38.59693" lon="-121.51327">
    <ele>10.560000000000002</ele>
   </trkpt>
   <trkpt lat="38.5962" lon="-121.51304">
    <ele>10.98</ele>
   </trkpt>
   <trkpt lat="38.59564" lon="-121.51270000000001">
    <ele>11.11</ele>
   </trkpt>
   <trkpt lat="38.595330000000004" lon="-121.51252000000001">
    <ele>11.120000000000001</ele>
   </trkpt>
   <trkpt lat="38.595040000000004" lon="-121.51242">
    <ele>11.18</ele>
   </trkpt>
   <trkpt lat="38.594710000000006" lon="-121.51232000000002">
    <ele>11.19</ele>
   </trkpt>
   <trkpt lat="38.59393000024077" lon="-121.51215999652786">
    <ele>11.340000000000002</ele>
   </trkpt>
   <trkpt lat="38.593150000263684" lon="-121.51199999653264">
    <ele>10.700000000000001</ele>
   </trkpt>
   <trkpt lat="38.59237" lon="-121.51184">
    <ele>10.76</ele>
   </trkpt>
   <trkpt lat="38.591660000000005" lon="-121.51166">
    <ele>10.98</ele>
   </trkpt>
   <trkpt lat="38.59156" lon="-121.51161">
    <ele>10.97</ele>
   </trkpt>
   <trkpt lat="38.5914" lon="-121.51143">
    <ele>10.97</ele>
   </trkpt>
   <trkpt lat="38.59122" lon="-121.51111000000002">
    <ele>10.700000000000001</ele>
   </trkpt>
   <trkpt lat="38.59103" lon="-121.51095000000001">
    <ele>10.59</ele>
   </trkpt>
   <trkpt lat="38.59046" lon="-121.51031">
    <ele>10.93</ele>
   </trkpt>
   <trkpt lat="38.590140000000005" lon="-121.50976000000001">
    <ele>10.93</ele>
   </trkpt>
   <trkpt lat="38.59008" lon="-121.50968">
    <ele>11.06</ele>
   </trkpt>
   <trkpt lat="38.589800001612254" lon="-121.5090649976084">
    <ele>11.240000000000002</ele>
   </trkpt>
   <trkpt lat="38.58952" lon="-121.50845000000001">
    <ele>11.36</ele>
   </trkpt>
   <trkpt lat="38.589510000000004" lon="-121.50845000000001">
    <ele>12.33</ele>
   </trkpt>
   <trkpt lat="38.58937" lon="-121.50812">
    <ele>12.190000000000001</ele>
   </trkpt>
   <trkpt lat="38.58903" lon="-121.50798">
    <ele>9.01</ele>
   </trkpt>
   <trkpt lat="38.588710000000006" lon="-121.50789">
    <ele>11.4</ele>
   </trkpt>
   <trkpt lat="38.588240000000006" lon="-121.50787000000001">
    <ele>11.290000000000001</ele>
   </trkpt>
   <trkpt lat="38.58789" lon="-121.50791000000001">
    <ele>12.0</ele>
   </trkpt>
   <trkpt lat="38.587230000000005" lon="-121.50803">
    <ele>11.590000000000002</ele>
   </trkpt>
   <trkpt lat="38.586920000000006" lon="-121.50813000000001">
    <ele>11.47</ele>
   </trkpt>
   <trkpt lat="38.58677" lon="-121.50798">
    <ele>8.9</ele>
   </trkpt>
   <trkpt lat="38.586650000000006" lon="-121.50765000000001">
    <ele>6.960000000000001</ele>
   </trkpt>
   <trkpt lat="38.58643" lon="-121.50779000000001">
    <ele>7.48</ele>
   </trkpt>
   <trkpt lat="38.586330000000004" lon="-121.50782000000001">
    <ele>7.53</ele>
   </trkpt>
   <trkpt lat="38.585660000000004" lon="-121.50820000000002">
    <ele>10.85</ele>
   </trkpt>
   <trkpt lat="38.58560000000001" lon="-121.50834">
    <ele>11.15</ele>
   </trkpt>
   <trkpt lat="38.58492500002179" lon="-121.50848500137747">
    <ele>11.21</ele>
   </trkpt>
   <trkpt lat="38.584250000000004" lon="-121.50863000000001">
    <ele>11.170000000000002</ele>
   </trkpt>
   <trkpt lat="38.58349500011503" lon="-121.50878000157311">
    <ele>11.170000000000002</ele>
   </trkpt>
   <trkpt lat="38.58274" lon="-121.50893">
    <ele>11.170000000000002</ele>
   </trkpt>
   <trkpt lat="38.58221" lon="-121.50918000000001">
    <ele>11.23</ele>
   </trkpt>
   <trkpt lat="38.581480000000006" lon="-121.50943000000001">
    <ele>11.15</ele>
   </trkpt>
   <trkpt lat="38.58124" lon="-121.50973">
    <ele>11.56</ele>
   </trkpt>
   <trkpt lat="38.581140000000005" lon="-121.50978">
    <ele>11.940000000000001</ele>
   </trkpt>
   <trkpt lat="38.58102" lon="-121.50990000000002">
    <ele>12.100000000000001</ele>
   </trkpt>
   <trkpt lat="38.580960000000005" lon="-121.50980000000001">
    <ele>12.17</ele>
   </trkpt>
   <trkpt lat="38.58073000623123" lon="-121.50894332779839">
    <ele>12.76</ele>
   </trkpt>
   <trkpt lat="38.58050000621821" lon="-121.50808666108337">
    <ele>12.63</ele>
   </trkpt>
   <trkpt lat="38.580270000000006" lon="-121.50723">
    <ele>10.58</ele>
   </trkpt>
   <trkpt lat="38.580270000000006" lon="-121.50722">
    <ele>10.58</ele>
   </trkpt>
   <trkpt lat="38.58039" lon="-121.50717000000002">
    <ele>10.31</ele>
   </trkpt>
   <trkpt lat="38.58073" lon="-121.50709">
    <ele>10.040000000000001</ele>
   </trkpt>
   <trkpt lat="38.5814" lon="-121.50683000000001">
    <ele>9.53</ele>
   </trkpt>
   <trkpt lat="38.58203" lon="-121.50663000000002">
    <ele>9.760000000000002</ele>
   </trkpt>
   <trkpt lat="38.582530000000006" lon="-121.50645000000002">
    <ele>9.46</ele>
   </trkpt>
   <trkpt lat="38.58267" lon="-121.50646">
    <ele>9.420000000000002</ele>
   </trkpt>
   <trkpt lat="38.58339" lon="-121.5062">
    <ele>9.23</ele>
   </trkpt>
   <trkpt lat="38.58346" lon="-121.50615">
    <ele>9.23</ele>
   </trkpt>
   <trkpt lat="38.58366" lon="-121.50607000000001">
    <ele>9.23</ele>
   </trkpt>
   <trkpt lat="38.583830000000006" lon="-121.50597">
    <ele>9.18</ele>
   </trkpt>
   <trkpt lat="38.58430000002104" lon="-121.50580500111316">
    <ele>9.030000000000001</ele>
   </trkpt>
   <trkpt lat="38.584770000000006" lon="-121.50564000000001">
    <ele>9.18</ele>
   </trkpt>
   <trkpt lat="38.58496" lon="-121.50558000000001">
    <ele>8.97</ele>
   </trkpt>
   <trkpt lat="38.58507" lon="-121.50559000000001">
    <ele>8.97</ele>
   </trkpt>
   <trkpt lat="38.585480000000004" lon="-121.50543">
    <ele>10.020000000000001</ele>
   </trkpt>
   <trkpt lat="38.58560000000001" lon="-121.50539">
    <ele>9.72</ele>
   </trkpt>
   <trkpt lat="38.58583" lon="-121.50541000000001">
    <ele>8.5</ele>
   </trkpt>
   <trkpt lat="38.586490000000005" lon="-121.50516">
    <ele>9.7</ele>
   </trkpt>
   <trkpt lat="38.58681" lon="-121.50495000000001">
    <ele>10.290000000000001</ele>
   </trkpt>
   <trkpt lat="38.58693" lon="-121.50494">
    <ele>10.280000000000001</ele>
   </trkpt>
   <trkpt lat="38.58773000009143" lon="-121.50491500027579">
    <ele>10.4</ele>
   </trkpt>
   <trkpt lat="38.588530000000006" lon="-121.50489">
    <ele>10.47</ele>
   </trkpt>
   <trkpt lat="38.58932" lon="-121.50503">
    <ele>10.8</ele>
   </trkpt>
   <trkpt lat="38.590160000000004" lon="-121.50525">
    <ele>11.030000000000001</ele>
   </trkpt>
   <trkpt lat="38.59085" lon="-121.50532000000001">
    <ele>10.990000000000002</ele>
   </trkpt>
   <trkpt lat="38.591170000000005" lon="-121.50538000000002">
    <ele>11.09</ele>
   </trkpt>
   <trkpt lat="38.59134" lon="-121.50544000000001">
    <ele>10.77</ele>
   </trkpt>
   <trkpt lat="38.591930000000005" lon="-121.50574">
    <ele>7.680000000000001</ele>
   </trkpt>
   <trkpt lat="38.59273" lon="-121.50597">
    <ele>11.09</ele>
   </trkpt>
   <trkpt lat="38.593500000000006" lon="-121.50633">
    <ele>11.27</ele>
   </trkpt>
   <trkpt lat="38.59371" lon="-121.50635000000001">
    <ele>11.35</ele>
   </trkpt>
   <trkpt lat="38.59405" lon="-121.50642">
    <ele>11.35</ele>
   </trkpt>
   <trkpt lat="38.594570000000004" lon="-121.50641000000002">
    <ele>11.71</ele>
   </trkpt>
   <trkpt lat="38.594840000000005" lon="-121.50646">
    <ele>11.690000000000001</ele>
   </trkpt>
   <trkpt lat="38.59557000028443" lon="-121.50668499773317">
    <ele>11.79</ele>
   </trkpt>
   <trkpt lat="38.59630000000001" lon="-121.50691">
    <ele>11.48</ele>
   </trkpt>
   <trkpt lat="38.59644" lon="-121.50695">
    <ele>11.580000000000002</ele>
   </trkpt>
   <trkpt lat="38.596590000000006" lon="-121.50692000000001">
    <ele>11.580000000000002</ele>
   </trkpt>
   <trkpt lat="38.59673" lon="-121.50687">
    <ele>11.55</ele>
   </trkpt>
   <trkpt lat="38.59686000000001" lon="-121.50681000000002">
    <ele>11.340000000000002</ele>
   </trkpt>
   <trkpt lat="38.597515000915394" lon="-121.50632000455079">
    <ele>11.19</ele>
   </trkpt>
   <trkpt lat="38.59817" lon="-121.50583">
    <ele>11.250000000000002</ele>
   </trkpt>
   <trkpt lat="38.59864" lon="-121.50531000000001">
    <ele>11.940000000000001</ele>
   </trkpt>
   <trkpt lat="38.598690000000005" lon="-121.5053">
    <ele>12.260000000000002</ele>
   </trkpt>
   <trkpt lat="38.59875" lon="-121.50517">
    <ele>12.63</ele>
   </trkpt>
   <trkpt lat="38.598690000000005" lon="-121.5053">
    <ele>12.260000000000002</ele>
   </trkpt>
   <trkpt lat="38.59864" lon="-121.50531000000001">
    <ele>11.940000000000001</ele>
   </trkpt>
   <trkpt lat="38.59817" lon="-121.50583">
    <ele>11.250000000000002</ele>
   </trkpt>
   <trkpt lat="38.597515001127775" lon="-121.5063200043919">
    <ele>11.19</ele>
   </trkpt>
   <trkpt lat="38.59686000000001" lon="-121.50681000000002">
    <ele>11.340000000000002</ele>
   </trkpt>
   <trkpt lat="38.59673" lon="-121.50687">
    <ele>11.55</ele>
   </trkpt>
   <trkpt lat="38.596590000000006" lon="-121.50692000000001">
    <ele>11.580000000000002</ele>
   </trkpt>
   <trkpt lat="38.59644" lon="-121.50695">
    <ele>11.580000000000002</ele>
   </trkpt>
   <trkpt lat="38.59630000000001" lon="-121.50691">
    <ele>11.48</ele>
   </trkpt>
   <trkpt lat="38.59557000014637" lon="-121.50668499769061">
    <ele>11.9</ele>
   </trkpt>
   <trkpt lat="38.594840000000005" lon="-121.50646">
    <ele>11.690000000000001</ele>
   </trkpt>
   <trkpt lat="38.594570000000004" lon="-121.50641000000002">
    <ele>11.71</ele>
   </trkpt>
   <trkpt lat="38.59405" lon="-121.50642">
    <ele>11.35</ele>
   </trkpt>
   <trkpt lat="38.59371" lon="-121.50635000000001">
    <ele>11.27</ele>
   </trkpt>
   <trkpt lat="38.593500000000006" lon="-121.50633">
    <ele>11.27</ele>
   </trkpt>
   <trkpt lat="38.59273" lon="-121.50597">
    <ele>11.09</ele>
   </trkpt>
   <trkpt lat="38.591930000000005" lon="-121.50574">
    <ele>7.710000000000001</ele>
   </trkpt>
   <trkpt lat="38.59134" lon="-121.50544000000001">
    <ele>10.77</ele>
   </trkpt>
   <trkpt lat="38.591170000000005" lon="-121.50538000000002">
    <ele>11.09</ele>
   </trkpt>
   <trkpt lat="38.59085" lon="-121.50532000000001">
    <ele>10.990000000000002</ele>
   </trkpt>
   <trkpt lat="38.590160000000004" lon="-121.50525">
    <ele>11.030000000000001</ele>
   </trkpt>
   <trkpt lat="38.58932" lon="-121.50503">
    <ele>10.8</ele>
   </trkpt>
   <trkpt lat="38.588530000000006" lon="-121.50489">
    <ele>10.47</ele>
   </trkpt>
   <trkpt lat="38.5877299999139" lon="-121.50491500028134">
    <ele>10.4</ele>
   </trkpt>
   <trkpt lat="38.58693" lon="-121.50494">
    <ele>10.290000000000001</ele>
   </trkpt>
   <trkpt lat="38.58681" lon="-121.50495000000001">
    <ele>10.290000000000001</ele>
   </trkpt>
   <trkpt lat="38.586490000000005" lon="-121.50516">
    <ele>9.7</ele>
   </trkpt>
   <trkpt lat="38.58583" lon="-121.50541000000001">
    <ele>8.5</ele>
   </trkpt>
   <trkpt lat="38.58560000000001" lon="-121.50539">
    <ele>9.860000000000001</ele>
   </trkpt>
   <trkpt lat="38.585480000000004" lon="-121.50543">
    <ele>10.030000000000001</ele>
   </trkpt>
   <trkpt lat="38.58507" lon="-121.50559000000001">
    <ele>8.97</ele>
   </trkpt>
   <trkpt lat="38.58496" lon="-121.50558000000001">
    <ele>8.97</ele>
   </trkpt>
   <trkpt lat="38.584770000000006" lon="-121.50564000000001">
    <ele>9.18</ele>
   </trkpt>
   <trkpt lat="38.584300000210625" lon="-121.50580500104661">
    <ele>9.030000000000001</ele>
   </trkpt>
   <trkpt lat="38.583830000000006" lon="-121.50597">
    <ele>9.18</ele>
   </trkpt>
   <trkpt lat="38.58366" lon="-121.50607000000001">
    <ele>9.23</ele>
   </trkpt>
   <trkpt lat="38.58346" lon="-121.50615">
    <ele>9.23</ele>
   </trkpt>
   <trkpt lat="38.58339" lon="-121.5062">
    <ele>9.23</ele>
   </trkpt>
   <trkpt lat="38.58267" lon="-121.50646">
    <ele>9.420000000000002</ele>
   </trkpt>
   <trkpt lat="38.582530000000006" lon="-121.50645000000002">
    <ele>9.46</ele>
   </trkpt>
   <trkpt lat="38.58203" lon="-121.50663000000002">
    <ele>9.760000000000002</ele>
   </trkpt>
   <trkpt lat="38.5814" lon="-121.50683000000001">
    <ele>9.53</ele>
   </trkpt>
   <trkpt lat="38.581300000000006" lon="-121.50642">
    <ele>9.120000000000001</ele>
   </trkpt>
   <trkpt lat="38.580920000000006" lon="-121.50659000000002">
    <ele>8.9</ele>
   </trkpt>
   <trkpt lat="38.58076500138058" lon="-121.50601499866272">
    <ele>5.790000000000001</ele>
   </trkpt>
   <trkpt lat="38.58061" lon="-121.50544000000001">
    <ele>6.3500000000000005</ele>
   </trkpt>
   <trkpt lat="38.580540000000006" lon="-121.50534">
    <ele>6.65</ele>
   </trkpt>
   <trkpt lat="38.58044" lon="-121.50540000000001">
    <ele>6.15</ele>
   </trkpt>
   <trkpt lat="38.580070000000006" lon="-121.50579">
    <ele>3.16</ele>
   </trkpt>
   <trkpt lat="38.57958000109865" lon="-121.50632500377974">
    <ele>3.0700000000000003</ele>
   </trkpt>
   <trkpt lat="38.57909" lon="-121.50686">
    <ele>7.24</ele>
   </trkpt>
   <trkpt lat="38.57902" lon="-121.507">
    <ele>7.24</ele>
   </trkpt>
   <trkpt lat="38.579010000000004" lon="-121.50727">
    <ele>8.17</ele>
   </trkpt>
   <trkpt lat="38.578990000000005" lon="-121.50733000000001">
    <ele>8.17</ele>
   </trkpt>
   <trkpt lat="38.57894" lon="-121.5074">
    <ele>8.4</ele>
   </trkpt>
   <trkpt lat="38.57849500017389" lon="-121.50758500113437">
    <ele>9.06</ele>
   </trkpt>
   <trkpt lat="38.578050000000005" lon="-121.50777000000001">
    <ele>9.160000000000002</ele>
   </trkpt>
   <trkpt lat="38.57751500061124" lon="-121.50812000254788">
    <ele>9.31</ele>
   </trkpt>
   <trkpt lat="38.576980000000006" lon="-121.50847000000002">
    <ele>9.45</ele>
   </trkpt>
   <trkpt lat="38.57643500021452" lon="-121.50874000209588">
    <ele>9.760000000000002</ele>
   </trkpt>
   <trkpt lat="38.57589" lon="-121.50901">
    <ele>9.850000000000001</ele>
   </trkpt>
   <trkpt lat="38.57542" lon="-121.50922000000001">
    <ele>10.180000000000001</ele>
   </trkpt>
   <trkpt lat="38.57551" lon="-121.50951">
    <ele>10.24</ele>
   </trkpt>
   <trkpt lat="38.575750000000006" lon="-121.50932000000002">
    <ele>10.100000000000001</ele>
   </trkpt>
   <trkpt lat="38.576350000000005" lon="-121.50892">
    <ele>9.940000000000001</ele>
   </trkpt>
   <trkpt lat="38.57694666729858" lon="-121.50864000466808">
    <ele>10.270000000000001</ele>
   </trkpt>
   <trkpt lat="38.577543333930116" lon="-121.50836000468463">
    <ele>10.25</ele>
   </trkpt>
   <trkpt lat="38.578140000000005" lon="-121.50808">
    <ele>10.33</ele>
   </trkpt>
   <trkpt lat="38.578595000259945" lon="-121.50788000122745">
    <ele>10.32</ele>
   </trkpt>
   <trkpt lat="38.57905" lon="-121.50768000000001">
    <ele>10.08</ele>
   </trkpt>
   <trkpt lat="38.57951000016907" lon="-121.50752500097016">
    <ele>10.100000000000001</ele>
   </trkpt>
   <trkpt lat="38.57997" lon="-121.50737000000001">
    <ele>10.22</ele>
   </trkpt>
   <trkpt lat="38.58019" lon="-121.50725000000001">
    <ele>10.47</ele>
   </trkpt>
   <trkpt lat="38.580200000000005" lon="-121.50725000000001">
    <ele>10.47</ele>
   </trkpt>
   <trkpt lat="38.58015" lon="-121.50728000000001">
    <ele>10.440000000000001</ele>
   </trkpt>
   <trkpt lat="38.580180000000006" lon="-121.50739000000002">
    <ele>10.560000000000002</ele>
   </trkpt>
   <trkpt lat="38.58023" lon="-121.50745">
    <ele>10.560000000000002</ele>
   </trkpt>
   <trkpt lat="38.58045000613031" lon="-121.50829666159945">
    <ele>12.200000000000001</ele>
   </trkpt>
   <trkpt lat="38.58067000616142" lon="-121.50914332838576">
    <ele>12.270000000000001</ele>
   </trkpt>
   <trkpt lat="38.580890000000004" lon="-121.50999000000002">
    <ele>11.920000000000002</ele>
   </trkpt>
   <trkpt lat="38.58077" lon="-121.51004">
    <ele>11.89</ele>
   </trkpt>
   <trkpt lat="38.58041" lon="-121.51001000000001">
    <ele>11.62</ele>
   </trkpt>
   <trkpt lat="38.579750000000004" lon="-121.51027">
    <ele>11.540000000000001</ele>
   </trkpt>
   <trkpt lat="38.57897500065504" lon="-121.51068000445565">
    <ele>11.13</ele>
   </trkpt>
   <trkpt lat="38.5782" lon="-121.51109000000001">
    <ele>11.080000000000002</ele>
   </trkpt>
   <trkpt lat="38.57897500077522" lon="-121.51068000439203">
    <ele>11.13</ele>
   </trkpt>
   <trkpt lat="38.579750000000004" lon="-121.51027">
    <ele>11.540000000000001</ele>
   </trkpt>
   <trkpt lat="38.58019" lon="-121.51011000000001">
    <ele>11.63</ele>
   </trkpt>
   <trkpt lat="38.58061500055083" lon="-121.50989500109307">
    <ele>12.38</ele>
   </trkpt>
   <trkpt lat="38.58104" lon="-121.50968">
    <ele>12.38</ele>
   </trkpt>
   <trkpt lat="38.58111" lon="-121.50965000000001">
    <ele>10.84</ele>
   </trkpt>
   <trkpt lat="38.581070000000004" lon="-121.50950000000002">
    <ele>10.84</ele>
   </trkpt>
   <trkpt lat="38.58124" lon="-121.50932000000002">
    <ele>8.870000000000001</ele>
   </trkpt>
   <trkpt lat="38.58146" lon="-121.50915">
    <ele>6.840000000000001</ele>
   </trkpt>
   <trkpt lat="38.58153" lon="-121.50913000000001">
    <ele>6.8100000000000005</ele>
   </trkpt>
   <trkpt lat="38.58196" lon="-121.5091">
    <ele>8.66</ele>
   </trkpt>
   <trkpt lat="38.58247" lon="-121.50901">
    <ele>11.21</ele>
   </trkpt>
   <trkpt lat="38.58249" lon="-121.50904000000001">
    <ele>11.21</ele>
   </trkpt>
   <trkpt lat="38.58274" lon="-121.50893">
    <ele>11.170000000000002</ele>
   </trkpt>
   <trkpt lat="38.58349500007642" lon="-121.50878000158082">
    <ele>11.170000000000002</ele>
   </trkpt>
   <trkpt lat="38.584250000000004" lon="-121.50863000000001">
    <ele>11.170000000000002</ele>
   </trkpt>
   <trkpt lat="38.58492500015711" lon="-121.50848500134839">
    <ele>11.21</ele>
   </trkpt>
   <trkpt lat="38.58560000000001" lon="-121.50834">
    <ele>11.15</ele>
   </trkpt>
   <trkpt lat="38.585660000000004" lon="-121.50820000000002">
    <ele>10.85</ele>
   </trkpt>
   <trkpt lat="38.586330000000004" lon="-121.50782000000001">
    <ele>7.53</ele>
   </trkpt>
   <trkpt lat="38.58643" lon="-121.50779000000001">
    <ele>7.48</ele>
   </trkpt>
   <trkpt lat="38.586650000000006" lon="-121.50765000000001">
    <ele>7.450000000000001</ele>
   </trkpt>
   <trkpt lat="38.58677" lon="-121.50798">
    <ele>8.9</ele>
   </trkpt>
   <trkpt lat="38.58691" lon="-121.50814000000001">
    <ele>11.71</ele>
   </trkpt>
   <trkpt lat="38.58717" lon="-121.50804000000001">
    <ele>11.82</ele>
   </trkpt>
   <trkpt lat="38.58768499970561" lon="-121.50795500066332">
    <ele>11.83</ele>
   </trkpt>
   <trkpt lat="38.5882" lon="-121.50787000000001">
    <ele>11.57</ele>
   </trkpt>
   <trkpt lat="38.588530000000006" lon="-121.50788000000001">
    <ele>11.38</ele>
   </trkpt>
   <trkpt lat="38.588750000000005" lon="-121.50791000000001">
    <ele>12.100000000000001</ele>
   </trkpt>
   <trkpt lat="38.589020000000005" lon="-121.50798">
    <ele>9.01</ele>
   </trkpt>
   <trkpt lat="38.58937" lon="-121.50813000000001">
    <ele>12.190000000000001</ele>
   </trkpt>
   <trkpt lat="38.589400000000005" lon="-121.50847000000002">
    <ele>10.8</ele>
   </trkpt>
   <trkpt lat="38.589510000000004" lon="-121.50845000000001">
    <ele>11.370000000000001</ele>
   </trkpt>
   <trkpt lat="38.58979500174221" lon="-121.50906499784587">
    <ele>11.240000000000002</ele>
   </trkpt>
   <trkpt lat="38.59008" lon="-121.50968">
    <ele>11.06</ele>
   </trkpt>
   <trkpt lat="38.590140000000005" lon="-121.50976000000001">
    <ele>10.93</ele>
   </trkpt>
   <trkpt lat="38.59046" lon="-121.51031">
    <ele>10.93</ele>
   </trkpt>
   <trkpt lat="38.59103" lon="-121.51095000000001">
    <ele>10.59</ele>
   </trkpt>
   <trkpt lat="38.59122" lon="-121.51111000000002">
    <ele>10.700000000000001</ele>
   </trkpt>
   <trkpt lat="38.5914" lon="-121.51143">
    <ele>10.97</ele>
   </trkpt>
   <trkpt lat="38.59156" lon="-121.51161">
    <ele>10.97</ele>
   </trkpt>
   <trkpt lat="38.591660000000005" lon="-121.51166">
    <ele>10.98</ele>
   </trkpt>
   <trkpt lat="38.59237" lon="-121.51184">
    <ele>10.76</ele>
   </trkpt>
   <trkpt lat="38.59315000019492" lon="-121.51199999651851">
    <ele>10.730000000000002</ele>
   </trkpt>
   <trkpt lat="38.59393000017201" lon="-121.51215999651374">
    <ele>11.340000000000002</ele>
   </trkpt>
   <trkpt lat="38.594710000000006" lon="-121.51232000000002">
    <ele>11.19</ele>
   </trkpt>
   <trkpt lat="38.595040000000004" lon="-121.51242">
    <ele>11.18</ele>
   </trkpt>
   <trkpt lat="38.595330000000004" lon="-121.51252000000001">
    <ele>11.120000000000001</ele>
   </trkpt>
   <trkpt lat="38.59564" lon="-121.51270000000001">
    <ele>11.11</ele>
   </trkpt>
   <trkpt lat="38.5962" lon="-121.51304">
    <ele>10.98</ele>
   </trkpt>
   <trkpt lat="38.59693" lon="-121.51327">
    <ele>10.560000000000002</ele>
   </trkpt>
   <trkpt lat="38.59713" lon="-121.51327">
    <ele>10.6</ele>
   </trkpt>
   <trkpt lat="38.59729" lon="-121.51323000000001">
    <ele>10.57</ele>
   </trkpt>
   <trkpt lat="38.59741" lon="-121.51318">
    <ele>10.57</ele>
   </trkpt>
   <trkpt lat="38.59801" lon="-121.51277">
    <ele>10.950000000000001</ele>
   </trkpt>
   <trkpt lat="38.59807" lon="-121.51275000000001">
    <ele>10.950000000000001</ele>
   </trkpt>
   <trkpt lat="38.59817" lon="-121.51277">
    <ele>10.870000000000001</ele>
   </trkpt>
   <trkpt lat="38.59886" lon="-121.51326000000002">
    <ele>11.21</ele>
   </trkpt>
   <trkpt lat="38.59949000102268" lon="-121.51373999581908">
    <ele>11.540000000000001</ele>
   </trkpt>
   <trkpt lat="38.600120000000004" lon="-121.51422000000001">
    <ele>11.79</ele>
   </trkpt>
   <trkpt lat="38.600390000000004" lon="-121.51443">
    <ele>12.96</ele>
   </trkpt>
   <trkpt lat="38.600460000000005" lon="-121.51450000000001">
    <ele>9.74</ele>
   </trkpt>
   <trkpt lat="38.60049" lon="-121.51453000000001">
    <ele>9.74</ele>
   </trkpt>
   <trkpt lat="38.600620000000006" lon="-121.5147">
    <ele>9.74</ele>
   </trkpt>
   <trkpt lat="38.60108" lon="-121.51555">
    <ele>9.73</ele>
   </trkpt>
   <trkpt lat="38.60142500470088" lon="-121.51659999498246">
    <ele>10.040000000000001</ele>
   </trkpt>
   <trkpt lat="38.60177" lon="-121.51765">
    <ele>10.370000000000001</ele>
   </trkpt>
   <trkpt lat="38.60201" lon="-121.5185">
    <ele>10.440000000000001</ele>
   </trkpt>
   <trkpt lat="38.60216500186525" lon="-121.51914999887931">
    <ele>10.560000000000002</ele>
   </trkpt>
   <trkpt lat="38.602320000000006" lon="-121.5198">
    <ele>10.690000000000001</ele>
   </trkpt>
   <trkpt lat="38.60237" lon="-121.52016">
    <ele>10.700000000000001</ele>
   </trkpt>
   <trkpt lat="38.60242" lon="-121.52115">
    <ele>10.910000000000002</ele>
   </trkpt>
   <trkpt lat="38.6025250027422" lon="-121.5219549987062">
    <ele>11.23</ele>
   </trkpt>
   <trkpt lat="38.602630000000005" lon="-121.52276">
    <ele>11.44</ele>
   </trkpt>
   <trkpt lat="38.602720000000005" lon="-121.52365">
    <ele>11.520000000000001</ele>
   </trkpt>
   <trkpt lat="38.60275" lon="-121.52420000000001">
    <ele>11.71</ele>
   </trkpt>
   <trkpt lat="38.60276000236034" lon="-121.52494499980006">
    <ele>11.690000000000001</ele>
   </trkpt>
   <trkpt lat="38.60277000000001" lon="-121.52569000000001">
    <ele>11.690000000000001</ele>
   </trkpt>
   <trkpt lat="38.60278" lon="-121.52595000000001">
    <ele>11.780000000000001</ele>
   </trkpt>
   <trkpt lat="38.602790000000006" lon="-121.52661">
    <ele>12.520000000000001</ele>
   </trkpt>
   <trkpt lat="38.602790000000006" lon="-121.52701">
    <ele>12.0</ele>
   </trkpt>
   <trkpt lat="38.60272500413438" lon="-121.52799500079992">
    <ele>11.73</ele>
   </trkpt>
   <trkpt lat="38.60266" lon="-121.52898">
    <ele>12.06</ele>
   </trkpt>
   <trkpt lat="38.602555002593846" lon="-121.52976000110321">
    <ele>12.42</ele>
   </trkpt>
   <trkpt lat="38.602450000000005" lon="-121.53054000000002">
    <ele>12.870000000000001</ele>
   </trkpt>
   <trkpt lat="38.60230000360157" lon="-121.53146000192191">
    <ele>13.06</ele>
   </trkpt>
   <trkpt lat="38.60215" lon="-121.53238">
    <ele>12.990000000000002</ele>
   </trkpt>
   <trkpt lat="38.602090001510746" lon="-121.53297000020218">
    <ele>12.990000000000002</ele>
   </trkpt>
   <trkpt lat="38.602030000000006" lon="-121.53356000000001">
    <ele>13.070000000000002</ele>
   </trkpt>
   <trkpt lat="38.601850000000006" lon="-121.53463">
    <ele>13.15</ele>
   </trkpt>
   <trkpt lat="38.60156500291569" lon="-121.5354550032192">
    <ele>13.260000000000002</ele>
   </trkpt>
   <trkpt lat="38.60128" lon="-121.53628">
    <ele>12.110000000000001</ele>
   </trkpt>
   <trkpt lat="38.601000000000006" lon="-121.5366">
    <ele>11.240000000000002</ele>
   </trkpt>
   <trkpt lat="38.600660000000005" lon="-121.53689000000001">
    <ele>7.46</ele>
   </trkpt>
   <trkpt lat="38.60058" lon="-121.53687000000001">
    <ele>7.050000000000001</ele>
   </trkpt>
   <trkpt lat="38.60067" lon="-121.53690000000002">
    <ele>7.470000000000001</ele>
   </trkpt>
   <trkpt lat="38.601000000000006" lon="-121.5366">
    <ele>11.240000000000002</ele>
   </trkpt>
   <trkpt lat="38.60128" lon="-121.53628">
    <ele>12.110000000000001</ele>
   </trkpt>
   <trkpt lat="38.60156500287635" lon="-121.53545500333308">
    <ele>13.260000000000002</ele>
   </trkpt>
   <trkpt lat="38.601850000000006" lon="-121.53463">
    <ele>13.15</ele>
   </trkpt>
   <trkpt lat="38.602030000000006" lon="-121.53356000000001">
    <ele>13.070000000000002</ele>
   </trkpt>
   <trkpt lat="38.60209000145155" lon="-121.5329700007843">
    <ele>12.990000000000002</ele>
   </trkpt>
   <trkpt lat="38.60215" lon="-121.53238">
    <ele>12.990000000000002</ele>
   </trkpt>
   <trkpt lat="38.60230000360126" lon="-121.53146000192388">
    <ele>13.06</ele>
   </trkpt>
   <trkpt lat="38.602450000000005" lon="-121.53054000000002">
    <ele>12.870000000000001</ele>
   </trkpt>
   <trkpt lat="38.60255500258361" lon="-121.52976000117923">
    <ele>12.42</ele>
   </trkpt>
   <trkpt lat="38.60266" lon="-121.52898">
    <ele>12.06</ele>
   </trkpt>
   <trkpt lat="38.602725004122206" lon="-121.52799500098438">
    <ele>11.73</ele>
   </trkpt>
   <trkpt lat="38.602790000000006" lon="-121.52701">
    <ele>12.0</ele>
   </trkpt>
   <trkpt lat="38.602790000000006" lon="-121.52648">
    <ele>12.040000000000001</ele>
   </trkpt>
   <trkpt lat="38.60277000000001" lon="-121.52569000000001">
    <ele>12.66</ele>
   </trkpt>
   <trkpt lat="38.60276000236291" lon="-121.52494499999236">
    <ele>11.690000000000001</ele>
   </trkpt>
   <trkpt lat="38.60275" lon="-121.52420000000001">
    <ele>11.71</ele>
   </trkpt>
   <trkpt lat="38.602720000000005" lon="-121.52365">
    <ele>11.580000000000002</ele>
   </trkpt>
   <trkpt lat="38.602630000000005" lon="-121.52276">
    <ele>11.44</ele>
   </trkpt>
   <trkpt lat="38.602525002772474" lon="-121.52195499893827">
    <ele>11.23</ele>
   </trkpt>
   <trkpt lat="38.60242" lon="-121.52115">
    <ele>10.910000000000002</ele>
   </trkpt>
   <trkpt lat="38.60237" lon="-121.52016">
    <ele>10.700000000000001</ele>
   </trkpt>
   <trkpt lat="38.602320000000006" lon="-121.5198">
    <ele>10.690000000000001</ele>
   </trkpt>
   <trkpt lat="38.60216500173021" lon="-121.51914999831304">
    <ele>10.560000000000002</ele>
   </trkpt>
   <trkpt lat="38.60201" lon="-121.5185">
    <ele>10.440000000000001</ele>
   </trkpt>
   <trkpt lat="38.60177" lon="-121.51765">
    <ele>10.370000000000001</ele>
   </trkpt>
   <trkpt lat="38.60142500468126" lon="-121.51659999492274">
    <ele>10.040000000000001</ele>
   </trkpt>
   <trkpt lat="38.60108" lon="-121.51555">
    <ele>9.73</ele>
   </trkpt>
   <trkpt lat="38.60063" lon="-121.51473000000001">
    <ele>9.74</ele>
   </trkpt>
   <trkpt lat="38.60061" lon="-121.5147">
    <ele>9.74</ele>
   </trkpt>
   <trkpt lat="38.60049" lon="-121.51452">
    <ele>9.75</ele>
   </trkpt>
   <trkpt lat="38.600370000000005" lon="-121.51443">
    <ele>9.72</ele>
   </trkpt>
   <trkpt lat="38.600350000000006" lon="-121.51443">
    <ele>12.860000000000001</ele>
   </trkpt>
   <trkpt lat="38.600120000000004" lon="-121.51423000000001">
    <ele>12.92</ele>
   </trkpt>
   <trkpt lat="38.59949000093888" lon="-121.5137449956952">
    <ele>11.540000000000001</ele>
   </trkpt>
   <trkpt lat="38.59886" lon="-121.51326000000002">
    <ele>11.21</ele>
   </trkpt>
   <trkpt lat="38.59817" lon="-121.51277">
    <ele>10.870000000000001</ele>
   </trkpt>
   <trkpt lat="38.59807" lon="-121.51275000000001">
    <ele>10.950000000000001</ele>
   </trkpt>
   <trkpt lat="38.59801" lon="-121.51277">
    <ele>10.950000000000001</ele>
   </trkpt>
   <trkpt lat="38.59741" lon="-121.51318">
    <ele>10.57</ele>
   </trkpt>
   <trkpt lat="38.59729" lon="-121.51323000000001">
    <ele>10.57</ele>
   </trkpt>
   <trkpt lat="38.59713" lon="-121.51327">
    <ele>10.6</ele>
   </trkpt>
   <trkpt lat="38.59693" lon="-121.51327">
    <ele>10.560000000000002</ele>
   </trkpt>
   <trkpt lat="38.5962" lon="-121.51304">
    <ele>10.98</ele>
   </trkpt>
   <trkpt lat="38.59564" lon="-121.51270000000001">
    <ele>11.11</ele>
   </trkpt>
   <trkpt lat="38.595330000000004" lon="-121.51252000000001">
    <ele>11.120000000000001</ele>
   </trkpt>
   <trkpt lat="38.595040000000004" lon="-121.51242">
    <ele>11.18</ele>
   </trkpt>
   <trkpt lat="38.594710000000006" lon="-121.51232000000002">
    <ele>11.19</ele>
   </trkpt>
   <trkpt lat="38.59393000024077" lon="-121.51215999652786">
    <ele>11.340000000000002</ele>
   </trkpt>
   <trkpt lat="38.593150000263684" lon="-121.51199999653264">
    <ele>10.700000000000001</ele>
   </trkpt>
   <trkpt lat="38.59237" lon="-121.51184">
    <ele>10.76</ele>
   </trkpt>
   <trkpt lat="38.591660000000005" lon="-121.51166">
    <ele>10.98</ele>
   </trkpt>
   <trkpt lat="38.59156" lon="-121.51161">
    <ele>10.97</ele>
   </trkpt>
   <trkpt lat="38.5914" lon="-121.51143">
    <ele>10.97</ele>
   </trkpt>
   <trkpt lat="38.59122" lon="-121.51111000000002">
    <ele>10.700000000000001</ele>
   </trkpt>
   <trkpt lat="38.59103" lon="-121.51095000000001">
    <ele>10.59</ele>
   </trkpt>
   <trkpt lat="38.59046" lon="-121.51031">
    <ele>10.93</ele>
   </trkpt>
   <trkpt lat="38.590140000000005" lon="-121.50976000000001">
    <ele>10.93</ele>
   </trkpt>
   <trkpt lat="38.59008" lon="-121.50968">
    <ele>11.06</ele>
   </trkpt>
   <trkpt lat="38.58979500147615" lon="-121.50906499727178">
    <ele>11.240000000000002</ele>
   </trkpt>
   <trkpt lat="38.589510000000004" lon="-121.50845000000001">
    <ele>11.370000000000001</ele>
   </trkpt>
   <trkpt lat="38.589490000000005" lon="-121.50846000000001">
    <ele>11.13</ele>
   </trkpt>
   <trkpt lat="38.58946" lon="-121.50826">
    <ele>12.39</ele>
   </trkpt>
   <trkpt lat="38.58937" lon="-121.50813000000001">
    <ele>12.190000000000001</ele>
   </trkpt>
   <trkpt lat="38.58916" lon="-121.50803">
    <ele>8.84</ele>
   </trkpt>
   <trkpt lat="38.588730000000005" lon="-121.5079">
    <ele>12.100000000000001</ele>
   </trkpt>
   <trkpt lat="38.588330000000006" lon="-121.50787000000001">
    <ele>11.73</ele>
   </trkpt>
   <trkpt lat="38.588100000000004" lon="-121.50789">
    <ele>11.91</ele>
   </trkpt>
   <trkpt lat="38.58737" lon="-121.50801000000001">
    <ele>11.81</ele>
   </trkpt>
   <trkpt lat="38.58702" lon="-121.50809000000001">
    <ele>11.46</ele>
   </trkpt>
   <trkpt lat="38.58691" lon="-121.50813000000001">
    <ele>11.71</ele>
   </trkpt>
   <trkpt lat="38.586830000000006" lon="-121.50804000000001">
    <ele>9.89</ele>
   </trkpt>
   <trkpt lat="38.58668" lon="-121.50763">
    <ele>6.82</ele>
   </trkpt>
   <trkpt lat="38.58643" lon="-121.50779000000001">
    <ele>7.48</ele>
   </trkpt>
   <trkpt lat="38.586330000000004" lon="-121.50782000000001">
    <ele>7.53</ele>
   </trkpt>
   <trkpt lat="38.585660000000004" lon="-121.50820000000002">
    <ele>10.85</ele>
   </trkpt>
   <trkpt lat="38.58560000000001" lon="-121.50834">
    <ele>11.15</ele>
   </trkpt>
   <trkpt lat="38.58492500002179" lon="-121.50848500137747">
    <ele>11.21</ele>
   </trkpt>
   <trkpt lat="38.584250000000004" lon="-121.50863000000001">
    <ele>11.170000000000002</ele>
   </trkpt>
   <trkpt lat="38.58349500011503" lon="-121.50878000157311">
    <ele>11.170000000000002</ele>
   </trkpt>
   <trkpt lat="38.58274" lon="-121.50893">
    <ele>11.170000000000002</ele>
   </trkpt>
   <trkpt lat="38.58221" lon="-121.50918000000001">
    <ele>11.23</ele>
   </trkpt>
   <trkpt lat="38.581480000000006" lon="-121.50943000000001">
    <ele>11.15</ele>
   </trkpt>
   <trkpt lat="38.58124" lon="-121.50973">
    <ele>11.56</ele>
   </trkpt>
   <trkpt lat="38.581140000000005" lon="-121.50978">
    <ele>11.940000000000001</ele>
   </trkpt>
   <trkpt lat="38.58102" lon="-121.50990000000002">
    <ele>12.100000000000001</ele>
   </trkpt>
   <trkpt lat="38.580960000000005" lon="-121.50980000000001">
    <ele>12.17</ele>
   </trkpt>
   <trkpt lat="38.58073000623123" lon="-121.50894332779839">
    <ele>12.76</ele>
   </trkpt>
   <trkpt lat="38.58050000621821" lon="-121.50808666108337">
    <ele>12.63</ele>
   </trkpt>
   <trkpt lat="38.580270000000006" lon="-121.50723">
    <ele>10.58</ele>
   </trkpt>
   <trkpt lat="38.580270000000006" lon="-121.50722">
    <ele>10.58</ele>
   </trkpt>
   <trkpt lat="38.58039" lon="-121.50717000000002">
    <ele>10.31</ele>
   </trkpt>
   <trkpt lat="38.58073" lon="-121.50709">
    <ele>10.040000000000001</ele>
   </trkpt>
   <trkpt lat="38.5814" lon="-121.50683000000001">
    <ele>9.53</ele>
   </trkpt>
   <trkpt lat="38.58203" lon="-121.50663000000002">
    <ele>9.760000000000002</ele>
   </trkpt>
   <trkpt lat="38.582530000000006" lon="-121.50645000000002">
    <ele>9.46</ele>
   </trkpt>
   <trkpt lat="38.58267" lon="-121.50646">
    <ele>9.420000000000002</ele>
   </trkpt>
   <trkpt lat="38.58339" lon="-121.5062">
    <ele>9.23</ele>
   </trkpt>
   <trkpt lat="38.58346" lon="-121.50615">
    <ele>9.23</ele>
   </trkpt>
   <trkpt lat="38.58366" lon="-121.50607000000001">
    <ele>9.23</ele>
   </trkpt>
   <trkpt lat="38.583830000000006" lon="-121.50597">
    <ele>9.18</ele>
   </trkpt>
   <trkpt lat="38.58430000002104" lon="-121.50580500111316">
    <ele>9.030000000000001</ele>
   </trkpt>
   <trkpt lat="38.584770000000006" lon="-121.50564000000001">
    <ele>9.18</ele>
   </trkpt>
   <trkpt lat="38.58496" lon="-121.50558000000001">
    <ele>8.97</ele>
   </trkpt>
   <trkpt lat="38.58507" lon="-121.50559000000001">
    <ele>8.97</ele>
   </trkpt>
   <trkpt lat="38.585480000000004" lon="-121.50543">
    <ele>10.020000000000001</ele>
   </trkpt>
   <trkpt lat="38.58560000000001" lon="-121.50539">
    <ele>9.72</ele>
   </trkpt>
   <trkpt lat="38.58583" lon="-121.50541000000001">
    <ele>8.5</ele>
   </trkpt>
   <trkpt lat="38.586490000000005" lon="-121.50516">
    <ele>9.7</ele>
   </trkpt>
   <trkpt lat="38.58681" lon="-121.50495000000001">
    <ele>10.290000000000001</ele>
   </trkpt>
   <trkpt lat="38.58693" lon="-121.50494">
    <ele>10.280000000000001</ele>
   </trkpt>
   <trkpt lat="38.58773000009143" lon="-121.50491500027579">
    <ele>10.4</ele>
   </trkpt>
   <trkpt lat="38.588530000000006" lon="-121.50489">
    <ele>10.47</ele>
   </trkpt>
   <trkpt lat="38.58932" lon="-121.50503">
    <ele>10.8</ele>
   </trkpt>
   <trkpt lat="38.590160000000004" lon="-121.50525">
    <ele>11.030000000000001</ele>
   </trkpt>
   <trkpt lat="38.59085" lon="-121.50532000000001">
    <ele>10.990000000000002</ele>
   </trkpt>
   <trkpt lat="38.591170000000005" lon="-121.50538000000002">
    <ele>11.09</ele>
   </trkpt>
   <trkpt lat="38.59134" lon="-121.50544000000001">
    <ele>10.77</ele>
   </trkpt>
   <trkpt lat="38.591930000000005" lon="-121.50574">
    <ele>7.680000000000001</ele>
   </trkpt>
   <trkpt lat="38.59273" lon="-121.50597">
    <ele>11.09</ele>
   </trkpt>
   <trkpt lat="38.593500000000006" lon="-121.50633">
    <ele>11.27</ele>
   </trkpt>
   <trkpt lat="38.59371" lon="-121.50635000000001">
    <ele>11.35</ele>
   </trkpt>
   <trkpt lat="38.59405" lon="-121.50642">
    <ele>11.35</ele>
   </trkpt>
   <trkpt lat="38.594570000000004" lon="-121.50641000000002">
    <ele>11.71</ele>
   </trkpt>
   <trkpt lat="38.594840000000005" lon="-121.50646">
    <ele>11.690000000000001</ele>
   </trkpt>
   <trkpt lat="38.59557000028443" lon="-121.50668499773317">
    <ele>11.79</ele>
   </trkpt>
   <trkpt lat="38.59630000000001" lon="-121.50691">
    <ele>11.48</ele>
   </trkpt>
   <trkpt lat="38.59644" lon="-121.50695">
    <ele>11.580000000000002</ele>
   </trkpt>
   <trkpt lat="38.596590000000006" lon="-121.50692000000001">
    <ele>11.580000000000002</ele>
   </trkpt>
   <trkpt lat="38.59673" lon="-121.50687">
    <ele>11.55</ele>
   </trkpt>
   <trkpt lat="38.59686000000001" lon="-121.50681000000002">
    <ele>11.340000000000002</ele>
   </trkpt>
   <trkpt lat="38.597515000915394" lon="-121.50632000455079">
    <ele>11.19</ele>
   </trkpt>
   <trkpt lat="38.59817" lon="-121.50583">
    <ele>11.250000000000002</ele>
   </trkpt>
   <trkpt lat="38.59864" lon="-121.50531000000001">
    <ele>11.940000000000001</ele>
   </trkpt>
   <trkpt lat="38.598690000000005" lon="-121.5053">
    <ele>12.260000000000002</ele>
   </trkpt>
   <trkpt lat="38.59875" lon="-121.50517">
    <ele>12.63</ele>
   </trkpt>
   <trkpt lat="38.598690000000005" lon="-121.5053">
    <ele>12.260000000000002</ele>
   </trkpt>
   <trkpt lat="38.59864" lon="-121.50531000000001">
    <ele>11.940000000000001</ele>
   </trkpt>
   <trkpt lat="38.59817" lon="-121.50583">
    <ele>11.250000000000002</ele>
   </trkpt>
   <trkpt lat="38.597515001127775" lon="-121.5063200043919">
    <ele>11.19</ele>
   </trkpt>
   <trkpt lat="38.59686000000001" lon="-121.50681000000002">
    <ele>11.340000000000002</ele>
   </trkpt>
   <trkpt lat="38.59673" lon="-121.50687">
    <ele>11.55</ele>
   </trkpt>
   <trkpt lat="38.596590000000006" lon="-121.50692000000001">
    <ele>11.580000000000002</ele>
   </trkpt>
   <trkpt lat="38.59644" lon="-121.50695">
    <ele>11.580000000000002</ele>
   </trkpt>
   <trkpt lat="38.59630000000001" lon="-121.50691">
    <ele>11.48</ele>
   </trkpt>
   <trkpt lat="38.59557000014637" lon="-121.50668499769061">
    <ele>11.9</ele>
   </trkpt>
   <trkpt lat="38.594840000000005" lon="-121.50646">
    <ele>11.690000000000001</ele>
   </trkpt>
   <trkpt lat="38.594570000000004" lon="-121.50641000000002">
    <ele>11.71</ele>
   </trkpt>
   <trkpt lat="38.59405" lon="-121.50642">
    <ele>11.35</ele>
   </trkpt>
   <trkpt lat="38.59371" lon="-121.50635000000001">
    <ele>11.27</ele>
   </trkpt>
   <trkpt lat="38.593500000000006" lon="-121.50633">
    <ele>11.27</ele>
   </trkpt>
   <trkpt lat="38.59273" lon="-121.50597">
    <ele>11.09</ele>
   </trkpt>
   <trkpt lat="38.591930000000005" lon="-121.50574">
    <ele>7.710000000000001</ele>
   </trkpt>
   <trkpt lat="38.59134" lon="-121.50544000000001">
    <ele>10.77</ele>
   </trkpt>
   <trkpt lat="38.591170000000005" lon="-121.50538000000002">
    <ele>11.09</ele>
   </trkpt>
   <trkpt lat="38.59085" lon="-121.50532000000001">
    <ele>10.990000000000002</ele>
   </trkpt>
   <trkpt lat="38.590160000000004" lon="-121.50525">
    <ele>11.030000000000001</ele>
   </trkpt>
   <trkpt lat="38.58932" lon="-121.50503">
    <ele>10.8</ele>
   </trkpt>
   <trkpt lat="38.588530000000006" lon="-121.50489">
    <ele>10.47</ele>
   </trkpt>
   <trkpt lat="38.5877299999139" lon="-121.50491500028134">
    <ele>10.4</ele>
   </trkpt>
   <trkpt lat="38.58693" lon="-121.50494">
    <ele>10.290000000000001</ele>
   </trkpt>
   <trkpt lat="38.58681" lon="-121.50495000000001">
    <ele>10.290000000000001</ele>
   </trkpt>
   <trkpt lat="38.586490000000005" lon="-121.50516">
    <ele>9.7</ele>
   </trkpt>
   <trkpt lat="38.58583" lon="-121.50541000000001">
    <ele>8.5</ele>
   </trkpt>
   <trkpt lat="38.58560000000001" lon="-121.50539">
    <ele>9.860000000000001</ele>
   </trkpt>
   <trkpt lat="38.585480000000004" lon="-121.50543">
    <ele>10.030000000000001</ele>
   </trkpt>
   <trkpt lat="38.58507" lon="-121.50559000000001">
    <ele>8.97</ele>
   </trkpt>
   <trkpt lat="38.58496" lon="-121.50558000000001">
    <ele>8.97</ele>
   </trkpt>
   <trkpt lat="38.584770000000006" lon="-121.50564000000001">
    <ele>9.18</ele>
   </trkpt>
   <trkpt lat="38.584300000210625" lon="-121.50580500104661">
    <ele>9.030000000000001</ele>
   </trkpt>
   <trkpt lat="38.583830000000006" lon="-121.50597">
    <ele>9.18</ele>
   </trkpt>
   <trkpt lat="38.58366" lon="-121.50607000000001">
    <ele>9.23</ele>
   </trkpt>
   <trkpt lat="38.58346" lon="-121.50615">
    <ele>9.23</ele>
   </trkpt>
   <trkpt lat="38.58339" lon="-121.5062">
    <ele>9.23</ele>
   </trkpt>
   <trkpt lat="38.58267" lon="-121.50646">
    <ele>9.420000000000002</ele>
   </trkpt>
   <trkpt lat="38.582530000000006" lon="-121.50645000000002">
    <ele>9.46</ele>
   </trkpt>
   <trkpt lat="38.58203" lon="-121.50663000000002">
    <ele>9.760000000000002</ele>
   </trkpt>
   <trkpt lat="38.5814" lon="-121.50683000000001">
    <ele>9.53</ele>
   </trkpt>
   <trkpt lat="38.581300000000006" lon="-121.50642">
    <ele>9.120000000000001</ele>
   </trkpt>
   <trkpt lat="38.580920000000006" lon="-121.50659000000002">
    <ele>8.9</ele>
   </trkpt>
   <trkpt lat="38.58076500138058" lon="-121.50601499866272">
    <ele>5.790000000000001</ele>
   </trkpt>
   <trkpt lat="38.58061" lon="-121.50544000000001">
    <ele>6.3500000000000005</ele>
   </trkpt>
   <trkpt lat="38.580540000000006" lon="-121.50534">
    <ele>6.65</ele>
   </trkpt>
   <trkpt lat="38.58044" lon="-121.50540000000001">
    <ele>6.15</ele>
   </trkpt>
   <trkpt lat="38.580070000000006" lon="-121.50579">
    <ele>3.16</ele>
   </trkpt>
   <trkpt lat="38.57958000109865" lon="-121.50632500377974">
    <ele>3.0700000000000003</ele>
   </trkpt>
   <trkpt lat="38.57909" lon="-121.50686">
    <ele>7.24</ele>
   </trkpt>
   <trkpt lat="38.57902" lon="-121.507">
    <ele>7.24</ele>
   </trkpt>
   <trkpt lat="38.579010000000004" lon="-121.50727">
    <ele>8.17</ele>
   </trkpt>
   <trkpt lat="38.578990000000005" lon="-121.50733000000001">
    <ele>8.17</ele>
   </trkpt>
   <trkpt lat="38.57894" lon="-121.5074">
    <ele>8.4</ele>
   </trkpt>
   <trkpt lat="38.57849500017389" lon="-121.50758500113437">
    <ele>9.06</ele>
   </trkpt>
   <trkpt lat="38.578050000000005" lon="-121.50777000000001">
    <ele>9.160000000000002</ele>
   </trkpt>
   <trkpt lat="38.57751500061124" lon="-121.50812000254788">
    <ele>9.31</ele>
   </trkpt>
   <trkpt lat="38.576980000000006" lon="-121.50847000000002">
    <ele>9.45</ele>
   </trkpt>
   <trkpt lat="38.57643500021452" lon="-121.50874000209588">
    <ele>9.760000000000002</ele>
   </trkpt>
   <trkpt lat="38.57589" lon="-121.50901">
    <ele>9.850000000000001</ele>
   </trkpt>
   <trkpt lat="38.57542" lon="-121.50922000000001">
    <ele>10.15</ele>
   </trkpt>
   <trkpt lat="38.5754" lon="-121.50915">
    <ele>10.15</ele>
   </trkpt>
   <trkpt lat="38.575250000000004" lon="-121.50914000000002">
    <ele>9.680000000000001</ele>
   </trkpt>
   <trkpt lat="38.575070000000004" lon="-121.50906">
    <ele>9.47</ele>
   </trkpt>
   <trkpt lat="38.574920000000006" lon="-121.50897">
    <ele>9.330000000000002</ele>
   </trkpt>
   <trkpt lat="38.57479" lon="-121.50888">
    <ele>9.19</ele>
   </trkpt>
   <trkpt lat="38.5748" lon="-121.50889000000001">
    <ele>9.19</ele>
   </trkpt>
   <trkpt lat="38.574580000000005" lon="-121.50861">
    <ele>8.81</ele>
   </trkpt>
   <trkpt lat="38.574470000000005" lon="-121.50843">
    <ele>8.6</ele>
   </trkpt>
   <trkpt lat="38.574380000000005" lon="-121.50820000000002">
    <ele>8.48</ele>
   </trkpt>
   <trkpt lat="38.57428" lon="-121.50785">
    <ele>8.24</ele>
   </trkpt>
   <trkpt lat="38.57434000000001" lon="-121.50782000000001">
    <ele>8.200000000000001</ele>
   </trkpt>
   <trkpt lat="38.574190001315834" lon="-121.50725999876265">
    <ele>7.580000000000001</ele>
   </trkpt>
   <trkpt lat="38.574040000000004" lon="-121.50670000000001">
    <ele>7.21</ele>
   </trkpt>
   <trkpt lat="38.57396000000001" lon="-121.50648000000001">
    <ele>7.1000000000000005</ele>
   </trkpt>
   <trkpt lat="38.57381500131701" lon="-121.5059299990044">
    <ele>6.38</ele>
   </trkpt>
   <trkpt lat="38.57367" lon="-121.50538000000002">
    <ele>6.33</ele>
   </trkpt>
   <trkpt lat="38.573620000000005" lon="-121.50526">
    <ele>6.260000000000001</ele>
   </trkpt>
   <trkpt lat="38.573600000000006" lon="-121.50512">
    <ele>6.1000000000000005</ele>
   </trkpt>
   <trkpt lat="38.57344500151242" lon="-121.50452999884732">
    <ele>5.630000000000001</ele>
   </trkpt>
   <trkpt lat="38.57329" lon="-121.50394000000001">
    <ele>5.51</ele>
   </trkpt>
   <trkpt lat="38.57406000284354" lon="-121.50360573578789">
    <ele>5.16</ele>
   </trkpt>
   <trkpt lat="38.57483000473642" lon="-121.50327146441023">
    <ele>5.46</ele>
   </trkpt>
   <trkpt lat="38.57560000567863" lon="-121.50293718586664">
    <ele>5.64</ele>
   </trkpt>
   <trkpt lat="38.57637000567008" lon="-121.50260290015679">
    <ele>6.0200000000000005</ele>
   </trkpt>
   <trkpt lat="38.57714000471075" lon="-121.50226860728034">
    <ele>6.23</ele>
   </trkpt>
   <trkpt lat="38.57791000280061" lon="-121.50193430723694">
    <ele>6.42</ele>
   </trkpt>
   <trkpt lat="38.578680000000006" lon="-121.50160000000001">
    <ele>6.48</ele>
   </trkpt>
   <trkpt lat="38.57845000606797" lon="-121.50075666132727">
    <ele>6.44</ele>
   </trkpt>
   <trkpt lat="38.578220006084685" lon="-121.49991332805531">
    <ele>6.5</ele>
   </trkpt>
   <trkpt lat="38.57799" lon="-121.49907">
    <ele>6.66</ele>
   </trkpt>
   <trkpt lat="38.57813" lon="-121.49901000000001">
    <ele>6.65</ele>
   </trkpt>
   <trkpt lat="38.578190000000006" lon="-121.49900000000001">
    <ele>6.68</ele>
   </trkpt>
   <trkpt lat="38.57844000372252" lon="-121.49993499675848">
    <ele>6.72</ele>
   </trkpt>
   <trkpt lat="38.57869" lon="-121.50087">
    <ele>6.390000000000001</ele>
   </trkpt>
  </trkseg>
 </trk>
</gpx>
