<?xml version="1.0" encoding="UTF-8"?>
<gpx creator="StravaGPX" version="1.1" xmlns="http://www.topografix.com/GPX/1/1" xmlns:xsi="http://www.w3.org/2001/XMLSchema-instance" xsi:schemaLocation="http://www.topografix.com/GPX/1/1 http://www.topografix.com/GPX/1/1/gpx.xsd">
 <metadata>
  <name>IRONMAN 70.3 La Quinta - HOKA Run Course</name>
  <author>
   <name>IRONMAN North America Admin</name>
   <link href="https://www.strava.com/athletes/152522621"/>
  </author>
  <copyright author="OpenStreetMap contributors">
   <year>2020</year>
   <license>https://www.openstreetmap.org/copyright</license>
  </copyright>
  <link href="https://www.strava.com/routes/3313980025054716712"/>
 </metadata>
 <trk>
  <name>IRONMAN 70.3 La Quinta - HOKA Run Course</name>
  <link href="https://www.strava.com/routes/3313980025054716712"/>
  <type>running</type>
  <trkseg>
   <trkpt lat="33.66816" lon="-116.27491">
    <ele>8.07</ele>
   </trkpt>
   <trkpt lat="33.66832" lon="-116.27504">
    <ele>8.06</ele>
   </trkpt>
   <trkpt lat="33.66886" lon="-116.27562">
    <ele>7.6000000000000005</ele>
   </trkpt>
   <trkpt lat="33.669200000000004" lon="-116.27607">
    <ele>7.680000000000001</ele>
   </trkpt>
   <trkpt lat="33.66969" lon="-116.27679">
    <ele>7.98</ele>
   </trkpt>
   <trkpt lat="33.670120000000004" lon="-116.27745000000002">
    <ele>7.710000000000001</ele>
   </trkpt>
   <trkpt lat="33.670460000000006" lon="-116.27813">
    <ele>7.410000000000001</ele>
   </trkpt>
   <trkpt lat="33.67071" lon="-116.27868000000001">
    <ele>7.660000000000001</ele>
   </trkpt>
   <trkpt lat="33.670860000000005" lon="-116.27925">
    <ele>7.7</ele>
   </trkpt>
   <trkpt lat="33.671" lon="-116.27988">
    <ele>7.33</ele>
   </trkpt>
   <trkpt lat="33.67109" lon="-116.28054000000002">
    <ele>7.3100000000000005</ele>
   </trkpt>
   <trkpt lat="33.67112" lon="-116.28099">
    <ele>7.7</ele>
   </trkpt>
   <trkpt lat="33.67109" lon="-116.28181000000001">
    <ele>8.76</ele>
   </trkpt>
   <trkpt lat="33.671130000000005" lon="-116.28216">
    <ele>9.27</ele>
   </trkpt>
   <trkpt lat="33.67123" lon="-116.28248">
    <ele>10.26</ele>
   </trkpt>
   <trkpt lat="33.671350000000004" lon="-116.2827">
    <ele>11.06</ele>
   </trkpt>
   <trkpt lat="33.67165" lon="-116.28306">
    <ele>13.0</ele>
   </trkpt>
   <trkpt lat="33.67175" lon="-116.28314">
    <ele>13.0</ele>
   </trkpt>
   <trkpt lat="33.671870000000006" lon="-116.28318000000002">
    <ele>13.120000000000001</ele>
   </trkpt>
   <trkpt lat="33.672180000000004" lon="-116.28337">
    <ele>13.39</ele>
   </trkpt>
   <trkpt lat="33.67255" lon="-116.28346">
    <ele>13.620000000000001</ele>
   </trkpt>
   <trkpt lat="33.67248" lon="-116.28372">
    <ele>13.56</ele>
   </trkpt>
   <trkpt lat="33.67213" lon="-116.2835">
    <ele>13.22</ele>
   </trkpt>
   <trkpt lat="33.67184" lon="-116.28328">
    <ele>13.040000000000001</ele>
   </trkpt>
   <trkpt lat="33.67175" lon="-116.28314">
    <ele>13.040000000000001</ele>
   </trkpt>
   <trkpt lat="33.67113500122503" lon="-116.28256499578897">
    <ele>12.15</ele>
   </trkpt>
   <trkpt lat="33.67052" lon="-116.28199000000001">
    <ele>11.66</ele>
   </trkpt>
   <trkpt lat="33.67024" lon="-116.28157000000002">
    <ele>11.44</ele>
   </trkpt>
   <trkpt lat="33.67002" lon="-116.28104">
    <ele>11.44</ele>
   </trkpt>
   <trkpt lat="33.66958" lon="-116.28130000000002">
    <ele>11.28</ele>
   </trkpt>
   <trkpt lat="33.66958" lon="-116.28131">
    <ele>9.420000000000002</ele>
   </trkpt>
   <trkpt lat="33.669540000000005" lon="-116.28121000000002">
    <ele>9.340000000000002</ele>
   </trkpt>
   <trkpt lat="33.669450000000005" lon="-116.28116000000001">
    <ele>9.3</ele>
   </trkpt>
   <trkpt lat="33.66959" lon="-116.28088000000001">
    <ele>8.910000000000002</ele>
   </trkpt>
   <trkpt lat="33.6696" lon="-116.28070000000001">
    <ele>8.75</ele>
   </trkpt>
   <trkpt lat="33.669540000000005" lon="-116.28053000000001">
    <ele>8.64</ele>
   </trkpt>
   <trkpt lat="33.6695" lon="-116.28043000000001">
    <ele>8.620000000000001</ele>
   </trkpt>
   <trkpt lat="33.669410000000006" lon="-116.28029000000001">
    <ele>8.790000000000001</ele>
   </trkpt>
   <trkpt lat="33.66928" lon="-116.28018000000002">
    <ele>8.910000000000002</ele>
   </trkpt>
   <trkpt lat="33.669200000000004" lon="-116.28008000000001">
    <ele>8.97</ele>
   </trkpt>
   <trkpt lat="33.6691" lon="-116.27991000000002">
    <ele>8.85</ele>
   </trkpt>
   <trkpt lat="33.66904" lon="-116.27974">
    <ele>8.68</ele>
   </trkpt>
   <trkpt lat="33.66903" lon="-116.27959000000001">
    <ele>8.440000000000001</ele>
   </trkpt>
   <trkpt lat="33.668980000000005" lon="-116.27947">
    <ele>8.120000000000001</ele>
   </trkpt>
   <trkpt lat="33.66888" lon="-116.27934">
    <ele>7.95</ele>
   </trkpt>
   <trkpt lat="33.66866" lon="-116.27918000000001">
    <ele>7.790000000000001</ele>
   </trkpt>
   <trkpt lat="33.668620000000004" lon="-116.27903">
    <ele>7.69</ele>
   </trkpt>
   <trkpt lat="33.66857" lon="-116.27889">
    <ele>7.69</ele>
   </trkpt>
   <trkpt lat="33.66845" lon="-116.27873000000001">
    <ele>7.410000000000001</ele>
   </trkpt>
   <trkpt lat="33.668310000000005" lon="-116.27866000000002">
    <ele>7.42</ele>
   </trkpt>
   <trkpt lat="33.668110000000006" lon="-116.27861000000001">
    <ele>7.490000000000001</ele>
   </trkpt>
   <trkpt lat="33.66798" lon="-116.27853">
    <ele>7.300000000000001</ele>
   </trkpt>
   <trkpt lat="33.667820000000006" lon="-116.27831">
    <ele>7.300000000000001</ele>
   </trkpt>
   <trkpt lat="33.66765" lon="-116.278">
    <ele>7.010000000000001</ele>
   </trkpt>
   <trkpt lat="33.6676" lon="-116.27776000000001">
    <ele>6.78</ele>
   </trkpt>
   <trkpt lat="33.66749" lon="-116.27742">
    <ele>6.78</ele>
   </trkpt>
   <trkpt lat="33.66743" lon="-116.27733">
    <ele>6.78</ele>
   </trkpt>
   <trkpt lat="33.66742" lon="-116.27718000000002">
    <ele>6.78</ele>
   </trkpt>
   <trkpt lat="33.66745" lon="-116.27701">
    <ele>6.78</ele>
   </trkpt>
   <trkpt lat="33.667320000000004" lon="-116.27704000000001">
    <ele>6.78</ele>
   </trkpt>
   <trkpt lat="33.66725" lon="-116.27716000000001">
    <ele>6.78</ele>
   </trkpt>
   <trkpt lat="33.66713" lon="-116.27730000000001">
    <ele>6.78</ele>
   </trkpt>
   <trkpt lat="33.667" lon="-116.27732">
    <ele>6.78</ele>
   </trkpt>
   <trkpt lat="33.666830000000004" lon="-116.27725000000001">
    <ele>6.78</ele>
   </trkpt>
   <trkpt lat="33.666610000000006" lon="-116.27722000000001">
    <ele>6.78</ele>
   </trkpt>
   <trkpt lat="33.666560000000004" lon="-116.27707000000001">
    <ele>6.78</ele>
   </trkpt>
   <trkpt lat="33.66649" lon="-116.27697">
    <ele>6.78</ele>
   </trkpt>
   <trkpt lat="33.666360000000005" lon="-116.27702000000001">
    <ele>6.78</ele>
   </trkpt>
   <trkpt lat="33.66573999997933" lon="-116.27703000014448">
    <ele>6.750000000000001</ele>
   </trkpt>
   <trkpt lat="33.66511999995786" lon="-116.27704000014482">
    <ele>6.57</ele>
   </trkpt>
   <trkpt lat="33.664500000000004" lon="-116.27705">
    <ele>6.48</ele>
   </trkpt>
   <trkpt lat="33.66409" lon="-116.27692">
    <ele>6.49</ele>
   </trkpt>
   <trkpt lat="33.663850000000004" lon="-116.27681000000001">
    <ele>6.38</ele>
   </trkpt>
   <trkpt lat="33.66376" lon="-116.27675">
    <ele>6.38</ele>
   </trkpt>
   <trkpt lat="33.66366" lon="-116.27665">
    <ele>6.38</ele>
   </trkpt>
   <trkpt lat="33.6636" lon="-116.27649000000001">
    <ele>6.38</ele>
   </trkpt>
   <trkpt lat="33.663630000000005" lon="-116.27631000000001">
    <ele>6.38</ele>
   </trkpt>
   <trkpt lat="33.66369" lon="-116.27619000000001">
    <ele>6.34</ele>
   </trkpt>
   <trkpt lat="33.66376" lon="-116.27610000000001">
    <ele>6.2700000000000005</ele>
   </trkpt>
   <trkpt lat="33.66367" lon="-116.27602">
    <ele>6.300000000000001</ele>
   </trkpt>
   <trkpt lat="33.66355" lon="-116.27603">
    <ele>6.37</ele>
   </trkpt>
   <trkpt lat="33.66326" lon="-116.27628000000001">
    <ele>6.29</ele>
   </trkpt>
   <trkpt lat="33.66313" lon="-116.27631000000001">
    <ele>6.29</ele>
   </trkpt>
   <trkpt lat="33.66302" lon="-116.27641000000001">
    <ele>6.2700000000000005</ele>
   </trkpt>
   <trkpt lat="33.662910000000004" lon="-116.27649000000001">
    <ele>6.2700000000000005</ele>
   </trkpt>
   <trkpt lat="33.66277" lon="-116.27649000000001">
    <ele>6.2700000000000005</ele>
   </trkpt>
   <trkpt lat="33.66254" lon="-116.27632000000001">
    <ele>6.180000000000001</ele>
   </trkpt>
   <trkpt lat="33.66227" lon="-116.27617000000001">
    <ele>6.08</ele>
   </trkpt>
   <trkpt lat="33.66217" lon="-116.27610000000001">
    <ele>6.08</ele>
   </trkpt>
   <trkpt lat="33.66207" lon="-116.27605000000001">
    <ele>6.07</ele>
   </trkpt>
   <trkpt lat="33.661820000000006" lon="-116.27604000000001">
    <ele>6.07</ele>
   </trkpt>
   <trkpt lat="33.66152" lon="-116.27613000000001">
    <ele>5.9799999999999995</ele>
   </trkpt>
   <trkpt lat="33.66142" lon="-116.27605000000001">
    <ele>5.9799999999999995</ele>
   </trkpt>
   <trkpt lat="33.661410000000004" lon="-116.27593">
    <ele>5.99</ele>
   </trkpt>
   <trkpt lat="33.66154" lon="-116.27551000000001">
    <ele>5.95</ele>
   </trkpt>
   <trkpt lat="33.661570000000005" lon="-116.27528000000001">
    <ele>5.87</ele>
   </trkpt>
   <trkpt lat="33.66162" lon="-116.27512000000002">
    <ele>5.890000000000001</ele>
   </trkpt>
   <trkpt lat="33.66174" lon="-116.27506000000001">
    <ele>5.9799999999999995</ele>
   </trkpt>
   <trkpt lat="33.66185" lon="-116.27473">
    <ele>5.960000000000001</ele>
   </trkpt>
   <trkpt lat="33.661820000000006" lon="-116.27457000000001">
    <ele>5.99</ele>
   </trkpt>
   <trkpt lat="33.66167" lon="-116.27443000000001">
    <ele>5.83</ele>
   </trkpt>
   <trkpt lat="33.661530000000006" lon="-116.27438000000001">
    <ele>5.750000000000001</ele>
   </trkpt>
   <trkpt lat="33.661410000000004" lon="-116.27439000000001">
    <ele>5.750000000000001</ele>
   </trkpt>
   <trkpt lat="33.66127" lon="-116.27448000000001">
    <ele>5.920000000000001</ele>
   </trkpt>
   <trkpt lat="33.66118" lon="-116.27461000000001">
    <ele>6.0</ele>
   </trkpt>
   <trkpt lat="33.66107" lon="-116.27485000000001">
    <ele>5.9799999999999995</ele>
   </trkpt>
   <trkpt lat="33.660740000000004" lon="-116.27499">
    <ele>5.87</ele>
   </trkpt>
   <trkpt lat="33.660450000000004" lon="-116.27496000000001">
    <ele>5.890000000000001</ele>
   </trkpt>
   <trkpt lat="33.66013" lon="-116.27498000000001">
    <ele>5.42</ele>
   </trkpt>
   <trkpt lat="33.66002" lon="-116.27502000000001">
    <ele>5.42</ele>
   </trkpt>
   <trkpt lat="33.65995" lon="-116.27513">
    <ele>5.430000000000001</ele>
   </trkpt>
   <trkpt lat="33.65993" lon="-116.27544">
    <ele>5.57</ele>
   </trkpt>
   <trkpt lat="33.65983" lon="-116.27549">
    <ele>5.55</ele>
   </trkpt>
   <trkpt lat="33.659580000000005" lon="-116.27544">
    <ele>5.46</ele>
   </trkpt>
   <trkpt lat="33.659330000000004" lon="-116.27546000000001">
    <ele>5.430000000000001</ele>
   </trkpt>
   <trkpt lat="33.65907" lon="-116.27544">
    <ele>5.38</ele>
   </trkpt>
   <trkpt lat="33.65879" lon="-116.27545">
    <ele>5.3500000000000005</ele>
   </trkpt>
   <trkpt lat="33.65865" lon="-116.27542000000001">
    <ele>5.390000000000001</ele>
   </trkpt>
   <trkpt lat="33.658350000000006" lon="-116.27529000000001">
    <ele>5.07</ele>
   </trkpt>
   <trkpt lat="33.65811" lon="-116.27533000000001">
    <ele>4.99</ele>
   </trkpt>
   <trkpt lat="33.658010000000004" lon="-116.27541000000001">
    <ele>5.03</ele>
   </trkpt>
   <trkpt lat="33.657700000000006" lon="-116.27595000000001">
    <ele>5.050000000000001</ele>
   </trkpt>
   <trkpt lat="33.65758" lon="-116.27611">
    <ele>5.0200000000000005</ele>
   </trkpt>
   <trkpt lat="33.657500000000006" lon="-116.27626000000001">
    <ele>5.0600000000000005</ele>
   </trkpt>
   <trkpt lat="33.657430000000005" lon="-116.27634">
    <ele>5.0600000000000005</ele>
   </trkpt>
   <trkpt lat="33.65713" lon="-116.27649000000001">
    <ele>4.9799999999999995</ele>
   </trkpt>
   <trkpt lat="33.65704" lon="-116.27655000000001">
    <ele>4.9799999999999995</ele>
   </trkpt>
   <trkpt lat="33.65692" lon="-116.2767">
    <ele>4.9799999999999995</ele>
   </trkpt>
   <trkpt lat="33.656800000000004" lon="-116.27667000000001">
    <ele>4.9799999999999995</ele>
   </trkpt>
   <trkpt lat="33.65673" lon="-116.27651000000002">
    <ele>4.880000000000001</ele>
   </trkpt>
   <trkpt lat="33.65663" lon="-116.27647">
    <ele>4.800000000000001</ele>
   </trkpt>
   <trkpt lat="33.65659" lon="-116.27662000000001">
    <ele>4.85</ele>
   </trkpt>
   <trkpt lat="33.656560000000006" lon="-116.2771">
    <ele>4.96</ele>
   </trkpt>
   <trkpt lat="33.656580000000005" lon="-116.27729000000001">
    <ele>4.99</ele>
   </trkpt>
   <trkpt lat="33.656580000000005" lon="-116.27748000000001">
    <ele>4.99</ele>
   </trkpt>
   <trkpt lat="33.656600000000005" lon="-116.27761000000001">
    <ele>5.0200000000000005</ele>
   </trkpt>
   <trkpt lat="33.65664" lon="-116.27783000000001">
    <ele>5.090000000000001</ele>
   </trkpt>
   <trkpt lat="33.656760000000006" lon="-116.27818">
    <ele>5.19</ele>
   </trkpt>
   <trkpt lat="33.65684" lon="-116.27828000000001">
    <ele>5.180000000000001</ele>
   </trkpt>
   <trkpt lat="33.65699" lon="-116.27828000000001">
    <ele>5.280000000000001</ele>
   </trkpt>
   <trkpt lat="33.65749" lon="-116.27784000000001">
    <ele>5.37</ele>
   </trkpt>
   <trkpt lat="33.65755" lon="-116.27775000000001">
    <ele>5.37</ele>
   </trkpt>
   <trkpt lat="33.65764" lon="-116.27749000000001">
    <ele>5.32</ele>
   </trkpt>
   <trkpt lat="33.657700000000006" lon="-116.27737">
    <ele>5.32</ele>
   </trkpt>
   <trkpt lat="33.65778" lon="-116.27730000000001">
    <ele>5.38</ele>
   </trkpt>
   <trkpt lat="33.65789" lon="-116.27723">
    <ele>5.38</ele>
   </trkpt>
   <trkpt lat="33.65798" lon="-116.27712000000001">
    <ele>5.38</ele>
   </trkpt>
   <trkpt lat="33.658100000000005" lon="-116.27693000000001">
    <ele>5.390000000000001</ele>
   </trkpt>
   <trkpt lat="33.658350000000006" lon="-116.27661">
    <ele>5.390000000000001</ele>
   </trkpt>
   <trkpt lat="33.658620000000006" lon="-116.27652">
    <ele>5.47</ele>
   </trkpt>
   <trkpt lat="33.658770000000004" lon="-116.27648">
    <ele>5.55</ele>
   </trkpt>
   <trkpt lat="33.65889" lon="-116.27642000000002">
    <ele>5.5</ele>
   </trkpt>
   <trkpt lat="33.65934" lon="-116.27643">
    <ele>5.69</ele>
   </trkpt>
   <trkpt lat="33.65943" lon="-116.27654000000001">
    <ele>5.74</ele>
   </trkpt>
   <trkpt lat="33.65948" lon="-116.27666">
    <ele>5.74</ele>
   </trkpt>
   <trkpt lat="33.659580000000005" lon="-116.27668000000001">
    <ele>6.0600000000000005</ele>
   </trkpt>
   <trkpt lat="33.65982" lon="-116.27655000000001">
    <ele>5.85</ele>
   </trkpt>
   <trkpt lat="33.66008" lon="-116.27647">
    <ele>5.83</ele>
   </trkpt>
   <trkpt lat="33.66044" lon="-116.27642000000002">
    <ele>5.81</ele>
   </trkpt>
   <trkpt lat="33.660700000000006" lon="-116.27644000000001">
    <ele>5.920000000000001</ele>
   </trkpt>
   <trkpt lat="33.66084" lon="-116.27647">
    <ele>5.91</ele>
   </trkpt>
   <trkpt lat="33.660970000000006" lon="-116.27648">
    <ele>5.99</ele>
   </trkpt>
   <trkpt lat="33.66104" lon="-116.27663000000001">
    <ele>5.91</ele>
   </trkpt>
   <trkpt lat="33.661010000000005" lon="-116.27676000000001">
    <ele>7.08</ele>
   </trkpt>
   <trkpt lat="33.661010000000005" lon="-116.27688">
    <ele>9.860000000000001</ele>
   </trkpt>
   <trkpt lat="33.66123" lon="-116.27755">
    <ele>12.190000000000001</ele>
   </trkpt>
   <trkpt lat="33.66151" lon="-116.27781000000002">
    <ele>12.430000000000001</ele>
   </trkpt>
   <trkpt lat="33.66163" lon="-116.27798000000001">
    <ele>13.600000000000001</ele>
   </trkpt>
   <trkpt lat="33.66185" lon="-116.27820000000001">
    <ele>11.97</ele>
   </trkpt>
   <trkpt lat="33.66199" lon="-116.27843000000001">
    <ele>12.17</ele>
   </trkpt>
   <trkpt lat="33.662290000000006" lon="-116.27865000000001">
    <ele>12.08</ele>
   </trkpt>
   <trkpt lat="33.662400000000005" lon="-116.27871">
    <ele>12.08</ele>
   </trkpt>
   <trkpt lat="33.66252" lon="-116.2788">
    <ele>12.620000000000001</ele>
   </trkpt>
   <trkpt lat="33.66279" lon="-116.27908000000001">
    <ele>15.83</ele>
   </trkpt>
   <trkpt lat="33.662910000000004" lon="-116.27914000000001">
    <ele>15.48</ele>
   </trkpt>
   <trkpt lat="33.66312" lon="-116.27938">
    <ele>15.19</ele>
   </trkpt>
   <trkpt lat="33.66339" lon="-116.27973000000001">
    <ele>14.100000000000001</ele>
   </trkpt>
   <trkpt lat="33.663610000000006" lon="-116.27998000000001">
    <ele>16.009999999999998</ele>
   </trkpt>
   <trkpt lat="33.66375" lon="-116.28009000000002">
    <ele>16.830000000000002</ele>
   </trkpt>
   <trkpt lat="33.66384" lon="-116.28023">
    <ele>17.990000000000002</ele>
   </trkpt>
   <trkpt lat="33.66396" lon="-116.28032">
    <ele>16.66</ele>
   </trkpt>
   <trkpt lat="33.664350000000006" lon="-116.28040000000001">
    <ele>12.600000000000001</ele>
   </trkpt>
   <trkpt lat="33.6644" lon="-116.28051">
    <ele>12.620000000000001</ele>
   </trkpt>
   <trkpt lat="33.66442" lon="-116.28084000000001">
    <ele>13.56</ele>
   </trkpt>
   <trkpt lat="33.66447" lon="-116.28106000000001">
    <ele>12.34</ele>
   </trkpt>
   <trkpt lat="33.6647" lon="-116.28142000000001">
    <ele>11.91</ele>
   </trkpt>
   <trkpt lat="33.66479" lon="-116.28164000000001">
    <ele>12.39</ele>
   </trkpt>
   <trkpt lat="33.6649" lon="-116.28181000000001">
    <ele>12.68</ele>
   </trkpt>
   <trkpt lat="33.66508" lon="-116.28196000000001">
    <ele>14.83</ele>
   </trkpt>
   <trkpt lat="33.665380000000006" lon="-116.28214000000001">
    <ele>15.500000000000002</ele>
   </trkpt>
   <trkpt lat="33.6655" lon="-116.2822">
    <ele>13.66</ele>
   </trkpt>
   <trkpt lat="33.66572" lon="-116.28223000000001">
    <ele>14.97</ele>
   </trkpt>
   <trkpt lat="33.66612" lon="-116.28216">
    <ele>16.39</ele>
   </trkpt>
   <trkpt lat="33.66622" lon="-116.28207">
    <ele>13.370000000000001</ele>
   </trkpt>
   <trkpt lat="33.666290000000004" lon="-116.28188000000002">
    <ele>12.57</ele>
   </trkpt>
   <trkpt lat="33.66633" lon="-116.28172">
    <ele>12.3</ele>
   </trkpt>
   <trkpt lat="33.666410000000006" lon="-116.28155000000001">
    <ele>11.91</ele>
   </trkpt>
   <trkpt lat="33.66637" lon="-116.28143000000001">
    <ele>11.91</ele>
   </trkpt>
   <trkpt lat="33.66622" lon="-116.28125000000001">
    <ele>11.65</ele>
   </trkpt>
   <trkpt lat="33.66611" lon="-116.28120000000001">
    <ele>11.600000000000001</ele>
   </trkpt>
   <trkpt lat="33.665960000000005" lon="-116.28118">
    <ele>11.580000000000002</ele>
   </trkpt>
   <trkpt lat="33.66581" lon="-116.28107000000001">
    <ele>11.49</ele>
   </trkpt>
   <trkpt lat="33.66574" lon="-116.281">
    <ele>11.4</ele>
   </trkpt>
   <trkpt lat="33.665620000000004" lon="-116.28072000000002">
    <ele>10.98</ele>
   </trkpt>
   <trkpt lat="33.665600000000005" lon="-116.28057000000001">
    <ele>10.98</ele>
   </trkpt>
   <trkpt lat="33.665600000000005" lon="-116.28040000000001">
    <ele>10.450000000000001</ele>
   </trkpt>
   <trkpt lat="33.665510000000005" lon="-116.28030000000001">
    <ele>10.450000000000001</ele>
   </trkpt>
   <trkpt lat="33.665420000000005" lon="-116.28024">
    <ele>10.21</ele>
   </trkpt>
   <trkpt lat="33.665350000000004" lon="-116.28015">
    <ele>10.21</ele>
   </trkpt>
   <trkpt lat="33.6653" lon="-116.28002000000001">
    <ele>10.21</ele>
   </trkpt>
   <trkpt lat="33.66505" lon="-116.27976000000001">
    <ele>10.23</ele>
   </trkpt>
   <trkpt lat="33.66494" lon="-116.27953000000001">
    <ele>10.25</ele>
   </trkpt>
   <trkpt lat="33.66465" lon="-116.27915000000002">
    <ele>9.45</ele>
   </trkpt>
   <trkpt lat="33.66456" lon="-116.27898">
    <ele>9.040000000000001</ele>
   </trkpt>
   <trkpt lat="33.66427" lon="-116.27861000000001">
    <ele>8.440000000000001</ele>
   </trkpt>
   <trkpt lat="33.664120000000004" lon="-116.27838000000001">
    <ele>8.0</ele>
   </trkpt>
   <trkpt lat="33.663990000000005" lon="-116.27824000000001">
    <ele>7.72</ele>
   </trkpt>
   <trkpt lat="33.663880000000006" lon="-116.27811000000001">
    <ele>7.390000000000001</ele>
   </trkpt>
   <trkpt lat="33.66382" lon="-116.27798000000001">
    <ele>7.010000000000001</ele>
   </trkpt>
   <trkpt lat="33.663740000000004" lon="-116.27789000000001">
    <ele>6.840000000000001</ele>
   </trkpt>
   <trkpt lat="33.663650000000004" lon="-116.27783000000001">
    <ele>6.73</ele>
   </trkpt>
   <trkpt lat="33.663540000000005" lon="-116.27771000000001">
    <ele>6.68</ele>
   </trkpt>
   <trkpt lat="33.66344" lon="-116.27745000000002">
    <ele>6.5</ele>
   </trkpt>
   <trkpt lat="33.663410000000006" lon="-116.27709000000002">
    <ele>6.38</ele>
   </trkpt>
   <trkpt lat="33.66313" lon="-116.27700000000002">
    <ele>6.280000000000001</ele>
   </trkpt>
   <trkpt lat="33.66304" lon="-116.27693000000001">
    <ele>6.280000000000001</ele>
   </trkpt>
   <trkpt lat="33.66292" lon="-116.2767">
    <ele>6.280000000000001</ele>
   </trkpt>
   <trkpt lat="33.662850000000006" lon="-116.27661">
    <ele>6.280000000000001</ele>
   </trkpt>
   <trkpt lat="33.662940000000006" lon="-116.27649000000001">
    <ele>6.280000000000001</ele>
   </trkpt>
   <trkpt lat="33.663230000000006" lon="-116.27634">
    <ele>6.29</ele>
   </trkpt>
   <trkpt lat="33.663320000000006" lon="-116.27638">
    <ele>6.29</ele>
   </trkpt>
   <trkpt lat="33.663360000000004" lon="-116.27650000000001">
    <ele>6.29</ele>
   </trkpt>
   <trkpt lat="33.663470000000004" lon="-116.27658000000001">
    <ele>6.390000000000001</ele>
   </trkpt>
   <trkpt lat="33.663520000000005" lon="-116.27675">
    <ele>6.390000000000001</ele>
   </trkpt>
   <trkpt lat="33.663410000000006" lon="-116.27702000000001">
    <ele>6.38</ele>
   </trkpt>
   <trkpt lat="33.66344" lon="-116.27712000000001">
    <ele>6.38</ele>
   </trkpt>
   <trkpt lat="33.66346" lon="-116.27738000000001">
    <ele>6.49</ele>
   </trkpt>
   <trkpt lat="33.66359" lon="-116.27746">
    <ele>6.49</ele>
   </trkpt>
   <trkpt lat="33.66424" lon="-116.27746">
    <ele>6.580000000000001</ele>
   </trkpt>
   <trkpt lat="33.6644" lon="-116.27747000000001">
    <ele>6.6000000000000005</ele>
   </trkpt>
   <trkpt lat="33.66451" lon="-116.27751">
    <ele>6.66</ele>
   </trkpt>
   <trkpt lat="33.664640000000006" lon="-116.27749000000001">
    <ele>6.620000000000001</ele>
   </trkpt>
   <trkpt lat="33.66476" lon="-116.27752000000001">
    <ele>6.670000000000001</ele>
   </trkpt>
   <trkpt lat="33.664840000000005" lon="-116.27759">
    <ele>6.68</ele>
   </trkpt>
   <trkpt lat="33.664930000000005" lon="-116.27753000000001">
    <ele>6.68</ele>
   </trkpt>
   <trkpt lat="33.66501" lon="-116.27744000000001">
    <ele>6.68</ele>
   </trkpt>
   <trkpt lat="33.665150000000004" lon="-116.27741">
    <ele>6.68</ele>
   </trkpt>
   <trkpt lat="33.665690000000005" lon="-116.27740000000001">
    <ele>6.790000000000001</ele>
   </trkpt>
   <trkpt lat="33.6659" lon="-116.27733">
    <ele>6.790000000000001</ele>
   </trkpt>
   <trkpt lat="33.66637" lon="-116.27727000000002">
    <ele>6.790000000000001</ele>
   </trkpt>
   <trkpt lat="33.66657" lon="-116.27723">
    <ele>6.78</ele>
   </trkpt>
   <trkpt lat="33.666650000000004" lon="-116.27732">
    <ele>6.78</ele>
   </trkpt>
   <trkpt lat="33.66678" lon="-116.27731000000001">
    <ele>6.78</ele>
   </trkpt>
   <trkpt lat="33.667080000000006" lon="-116.27737">
    <ele>6.78</ele>
   </trkpt>
   <trkpt lat="33.667170000000006" lon="-116.27745000000002">
    <ele>6.78</ele>
   </trkpt>
   <trkpt lat="33.66724" lon="-116.27771000000001">
    <ele>6.74</ele>
   </trkpt>
   <trkpt lat="33.66727" lon="-116.27799">
    <ele>6.920000000000001</ele>
   </trkpt>
   <trkpt lat="33.66734" lon="-116.27818">
    <ele>7.17</ele>
   </trkpt>
   <trkpt lat="33.667370000000005" lon="-116.2784">
    <ele>7.42</ele>
   </trkpt>
   <trkpt lat="33.66734" lon="-116.27860000000001">
    <ele>7.580000000000001</ele>
   </trkpt>
   <trkpt lat="33.66722" lon="-116.27878000000001">
    <ele>7.840000000000002</ele>
   </trkpt>
   <trkpt lat="33.66711" lon="-116.27892000000001">
    <ele>7.840000000000002</ele>
   </trkpt>
   <trkpt lat="33.66695" lon="-116.27922000000001">
    <ele>8.370000000000001</ele>
   </trkpt>
   <trkpt lat="33.666900000000005" lon="-116.27939">
    <ele>8.6</ele>
   </trkpt>
   <trkpt lat="33.66693" lon="-116.27951000000002">
    <ele>8.72</ele>
   </trkpt>
   <trkpt lat="33.66707" lon="-116.27981000000001">
    <ele>9.200000000000001</ele>
   </trkpt>
   <trkpt lat="33.66722" lon="-116.27995000000001">
    <ele>9.38</ele>
   </trkpt>
   <trkpt lat="33.667370000000005" lon="-116.28005">
    <ele>9.290000000000001</ele>
   </trkpt>
   <trkpt lat="33.667440000000006" lon="-116.28012000000001">
    <ele>9.290000000000001</ele>
   </trkpt>
   <trkpt lat="33.667640000000006" lon="-116.28023">
    <ele>9.500000000000002</ele>
   </trkpt>
   <trkpt lat="33.667860000000005" lon="-116.28029000000001">
    <ele>9.48</ele>
   </trkpt>
   <trkpt lat="33.667950000000005" lon="-116.28037">
    <ele>9.56</ele>
   </trkpt>
   <trkpt lat="33.66807" lon="-116.28058000000001">
    <ele>9.950000000000001</ele>
   </trkpt>
   <trkpt lat="33.66847" lon="-116.28091">
    <ele>10.350000000000001</ele>
   </trkpt>
   <trkpt lat="33.668580000000006" lon="-116.28098000000001">
    <ele>10.24</ele>
   </trkpt>
   <trkpt lat="33.66859" lon="-116.28126">
    <ele>10.24</ele>
   </trkpt>
   <trkpt lat="33.66886" lon="-116.28126">
    <ele>9.18</ele>
   </trkpt>
   <trkpt lat="33.66893" lon="-116.28127">
    <ele>9.420000000000002</ele>
   </trkpt>
   <trkpt lat="33.66917" lon="-116.28144">
    <ele>10.350000000000001</ele>
   </trkpt>
   <trkpt lat="33.6693" lon="-116.28145">
    <ele>10.77</ele>
   </trkpt>
   <trkpt lat="33.66917" lon="-116.28144">
    <ele>10.350000000000001</ele>
   </trkpt>
   <trkpt lat="33.66893" lon="-116.28127">
    <ele>9.420000000000002</ele>
   </trkpt>
   <trkpt lat="33.66886" lon="-116.28126">
    <ele>9.18</ele>
   </trkpt>
   <trkpt lat="33.66859" lon="-116.28126">
    <ele>8.92</ele>
   </trkpt>
   <trkpt lat="33.66818" lon="-116.28133000000001">
    <ele>9.58</ele>
   </trkpt>
   <trkpt lat="33.66799" lon="-116.28145">
    <ele>9.850000000000001</ele>
   </trkpt>
   <trkpt lat="33.66798" lon="-116.28145">
    <ele>9.860000000000001</ele>
   </trkpt>
   <trkpt lat="33.66818" lon="-116.28133000000001">
    <ele>9.58</ele>
   </trkpt>
   <trkpt lat="33.66859" lon="-116.28126">
    <ele>8.92</ele>
   </trkpt>
   <trkpt lat="33.66886" lon="-116.28126">
    <ele>9.18</ele>
   </trkpt>
   <trkpt lat="33.66893" lon="-116.28127">
    <ele>9.420000000000002</ele>
   </trkpt>
   <trkpt lat="33.669180000000004" lon="-116.28145">
    <ele>10.4</ele>
   </trkpt>
   <trkpt lat="33.66919" lon="-116.28145">
    <ele>9.62</ele>
   </trkpt>
   <trkpt lat="33.669180000000004" lon="-116.28158">
    <ele>9.62</ele>
   </trkpt>
   <trkpt lat="33.668980000000005" lon="-116.28178000000001">
    <ele>10.13</ele>
   </trkpt>
   <trkpt lat="33.668870000000005" lon="-116.28207">
    <ele>10.51</ele>
   </trkpt>
   <trkpt lat="33.668820000000004" lon="-116.28218000000001">
    <ele>10.51</ele>
   </trkpt>
   <trkpt lat="33.668710000000004" lon="-116.28229">
    <ele>10.610000000000001</ele>
   </trkpt>
   <trkpt lat="33.66857" lon="-116.28237000000001">
    <ele>10.83</ele>
   </trkpt>
   <trkpt lat="33.66828" lon="-116.28243">
    <ele>11.28</ele>
   </trkpt>
   <trkpt lat="33.66818" lon="-116.28246000000001">
    <ele>11.28</ele>
   </trkpt>
   <trkpt lat="33.667950000000005" lon="-116.28295000000001">
    <ele>12.06</ele>
   </trkpt>
   <trkpt lat="33.66785" lon="-116.28322000000001">
    <ele>11.540000000000001</ele>
   </trkpt>
   <trkpt lat="33.66778" lon="-116.28333">
    <ele>10.85</ele>
   </trkpt>
   <trkpt lat="33.66769" lon="-116.28379000000001">
    <ele>11.23</ele>
   </trkpt>
   <trkpt lat="33.66758" lon="-116.28404">
    <ele>11.260000000000002</ele>
   </trkpt>
   <trkpt lat="33.66762" lon="-116.28420000000001">
    <ele>11.46</ele>
   </trkpt>
   <trkpt lat="33.6677" lon="-116.28436">
    <ele>11.62</ele>
   </trkpt>
   <trkpt lat="33.667820000000006" lon="-116.28447000000001">
    <ele>11.83</ele>
   </trkpt>
   <trkpt lat="33.668150000000004" lon="-116.28463">
    <ele>12.22</ele>
   </trkpt>
   <trkpt lat="33.668260000000004" lon="-116.28470000000002">
    <ele>12.180000000000001</ele>
   </trkpt>
   <trkpt lat="33.66855" lon="-116.28474000000001">
    <ele>12.030000000000001</ele>
   </trkpt>
   <trkpt lat="33.668670000000006" lon="-116.28479000000002">
    <ele>11.91</ele>
   </trkpt>
   <trkpt lat="33.66884" lon="-116.28493">
    <ele>12.040000000000001</ele>
   </trkpt>
   <trkpt lat="33.66894" lon="-116.28496000000001">
    <ele>12.020000000000001</ele>
   </trkpt>
   <trkpt lat="33.669070000000005" lon="-116.28492000000001">
    <ele>12.110000000000001</ele>
   </trkpt>
   <trkpt lat="33.6693" lon="-116.28493">
    <ele>11.88</ele>
   </trkpt>
   <trkpt lat="33.669430000000006" lon="-116.28490000000001">
    <ele>11.88</ele>
   </trkpt>
   <trkpt lat="33.6696" lon="-116.28476">
    <ele>11.8</ele>
   </trkpt>
   <trkpt lat="33.669720000000005" lon="-116.28462">
    <ele>11.8</ele>
   </trkpt>
   <trkpt lat="33.66986" lon="-116.28433000000001">
    <ele>11.670000000000002</ele>
   </trkpt>
   <trkpt lat="33.669940000000004" lon="-116.28423000000001">
    <ele>11.670000000000002</ele>
   </trkpt>
   <trkpt lat="33.67006" lon="-116.28423000000001">
    <ele>11.780000000000001</ele>
   </trkpt>
   <trkpt lat="33.67027" lon="-116.28431">
    <ele>11.79</ele>
   </trkpt>
   <trkpt lat="33.670370000000005" lon="-116.28436">
    <ele>11.79</ele>
   </trkpt>
   <trkpt lat="33.670550000000006" lon="-116.28450000000001">
    <ele>11.89</ele>
   </trkpt>
   <trkpt lat="33.67067" lon="-116.28464000000001">
    <ele>11.83</ele>
   </trkpt>
   <trkpt lat="33.6708" lon="-116.28486000000001">
    <ele>11.959999999999999</ele>
   </trkpt>
   <trkpt lat="33.67101" lon="-116.28506000000002">
    <ele>12.13</ele>
   </trkpt>
   <trkpt lat="33.67118" lon="-116.28539">
    <ele>12.190000000000001</ele>
   </trkpt>
   <trkpt lat="33.67139" lon="-116.28557">
    <ele>12.16</ele>
   </trkpt>
   <trkpt lat="33.67154" lon="-116.28567000000001">
    <ele>12.16</ele>
   </trkpt>
   <trkpt lat="33.67175" lon="-116.28574">
    <ele>11.760000000000002</ele>
   </trkpt>
   <trkpt lat="33.67181" lon="-116.28586000000001">
    <ele>11.760000000000002</ele>
   </trkpt>
   <trkpt lat="33.671800000000005" lon="-116.28599000000001">
    <ele>11.81</ele>
   </trkpt>
   <trkpt lat="33.671850000000006" lon="-116.2861">
    <ele>11.81</ele>
   </trkpt>
   <trkpt lat="33.672140000000006" lon="-116.28653000000001">
    <ele>11.88</ele>
   </trkpt>
   <trkpt lat="33.6721" lon="-116.28665000000001">
    <ele>11.98</ele>
   </trkpt>
   <trkpt lat="33.67166" lon="-116.28673">
    <ele>12.180000000000001</ele>
   </trkpt>
   <trkpt lat="33.671510000000005" lon="-116.28682">
    <ele>12.360000000000001</ele>
   </trkpt>
   <trkpt lat="33.67141" lon="-116.28684000000001">
    <ele>12.360000000000001</ele>
   </trkpt>
   <trkpt lat="33.671060000000004" lon="-116.28675000000001">
    <ele>12.64</ele>
   </trkpt>
   <trkpt lat="33.67092" lon="-116.28667000000002">
    <ele>12.58</ele>
   </trkpt>
   <trkpt lat="33.67071" lon="-116.28642">
    <ele>12.58</ele>
   </trkpt>
   <trkpt lat="33.67042" lon="-116.28627000000002">
    <ele>12.58</ele>
   </trkpt>
   <trkpt lat="33.67022" lon="-116.28620000000001">
    <ele>12.51</ele>
   </trkpt>
   <trkpt lat="33.67005" lon="-116.28611000000001">
    <ele>12.49</ele>
   </trkpt>
   <trkpt lat="33.66968" lon="-116.28597">
    <ele>12.47</ele>
   </trkpt>
   <trkpt lat="33.669380000000004" lon="-116.28574">
    <ele>12.34</ele>
   </trkpt>
   <trkpt lat="33.66922" lon="-116.28552">
    <ele>12.08</ele>
   </trkpt>
   <trkpt lat="33.669140000000006" lon="-116.28546000000001">
    <ele>12.120000000000001</ele>
   </trkpt>
   <trkpt lat="33.66902" lon="-116.28538">
    <ele>12.25</ele>
   </trkpt>
   <trkpt lat="33.66888" lon="-116.28535000000001">
    <ele>12.17</ele>
   </trkpt>
   <trkpt lat="33.668760000000006" lon="-116.28526000000001">
    <ele>12.17</ele>
   </trkpt>
   <trkpt lat="33.66865" lon="-116.28507">
    <ele>12.3</ele>
   </trkpt>
   <trkpt lat="33.66855" lon="-116.28503">
    <ele>12.3</ele>
   </trkpt>
   <trkpt lat="33.668440000000004" lon="-116.28501000000001">
    <ele>12.39</ele>
   </trkpt>
   <trkpt lat="33.668330000000005" lon="-116.28496000000001">
    <ele>12.39</ele>
   </trkpt>
   <trkpt lat="33.66821" lon="-116.28486000000001">
    <ele>12.360000000000001</ele>
   </trkpt>
   <trkpt lat="33.6681" lon="-116.28481000000001">
    <ele>12.15</ele>
   </trkpt>
   <trkpt lat="33.66785" lon="-116.28474000000001">
    <ele>12.22</ele>
   </trkpt>
   <trkpt lat="33.667750000000005" lon="-116.28474000000001">
    <ele>12.32</ele>
   </trkpt>
   <trkpt lat="33.667660000000005" lon="-116.28475">
    <ele>12.59</ele>
   </trkpt>
   <trkpt lat="33.667550000000006" lon="-116.28482000000001">
    <ele>12.76</ele>
   </trkpt>
   <trkpt lat="33.66754" lon="-116.28495000000001">
    <ele>13.0</ele>
   </trkpt>
   <trkpt lat="33.667660000000005" lon="-116.28505000000001">
    <ele>12.63</ele>
   </trkpt>
   <trkpt lat="33.66785" lon="-116.28535000000001">
    <ele>12.790000000000001</ele>
   </trkpt>
   <trkpt lat="33.667950000000005" lon="-116.28543">
    <ele>13.200000000000001</ele>
   </trkpt>
   <trkpt lat="33.668130000000005" lon="-116.28548">
    <ele>12.67</ele>
   </trkpt>
   <trkpt lat="33.668380000000006" lon="-116.28544000000001">
    <ele>12.770000000000001</ele>
   </trkpt>
   <trkpt lat="33.668670000000006" lon="-116.28550000000001">
    <ele>12.270000000000001</ele>
   </trkpt>
   <trkpt lat="33.668780000000005" lon="-116.28558000000001">
    <ele>12.22</ele>
   </trkpt>
   <trkpt lat="33.66884" lon="-116.28574">
    <ele>12.22</ele>
   </trkpt>
   <trkpt lat="33.66888" lon="-116.28613000000001">
    <ele>12.200000000000001</ele>
   </trkpt>
   <trkpt lat="33.66899" lon="-116.28624">
    <ele>12.200000000000001</ele>
   </trkpt>
   <trkpt lat="33.669340000000005" lon="-116.28626000000001">
    <ele>12.41</ele>
   </trkpt>
   <trkpt lat="33.669540000000005" lon="-116.28633">
    <ele>12.59</ele>
   </trkpt>
   <trkpt lat="33.669630000000005" lon="-116.28637">
    <ele>12.59</ele>
   </trkpt>
   <trkpt lat="33.66978" lon="-116.28651">
    <ele>12.690000000000001</ele>
   </trkpt>
   <trkpt lat="33.669940000000004" lon="-116.28675000000001">
    <ele>12.8</ele>
   </trkpt>
   <trkpt lat="33.67015" lon="-116.28685000000002">
    <ele>12.81</ele>
   </trkpt>
   <trkpt lat="33.67042" lon="-116.28691">
    <ele>12.790000000000001</ele>
   </trkpt>
   <trkpt lat="33.67058" lon="-116.28692000000001">
    <ele>12.790000000000001</ele>
   </trkpt>
   <trkpt lat="33.67072" lon="-116.28697000000001">
    <ele>12.75</ele>
   </trkpt>
   <trkpt lat="33.6708" lon="-116.28702000000001">
    <ele>12.690000000000001</ele>
   </trkpt>
   <trkpt lat="33.67091" lon="-116.28713">
    <ele>12.72</ele>
   </trkpt>
   <trkpt lat="33.6709" lon="-116.28729000000001">
    <ele>12.790000000000001</ele>
   </trkpt>
   <trkpt lat="33.67094" lon="-116.28750000000001">
    <ele>12.8</ele>
   </trkpt>
   <trkpt lat="33.67107" lon="-116.28771">
    <ele>12.780000000000001</ele>
   </trkpt>
   <trkpt lat="33.671200000000006" lon="-116.28796000000001">
    <ele>12.690000000000001</ele>
   </trkpt>
   <trkpt lat="33.671310000000005" lon="-116.28809000000001">
    <ele>12.030000000000001</ele>
   </trkpt>
   <trkpt lat="33.671440000000004" lon="-116.28816">
    <ele>12.450000000000001</ele>
   </trkpt>
   <trkpt lat="33.67186" lon="-116.28811">
    <ele>12.48</ele>
   </trkpt>
   <trkpt lat="33.67206" lon="-116.28817000000001">
    <ele>12.39</ele>
   </trkpt>
   <trkpt lat="33.67215" lon="-116.28815000000002">
    <ele>12.41</ele>
   </trkpt>
   <trkpt lat="33.67226" lon="-116.28804000000001">
    <ele>12.280000000000001</ele>
   </trkpt>
   <trkpt lat="33.67239" lon="-116.28782000000001">
    <ele>12.13</ele>
   </trkpt>
   <trkpt lat="33.67282" lon="-116.28754">
    <ele>11.430000000000001</ele>
   </trkpt>
   <trkpt lat="33.67296" lon="-116.28742000000001">
    <ele>11.23</ele>
   </trkpt>
   <trkpt lat="33.67309" lon="-116.28739000000002">
    <ele>11.15</ele>
   </trkpt>
   <trkpt lat="33.673300000000005" lon="-116.28751000000001">
    <ele>10.98</ele>
   </trkpt>
   <trkpt lat="33.673390000000005" lon="-116.28761000000002">
    <ele>10.98</ele>
   </trkpt>
   <trkpt lat="33.673680000000004" lon="-116.28777000000001">
    <ele>10.990000000000002</ele>
   </trkpt>
   <trkpt lat="33.67391" lon="-116.28783000000001">
    <ele>11.0</ele>
   </trkpt>
   <trkpt lat="33.673970000000004" lon="-116.28774000000001">
    <ele>11.0</ele>
   </trkpt>
   <trkpt lat="33.67376" lon="-116.28764000000001">
    <ele>10.89</ele>
   </trkpt>
   <trkpt lat="33.67358" lon="-116.28744">
    <ele>10.910000000000002</ele>
   </trkpt>
   <trkpt lat="33.673460000000006" lon="-116.28734000000001">
    <ele>11.0</ele>
   </trkpt>
   <trkpt lat="33.673370000000006" lon="-116.28721000000002">
    <ele>10.88</ele>
   </trkpt>
   <trkpt lat="33.67324" lon="-116.28695">
    <ele>10.88</ele>
   </trkpt>
   <trkpt lat="33.67322" lon="-116.28668">
    <ele>10.85</ele>
   </trkpt>
   <trkpt lat="33.67324" lon="-116.28654000000002">
    <ele>10.870000000000001</ele>
   </trkpt>
   <trkpt lat="33.673280000000005" lon="-116.28643000000001">
    <ele>10.81</ele>
   </trkpt>
   <trkpt lat="33.67329" lon="-116.28628">
    <ele>10.81</ele>
   </trkpt>
   <trkpt lat="33.67327" lon="-116.28612000000001">
    <ele>10.89</ele>
   </trkpt>
   <trkpt lat="33.673280000000005" lon="-116.28599000000001">
    <ele>10.89</ele>
   </trkpt>
   <trkpt lat="33.67338" lon="-116.28583">
    <ele>10.74</ele>
   </trkpt>
   <trkpt lat="33.67383" lon="-116.28547">
    <ele>10.31</ele>
   </trkpt>
   <trkpt lat="33.67372" lon="-116.28540000000001">
    <ele>10.560000000000002</ele>
   </trkpt>
   <trkpt lat="33.67353" lon="-116.28537000000001">
    <ele>10.63</ele>
   </trkpt>
   <trkpt lat="33.673390000000005" lon="-116.28540000000001">
    <ele>10.92</ele>
   </trkpt>
   <trkpt lat="33.67329" lon="-116.28546000000001">
    <ele>11.05</ele>
   </trkpt>
   <trkpt lat="33.67316" lon="-116.28550000000001">
    <ele>11.23</ele>
   </trkpt>
   <trkpt lat="33.67305" lon="-116.28551000000002">
    <ele>11.27</ele>
   </trkpt>
   <trkpt lat="33.67297" lon="-116.28548">
    <ele>11.23</ele>
   </trkpt>
   <trkpt lat="33.672830000000005" lon="-116.28537000000001">
    <ele>11.06</ele>
   </trkpt>
   <trkpt lat="33.67273" lon="-116.28527000000001">
    <ele>10.870000000000001</ele>
   </trkpt>
   <trkpt lat="33.67249" lon="-116.28516">
    <ele>10.74</ele>
   </trkpt>
   <trkpt lat="33.672380000000004" lon="-116.28508000000001">
    <ele>10.820000000000002</ele>
   </trkpt>
   <trkpt lat="33.67212" lon="-116.28477000000001">
    <ele>11.3</ele>
   </trkpt>
   <trkpt lat="33.67201" lon="-116.28466000000002">
    <ele>11.420000000000002</ele>
   </trkpt>
   <trkpt lat="33.67175" lon="-116.28457000000002">
    <ele>11.64</ele>
   </trkpt>
   <trkpt lat="33.671440000000004" lon="-116.28434000000001">
    <ele>11.64</ele>
   </trkpt>
   <trkpt lat="33.67132" lon="-116.28430000000002">
    <ele>11.61</ele>
   </trkpt>
   <trkpt lat="33.671060000000004" lon="-116.28408">
    <ele>11.3</ele>
   </trkpt>
   <trkpt lat="33.67098" lon="-116.28404">
    <ele>11.340000000000002</ele>
   </trkpt>
   <trkpt lat="33.670880000000004" lon="-116.28391">
    <ele>11.36</ele>
   </trkpt>
   <trkpt lat="33.670860000000005" lon="-116.28380000000001">
    <ele>11.23</ele>
   </trkpt>
   <trkpt lat="33.670860000000005" lon="-116.28365000000001">
    <ele>11.23</ele>
   </trkpt>
   <trkpt lat="33.6708" lon="-116.28336000000002">
    <ele>10.93</ele>
   </trkpt>
   <trkpt lat="33.67078" lon="-116.28318000000002">
    <ele>10.93</ele>
   </trkpt>
   <trkpt lat="33.67078" lon="-116.28281000000001">
    <ele>10.520000000000001</ele>
   </trkpt>
   <trkpt lat="33.67069" lon="-116.2827">
    <ele>10.33</ele>
   </trkpt>
   <trkpt lat="33.670500000000004" lon="-116.28241000000001">
    <ele>9.950000000000001</ele>
   </trkpt>
   <trkpt lat="33.670390000000005" lon="-116.2822">
    <ele>9.860000000000001</ele>
   </trkpt>
   <trkpt lat="33.670190000000005" lon="-116.28193">
    <ele>9.860000000000001</ele>
   </trkpt>
   <trkpt lat="33.67013" lon="-116.28182000000001">
    <ele>9.79</ele>
   </trkpt>
   <trkpt lat="33.66991" lon="-116.28157000000002">
    <ele>9.79</ele>
   </trkpt>
   <trkpt lat="33.6698" lon="-116.28153">
    <ele>9.53</ele>
   </trkpt>
   <trkpt lat="33.66971" lon="-116.28142000000001">
    <ele>9.53</ele>
   </trkpt>
   <trkpt lat="33.66967" lon="-116.28130000000002">
    <ele>9.420000000000002</ele>
   </trkpt>
   <trkpt lat="33.669760000000004" lon="-116.28123000000001">
    <ele>9.340000000000002</ele>
   </trkpt>
   <trkpt lat="33.66997" lon="-116.28111000000001">
    <ele>9.22</ele>
   </trkpt>
   <trkpt lat="33.66987" lon="-116.28109">
    <ele>9.22</ele>
   </trkpt>
   <trkpt lat="33.66966" lon="-116.28122">
    <ele>9.340000000000002</ele>
   </trkpt>
   <trkpt lat="33.66957" lon="-116.28120000000001">
    <ele>9.340000000000002</ele>
   </trkpt>
   <trkpt lat="33.66948" lon="-116.28116000000001">
    <ele>9.3</ele>
   </trkpt>
   <trkpt lat="33.6696" lon="-116.28091">
    <ele>8.950000000000001</ele>
   </trkpt>
   <trkpt lat="33.669610000000006" lon="-116.28074000000001">
    <ele>8.67</ele>
   </trkpt>
   <trkpt lat="33.66959" lon="-116.28061000000001">
    <ele>8.67</ele>
   </trkpt>
   <trkpt lat="33.669520000000006" lon="-116.28044000000001">
    <ele>8.620000000000001</ele>
   </trkpt>
   <trkpt lat="33.6694" lon="-116.28027000000002">
    <ele>8.790000000000001</ele>
   </trkpt>
   <trkpt lat="33.66922" lon="-116.28007000000001">
    <ele>8.92</ele>
   </trkpt>
   <trkpt lat="33.66913" lon="-116.27993000000001">
    <ele>8.85</ele>
   </trkpt>
   <trkpt lat="33.66908" lon="-116.27982000000002">
    <ele>8.650000000000002</ele>
   </trkpt>
   <trkpt lat="33.66903" lon="-116.27954000000001">
    <ele>8.049999999999999</ele>
   </trkpt>
   <trkpt lat="33.66895" lon="-116.27940000000001">
    <ele>8.049999999999999</ele>
   </trkpt>
   <trkpt lat="33.66884" lon="-116.27929">
    <ele>7.87</ele>
   </trkpt>
   <trkpt lat="33.66874" lon="-116.27924000000002">
    <ele>7.840000000000002</ele>
   </trkpt>
   <trkpt lat="33.66866" lon="-116.27915000000002">
    <ele>7.78</ele>
   </trkpt>
   <trkpt lat="33.668620000000004" lon="-116.27898">
    <ele>7.65</ele>
   </trkpt>
   <trkpt lat="33.66854" lon="-116.27882000000001">
    <ele>7.48</ele>
   </trkpt>
   <trkpt lat="33.66848" lon="-116.27874000000001">
    <ele>7.410000000000001</ele>
   </trkpt>
   <trkpt lat="33.668350000000004" lon="-116.27866000000002">
    <ele>7.390000000000001</ele>
   </trkpt>
   <trkpt lat="33.66816" lon="-116.27861000000001">
    <ele>7.470000000000001</ele>
   </trkpt>
   <trkpt lat="33.668020000000006" lon="-116.27855000000001">
    <ele>7.44</ele>
   </trkpt>
   <trkpt lat="33.66785" lon="-116.27831">
    <ele>7.300000000000001</ele>
   </trkpt>
   <trkpt lat="33.66772" lon="-116.27809">
    <ele>7.050000000000001</ele>
   </trkpt>
   <trkpt lat="33.667640000000006" lon="-116.27791">
    <ele>6.9</ele>
   </trkpt>
   <trkpt lat="33.6676" lon="-116.27768">
    <ele>6.78</ele>
   </trkpt>
   <trkpt lat="33.66751" lon="-116.27743000000001">
    <ele>6.78</ele>
   </trkpt>
   <trkpt lat="33.66745" lon="-116.27732">
    <ele>6.78</ele>
   </trkpt>
   <trkpt lat="33.667440000000006" lon="-116.27713000000001">
    <ele>6.78</ele>
   </trkpt>
   <trkpt lat="33.667460000000005" lon="-116.27701">
    <ele>6.78</ele>
   </trkpt>
   <trkpt lat="33.66738" lon="-116.27695000000001">
    <ele>6.78</ele>
   </trkpt>
   <trkpt lat="33.667210000000004" lon="-116.27718000000002">
    <ele>6.78</ele>
   </trkpt>
   <trkpt lat="33.66714" lon="-116.27725000000001">
    <ele>6.78</ele>
   </trkpt>
   <trkpt lat="33.66705" lon="-116.27731000000001">
    <ele>6.78</ele>
   </trkpt>
   <trkpt lat="33.66689" lon="-116.27725000000001">
    <ele>6.78</ele>
   </trkpt>
   <trkpt lat="33.666630000000005" lon="-116.27720000000001">
    <ele>6.78</ele>
   </trkpt>
   <trkpt lat="33.666540000000005" lon="-116.27699000000001">
    <ele>6.78</ele>
   </trkpt>
   <trkpt lat="33.66642" lon="-116.27698000000001">
    <ele>6.78</ele>
   </trkpt>
   <trkpt lat="33.666270000000004" lon="-116.27701">
    <ele>6.78</ele>
   </trkpt>
   <trkpt lat="33.66608" lon="-116.27700000000002">
    <ele>6.78</ele>
   </trkpt>
   <trkpt lat="33.665310000000005" lon="-116.27703000000001">
    <ele>6.68</ele>
   </trkpt>
   <trkpt lat="33.664460000000005" lon="-116.27703000000001">
    <ele>6.49</ele>
   </trkpt>
   <trkpt lat="33.664350000000006" lon="-116.27695000000001">
    <ele>6.49</ele>
   </trkpt>
   <trkpt lat="33.6642" lon="-116.27694000000001">
    <ele>6.49</ele>
   </trkpt>
   <trkpt lat="33.66391" lon="-116.27681000000001">
    <ele>6.38</ele>
   </trkpt>
   <trkpt lat="33.66376" lon="-116.27673000000001">
    <ele>6.38</ele>
   </trkpt>
   <trkpt lat="33.66368" lon="-116.27665">
    <ele>6.38</ele>
   </trkpt>
   <trkpt lat="33.66362" lon="-116.27650000000001">
    <ele>6.38</ele>
   </trkpt>
   <trkpt lat="33.663630000000005" lon="-116.27634">
    <ele>6.38</ele>
   </trkpt>
   <trkpt lat="33.663720000000005" lon="-116.27618000000001">
    <ele>6.2700000000000005</ele>
   </trkpt>
   <trkpt lat="33.66378" lon="-116.27609000000001">
    <ele>6.2700000000000005</ele>
   </trkpt>
   <trkpt lat="33.663720000000005" lon="-116.27600000000001">
    <ele>6.280000000000001</ele>
   </trkpt>
   <trkpt lat="33.6636" lon="-116.27601000000001">
    <ele>6.36</ele>
   </trkpt>
   <trkpt lat="33.66348" lon="-116.27606000000002">
    <ele>6.300000000000001</ele>
   </trkpt>
   <trkpt lat="33.6633" lon="-116.27624000000002">
    <ele>6.280000000000001</ele>
   </trkpt>
   <trkpt lat="33.663070000000005" lon="-116.27634">
    <ele>6.280000000000001</ele>
   </trkpt>
   <trkpt lat="33.663000000000004" lon="-116.27641000000001">
    <ele>6.2700000000000005</ele>
   </trkpt>
   <trkpt lat="33.6629" lon="-116.27647">
    <ele>6.2700000000000005</ele>
   </trkpt>
   <trkpt lat="33.66277" lon="-116.27647">
    <ele>6.2700000000000005</ele>
   </trkpt>
   <trkpt lat="33.66263" lon="-116.27635000000001">
    <ele>6.180000000000001</ele>
   </trkpt>
   <trkpt lat="33.66212" lon="-116.27605000000001">
    <ele>6.08</ele>
   </trkpt>
   <trkpt lat="33.66203" lon="-116.27603">
    <ele>6.07</ele>
   </trkpt>
   <trkpt lat="33.66183" lon="-116.27603">
    <ele>6.07</ele>
   </trkpt>
   <trkpt lat="33.66174" lon="-116.27604000000001">
    <ele>6.07</ele>
   </trkpt>
   <trkpt lat="33.661530000000006" lon="-116.27610000000001">
    <ele>5.9799999999999995</ele>
   </trkpt>
   <trkpt lat="33.66145" lon="-116.27606000000002">
    <ele>5.9799999999999995</ele>
   </trkpt>
   <trkpt lat="33.66142" lon="-116.27594">
    <ele>5.99</ele>
   </trkpt>
   <trkpt lat="33.661550000000005" lon="-116.27552000000001">
    <ele>5.95</ele>
   </trkpt>
   <trkpt lat="33.66158" lon="-116.27528000000001">
    <ele>5.87</ele>
   </trkpt>
   <trkpt lat="33.66163" lon="-116.27515000000001">
    <ele>5.890000000000001</ele>
   </trkpt>
   <trkpt lat="33.66174" lon="-116.27508">
    <ele>5.9799999999999995</ele>
   </trkpt>
   <trkpt lat="33.661820000000006" lon="-116.27490000000002">
    <ele>5.9799999999999995</ele>
   </trkpt>
   <trkpt lat="33.661860000000004" lon="-116.27474000000001">
    <ele>5.960000000000001</ele>
   </trkpt>
   <trkpt lat="33.66185" lon="-116.27459">
    <ele>6.0</ele>
   </trkpt>
   <trkpt lat="33.6617" lon="-116.27443000000001">
    <ele>5.85</ele>
   </trkpt>
   <trkpt lat="33.6616" lon="-116.27438000000001">
    <ele>5.83</ele>
   </trkpt>
   <trkpt lat="33.66151" lon="-116.27437">
    <ele>5.7700000000000005</ele>
   </trkpt>
   <trkpt lat="33.66138" lon="-116.27438000000001">
    <ele>5.750000000000001</ele>
   </trkpt>
   <trkpt lat="33.66127" lon="-116.27446">
    <ele>5.920000000000001</ele>
   </trkpt>
   <trkpt lat="33.66116" lon="-116.27462000000001">
    <ele>5.99</ele>
   </trkpt>
   <trkpt lat="33.661120000000004" lon="-116.27473">
    <ele>5.99</ele>
   </trkpt>
   <trkpt lat="33.661060000000006" lon="-116.27484000000001">
    <ele>5.9799999999999995</ele>
   </trkpt>
   <trkpt lat="33.66075" lon="-116.27498000000001">
    <ele>5.880000000000001</ele>
   </trkpt>
   <trkpt lat="33.660470000000004" lon="-116.27494000000002">
    <ele>5.81</ele>
   </trkpt>
   <trkpt lat="33.66004" lon="-116.27498000000001">
    <ele>5.430000000000001</ele>
   </trkpt>
   <trkpt lat="33.659960000000005" lon="-116.27506000000001">
    <ele>5.42</ele>
   </trkpt>
   <trkpt lat="33.65993" lon="-116.27519000000001">
    <ele>5.42</ele>
   </trkpt>
   <trkpt lat="33.65991" lon="-116.27545">
    <ele>5.57</ele>
   </trkpt>
   <trkpt lat="33.65979" lon="-116.27546000000001">
    <ele>5.51</ele>
   </trkpt>
   <trkpt lat="33.659530000000004" lon="-116.27542000000001">
    <ele>5.450000000000001</ele>
   </trkpt>
   <trkpt lat="33.65934" lon="-116.27545">
    <ele>5.450000000000001</ele>
   </trkpt>
   <trkpt lat="33.65907" lon="-116.27543000000001">
    <ele>5.38</ele>
   </trkpt>
   <trkpt lat="33.65879" lon="-116.27544">
    <ele>5.33</ele>
   </trkpt>
   <trkpt lat="33.658640000000005" lon="-116.27541000000001">
    <ele>5.390000000000001</ele>
   </trkpt>
   <trkpt lat="33.65833" lon="-116.27527">
    <ele>5.090000000000001</ele>
   </trkpt>
   <trkpt lat="33.658210000000004" lon="-116.27528000000001">
    <ele>5.050000000000001</ele>
   </trkpt>
   <trkpt lat="33.65811" lon="-116.27532000000001">
    <ele>4.99</ele>
   </trkpt>
   <trkpt lat="33.65802" lon="-116.27538000000001">
    <ele>4.99</ele>
   </trkpt>
   <trkpt lat="33.65791" lon="-116.27554">
    <ele>5.03</ele>
   </trkpt>
   <trkpt lat="33.65775" lon="-116.27586000000001">
    <ele>5.050000000000001</ele>
   </trkpt>
   <trkpt lat="33.65764" lon="-116.27598">
    <ele>5.04</ele>
   </trkpt>
   <trkpt lat="33.65748" lon="-116.27625">
    <ele>5.03</ele>
   </trkpt>
   <trkpt lat="33.657360000000004" lon="-116.27634">
    <ele>5.03</ele>
   </trkpt>
   <trkpt lat="33.65706" lon="-116.27652">
    <ele>4.9799999999999995</ele>
   </trkpt>
   <trkpt lat="33.656890000000004" lon="-116.2767">
    <ele>4.99</ele>
   </trkpt>
   <trkpt lat="33.65674" lon="-116.27652">
    <ele>4.880000000000001</ele>
   </trkpt>
   <trkpt lat="33.656650000000006" lon="-116.27645000000001">
    <ele>4.800000000000001</ele>
   </trkpt>
   <trkpt lat="33.65657" lon="-116.27658000000001">
    <ele>4.83</ele>
   </trkpt>
   <trkpt lat="33.656560000000006" lon="-116.27700000000002">
    <ele>4.91</ele>
   </trkpt>
   <trkpt lat="33.65657" lon="-116.27748000000001">
    <ele>5.0</ele>
   </trkpt>
   <trkpt lat="33.65659" lon="-116.27763000000002">
    <ele>5.0</ele>
   </trkpt>
   <trkpt lat="33.656670000000005" lon="-116.27797000000001">
    <ele>5.08</ele>
   </trkpt>
   <trkpt lat="33.65677" lon="-116.27822">
    <ele>5.19</ele>
   </trkpt>
   <trkpt lat="33.656870000000005" lon="-116.27831">
    <ele>5.19</ele>
   </trkpt>
   <trkpt lat="33.65699" lon="-116.27829000000001">
    <ele>5.29</ele>
   </trkpt>
   <trkpt lat="33.657500000000006" lon="-116.27785000000002">
    <ele>5.37</ele>
   </trkpt>
   <trkpt lat="33.6576" lon="-116.27767000000001">
    <ele>5.37</ele>
   </trkpt>
   <trkpt lat="33.65767" lon="-116.27746">
    <ele>5.34</ele>
   </trkpt>
   <trkpt lat="33.65776" lon="-116.27733">
    <ele>5.390000000000001</ele>
   </trkpt>
   <trkpt lat="33.65787" lon="-116.27726000000001">
    <ele>5.390000000000001</ele>
   </trkpt>
   <trkpt lat="33.657990000000005" lon="-116.27714">
    <ele>5.390000000000001</ele>
   </trkpt>
   <trkpt lat="33.65832" lon="-116.27667000000001">
    <ele>5.390000000000001</ele>
   </trkpt>
   <trkpt lat="33.658440000000006" lon="-116.27660000000002">
    <ele>5.44</ele>
   </trkpt>
   <trkpt lat="33.65879" lon="-116.27649000000001">
    <ele>5.5600000000000005</ele>
   </trkpt>
   <trkpt lat="33.658910000000006" lon="-116.27644000000001">
    <ele>5.5200000000000005</ele>
   </trkpt>
   <trkpt lat="33.65905" lon="-116.27645000000001">
    <ele>5.580000000000001</ele>
   </trkpt>
   <trkpt lat="33.659290000000006" lon="-116.27643">
    <ele>5.68</ele>
   </trkpt>
   <trkpt lat="33.659380000000006" lon="-116.27647">
    <ele>5.68</ele>
   </trkpt>
   <trkpt lat="33.659440000000004" lon="-116.27661">
    <ele>5.710000000000001</ele>
   </trkpt>
   <trkpt lat="33.65952" lon="-116.27671000000001">
    <ele>6.03</ele>
   </trkpt>
   <trkpt lat="33.65961" lon="-116.27668000000001">
    <ele>6.180000000000001</ele>
   </trkpt>
   <trkpt lat="33.659890000000004" lon="-116.27654000000001">
    <ele>5.970000000000001</ele>
   </trkpt>
   <trkpt lat="33.6601" lon="-116.27647">
    <ele>5.9799999999999995</ele>
   </trkpt>
   <trkpt lat="33.660410000000006" lon="-116.27644000000001">
    <ele>5.86</ele>
   </trkpt>
   <trkpt lat="33.660940000000004" lon="-116.27648">
    <ele>5.9799999999999995</ele>
   </trkpt>
   <trkpt lat="33.661010000000005" lon="-116.27657">
    <ele>5.920000000000001</ele>
   </trkpt>
   <trkpt lat="33.66098" lon="-116.27683">
    <ele>9.770000000000001</ele>
   </trkpt>
   <trkpt lat="33.66118" lon="-116.27746">
    <ele>12.260000000000002</ele>
   </trkpt>
   <trkpt lat="33.66125" lon="-116.2776">
    <ele>11.840000000000002</ele>
   </trkpt>
   <trkpt lat="33.66149" lon="-116.27781000000002">
    <ele>12.430000000000001</ele>
   </trkpt>
   <trkpt lat="33.66156" lon="-116.27789000000001">
    <ele>12.820000000000002</ele>
   </trkpt>
   <trkpt lat="33.66162" lon="-116.27801000000001">
    <ele>13.600000000000001</ele>
   </trkpt>
   <trkpt lat="33.661880000000004" lon="-116.27826">
    <ele>12.14</ele>
   </trkpt>
   <trkpt lat="33.66194" lon="-116.27837000000001">
    <ele>12.200000000000001</ele>
   </trkpt>
   <trkpt lat="33.66207" lon="-116.27851000000001">
    <ele>12.190000000000001</ele>
   </trkpt>
   <trkpt lat="33.66226" lon="-116.27866000000002">
    <ele>12.17</ele>
   </trkpt>
   <trkpt lat="33.66241" lon="-116.27873000000001">
    <ele>12.33</ele>
   </trkpt>
   <trkpt lat="33.66273" lon="-116.27904000000001">
    <ele>15.9</ele>
   </trkpt>
   <trkpt lat="33.66288" lon="-116.27915000000002">
    <ele>15.48</ele>
   </trkpt>
   <trkpt lat="33.66319" lon="-116.27949000000001">
    <ele>15.81</ele>
   </trkpt>
   <trkpt lat="33.66337" lon="-116.27973000000001">
    <ele>14.16</ele>
   </trkpt>
   <trkpt lat="33.663560000000004" lon="-116.27996">
    <ele>17.11</ele>
   </trkpt>
   <trkpt lat="33.66375" lon="-116.28012000000001">
    <ele>17.7</ele>
   </trkpt>
   <trkpt lat="33.663830000000004" lon="-116.28025000000001">
    <ele>18.78</ele>
   </trkpt>
   <trkpt lat="33.66393" lon="-116.28032">
    <ele>17.400000000000002</ele>
   </trkpt>
   <trkpt lat="33.66425" lon="-116.28038000000001">
    <ele>13.05</ele>
   </trkpt>
   <trkpt lat="33.66436" lon="-116.28043000000001">
    <ele>12.620000000000001</ele>
   </trkpt>
   <trkpt lat="33.664390000000004" lon="-116.28056000000001">
    <ele>12.75</ele>
   </trkpt>
   <trkpt lat="33.664410000000004" lon="-116.28089000000001">
    <ele>13.49</ele>
   </trkpt>
   <trkpt lat="33.664440000000006" lon="-116.28101000000001">
    <ele>12.72</ele>
   </trkpt>
   <trkpt lat="33.66449" lon="-116.28112000000002">
    <ele>12.07</ele>
   </trkpt>
   <trkpt lat="33.664680000000004" lon="-116.28144">
    <ele>11.91</ele>
   </trkpt>
   <trkpt lat="33.66478" lon="-116.28169000000001">
    <ele>12.49</ele>
   </trkpt>
   <trkpt lat="33.664860000000004" lon="-116.28182000000001">
    <ele>12.81</ele>
   </trkpt>
   <trkpt lat="33.66494" lon="-116.28190000000001">
    <ele>12.81</ele>
   </trkpt>
   <trkpt lat="33.6653" lon="-116.28213000000001">
    <ele>15.98</ele>
   </trkpt>
   <trkpt lat="33.66546" lon="-116.2822">
    <ele>14.980000000000002</ele>
   </trkpt>
   <trkpt lat="33.665580000000006" lon="-116.28224000000002">
    <ele>14.33</ele>
   </trkpt>
   <trkpt lat="33.66573" lon="-116.28225">
    <ele>14.97</ele>
   </trkpt>
   <trkpt lat="33.666050000000006" lon="-116.28219000000001">
    <ele>17.53</ele>
   </trkpt>
   <trkpt lat="33.666180000000004" lon="-116.28213000000001">
    <ele>14.780000000000001</ele>
   </trkpt>
   <trkpt lat="33.666270000000004" lon="-116.28200000000001">
    <ele>12.430000000000001</ele>
   </trkpt>
   <trkpt lat="33.66635" lon="-116.28171">
    <ele>12.14</ele>
   </trkpt>
   <trkpt lat="33.6664" lon="-116.28161000000001">
    <ele>12.14</ele>
   </trkpt>
   <trkpt lat="33.6664" lon="-116.28147000000001">
    <ele>11.950000000000001</ele>
   </trkpt>
   <trkpt lat="33.66621" lon="-116.28123000000001">
    <ele>11.62</ele>
   </trkpt>
   <trkpt lat="33.66611" lon="-116.28118">
    <ele>11.57</ele>
   </trkpt>
   <trkpt lat="33.666000000000004" lon="-116.28117">
    <ele>11.580000000000002</ele>
   </trkpt>
   <trkpt lat="33.665850000000006" lon="-116.28109">
    <ele>11.420000000000002</ele>
   </trkpt>
   <trkpt lat="33.665760000000006" lon="-116.281">
    <ele>11.420000000000002</ele>
   </trkpt>
   <trkpt lat="33.665620000000004" lon="-116.28070000000001">
    <ele>10.92</ele>
   </trkpt>
   <trkpt lat="33.66561" lon="-116.28052000000001">
    <ele>10.650000000000002</ele>
   </trkpt>
   <trkpt lat="33.665620000000004" lon="-116.28041">
    <ele>10.450000000000001</ele>
   </trkpt>
   <trkpt lat="33.66555" lon="-116.28030000000001">
    <ele>10.350000000000001</ele>
   </trkpt>
   <trkpt lat="33.66546" lon="-116.28025000000001">
    <ele>10.32</ele>
   </trkpt>
   <trkpt lat="33.665200000000006" lon="-116.27988">
    <ele>10.26</ele>
   </trkpt>
   <trkpt lat="33.665060000000004" lon="-116.27973000000001">
    <ele>10.23</ele>
   </trkpt>
   <trkpt lat="33.664860000000004" lon="-116.27939">
    <ele>10.06</ele>
   </trkpt>
   <trkpt lat="33.66471" lon="-116.2792">
    <ele>9.510000000000002</ele>
   </trkpt>
   <trkpt lat="33.66458" lon="-116.27899000000001">
    <ele>9.040000000000001</ele>
   </trkpt>
   <trkpt lat="33.664320000000004" lon="-116.27866000000002">
    <ele>8.49</ele>
   </trkpt>
   <trkpt lat="33.66411" lon="-116.27835">
    <ele>7.88</ele>
   </trkpt>
   <trkpt lat="33.66391" lon="-116.27813">
    <ele>7.37</ele>
   </trkpt>
   <trkpt lat="33.663830000000004" lon="-116.27798000000001">
    <ele>7.010000000000001</ele>
   </trkpt>
   <trkpt lat="33.663740000000004" lon="-116.27787000000001">
    <ele>6.78</ele>
   </trkpt>
   <trkpt lat="33.6636" lon="-116.27776000000001">
    <ele>6.7</ele>
   </trkpt>
   <trkpt lat="33.66353" lon="-116.27766000000001">
    <ele>6.670000000000001</ele>
   </trkpt>
   <trkpt lat="33.663450000000005" lon="-116.27742">
    <ele>6.5</ele>
   </trkpt>
   <trkpt lat="33.66344" lon="-116.27720000000001">
    <ele>6.38</ele>
   </trkpt>
   <trkpt lat="33.663410000000006" lon="-116.27709000000002">
    <ele>6.390000000000001</ele>
   </trkpt>
   <trkpt lat="33.663340000000005" lon="-116.27703000000001">
    <ele>6.390000000000001</ele>
   </trkpt>
   <trkpt lat="33.6632" lon="-116.27702000000001">
    <ele>6.300000000000001</ele>
   </trkpt>
   <trkpt lat="33.66308" lon="-116.27695000000001">
    <ele>6.280000000000001</ele>
   </trkpt>
   <trkpt lat="33.66293" lon="-116.27669000000002">
    <ele>6.29</ele>
   </trkpt>
   <trkpt lat="33.66286" lon="-116.27661">
    <ele>6.29</ele>
   </trkpt>
   <trkpt lat="33.66297" lon="-116.27649000000001">
    <ele>6.29</ele>
   </trkpt>
   <trkpt lat="33.663250000000005" lon="-116.27636000000001">
    <ele>6.29</ele>
   </trkpt>
   <trkpt lat="33.66349" lon="-116.27665">
    <ele>6.390000000000001</ele>
   </trkpt>
   <trkpt lat="33.66348" lon="-116.27680000000001">
    <ele>6.390000000000001</ele>
   </trkpt>
   <trkpt lat="33.66342" lon="-116.27698000000001">
    <ele>6.38</ele>
   </trkpt>
   <trkpt lat="33.66344" lon="-116.2771">
    <ele>6.38</ele>
   </trkpt>
   <trkpt lat="33.663450000000005" lon="-116.27737">
    <ele>6.49</ele>
   </trkpt>
   <trkpt lat="33.663500000000006" lon="-116.27746">
    <ele>6.5200000000000005</ele>
   </trkpt>
   <trkpt lat="33.663720000000005" lon="-116.27748000000001">
    <ele>6.53</ele>
   </trkpt>
   <trkpt lat="33.66384" lon="-116.27747000000001">
    <ele>6.580000000000001</ele>
   </trkpt>
   <trkpt lat="33.66433" lon="-116.27747000000001">
    <ele>6.580000000000001</ele>
   </trkpt>
   <trkpt lat="33.664500000000004" lon="-116.27752000000001">
    <ele>6.66</ele>
   </trkpt>
   <trkpt lat="33.66465" lon="-116.27751">
    <ele>6.66</ele>
   </trkpt>
   <trkpt lat="33.66489" lon="-116.27761000000001">
    <ele>6.68</ele>
   </trkpt>
   <trkpt lat="33.664950000000005" lon="-116.27753000000001">
    <ele>6.68</ele>
   </trkpt>
   <trkpt lat="33.665060000000004" lon="-116.27744000000001">
    <ele>6.68</ele>
   </trkpt>
   <trkpt lat="33.66521" lon="-116.27742">
    <ele>6.68</ele>
   </trkpt>
   <trkpt lat="33.665690000000005" lon="-116.27742">
    <ele>6.78</ele>
   </trkpt>
   <trkpt lat="33.66601" lon="-116.27732">
    <ele>6.78</ele>
   </trkpt>
   <trkpt lat="33.66626" lon="-116.27731000000001">
    <ele>6.78</ele>
   </trkpt>
   <trkpt lat="33.66658" lon="-116.27725000000001">
    <ele>6.78</ele>
   </trkpt>
   <trkpt lat="33.666650000000004" lon="-116.27733">
    <ele>6.78</ele>
   </trkpt>
   <trkpt lat="33.66678" lon="-116.27733">
    <ele>6.78</ele>
   </trkpt>
   <trkpt lat="33.66707" lon="-116.27738000000001">
    <ele>6.78</ele>
   </trkpt>
   <trkpt lat="33.66715" lon="-116.27746">
    <ele>6.7700000000000005</ele>
   </trkpt>
   <trkpt lat="33.66724" lon="-116.27775000000001">
    <ele>6.8100000000000005</ele>
   </trkpt>
   <trkpt lat="33.667260000000006" lon="-116.27802000000001">
    <ele>6.970000000000001</ele>
   </trkpt>
   <trkpt lat="33.66734" lon="-116.27824000000001">
    <ele>7.2700000000000005</ele>
   </trkpt>
   <trkpt lat="33.667350000000006" lon="-116.27849">
    <ele>7.5</ele>
   </trkpt>
   <trkpt lat="33.667280000000005" lon="-116.27867">
    <ele>7.69</ele>
   </trkpt>
   <trkpt lat="33.66705" lon="-116.27900000000001">
    <ele>7.92</ele>
   </trkpt>
   <trkpt lat="33.66691" lon="-116.27929">
    <ele>8.41</ele>
   </trkpt>
   <trkpt lat="33.66689" lon="-116.27941000000001">
    <ele>8.6</ele>
   </trkpt>
   <trkpt lat="33.66704" lon="-116.27979">
    <ele>9.200000000000001</ele>
   </trkpt>
   <trkpt lat="33.66718" lon="-116.27993000000001">
    <ele>9.35</ele>
   </trkpt>
   <trkpt lat="33.66749" lon="-116.28017000000001">
    <ele>9.4</ele>
   </trkpt>
   <trkpt lat="33.66761" lon="-116.28024">
    <ele>9.510000000000002</ele>
   </trkpt>
   <trkpt lat="33.66787" lon="-116.28031000000001">
    <ele>9.48</ele>
   </trkpt>
   <trkpt lat="33.66796" lon="-116.28042">
    <ele>9.64</ele>
   </trkpt>
   <trkpt lat="33.66803" lon="-116.28057000000001">
    <ele>9.64</ele>
   </trkpt>
   <trkpt lat="33.668400000000005" lon="-116.28088000000001">
    <ele>10.41</ele>
   </trkpt>
   <trkpt lat="33.66863" lon="-116.28103000000002">
    <ele>10.09</ele>
   </trkpt>
   <trkpt lat="33.66864" lon="-116.28126">
    <ele>10.09</ele>
   </trkpt>
   <trkpt lat="33.66886" lon="-116.28126">
    <ele>9.18</ele>
   </trkpt>
   <trkpt lat="33.66893" lon="-116.28127">
    <ele>9.420000000000002</ele>
   </trkpt>
   <trkpt lat="33.66917" lon="-116.28144">
    <ele>10.350000000000001</ele>
   </trkpt>
   <trkpt lat="33.6693" lon="-116.28145">
    <ele>10.77</ele>
   </trkpt>
   <trkpt lat="33.66917" lon="-116.28144">
    <ele>10.350000000000001</ele>
   </trkpt>
   <trkpt lat="33.66893" lon="-116.28127">
    <ele>9.420000000000002</ele>
   </trkpt>
   <trkpt lat="33.66886" lon="-116.28126">
    <ele>9.18</ele>
   </trkpt>
   <trkpt lat="33.66859" lon="-116.28126">
    <ele>8.92</ele>
   </trkpt>
   <trkpt lat="33.66818" lon="-116.28133000000001">
    <ele>9.58</ele>
   </trkpt>
   <trkpt lat="33.66799" lon="-116.28145">
    <ele>9.850000000000001</ele>
   </trkpt>
   <trkpt lat="33.66798" lon="-116.28145">
    <ele>9.860000000000001</ele>
   </trkpt>
   <trkpt lat="33.66818" lon="-116.28133000000001">
    <ele>9.58</ele>
   </trkpt>
   <trkpt lat="33.66859" lon="-116.28126">
    <ele>8.92</ele>
   </trkpt>
   <trkpt lat="33.66886" lon="-116.28126">
    <ele>9.18</ele>
   </trkpt>
   <trkpt lat="33.66893" lon="-116.28127">
    <ele>9.420000000000002</ele>
   </trkpt>
   <trkpt lat="33.669160000000005" lon="-116.28144">
    <ele>10.33</ele>
   </trkpt>
   <trkpt lat="33.669140000000006" lon="-116.28161000000001">
    <ele>9.81</ele>
   </trkpt>
   <trkpt lat="33.66903" lon="-116.28170000000001">
    <ele>10.010000000000002</ele>
   </trkpt>
   <trkpt lat="33.66892" lon="-116.28189">
    <ele>10.34</ele>
   </trkpt>
   <trkpt lat="33.668850000000006" lon="-116.28210000000001">
    <ele>10.520000000000001</ele>
   </trkpt>
   <trkpt lat="33.668730000000004" lon="-116.28225">
    <ele>10.57</ele>
   </trkpt>
   <trkpt lat="33.66859" lon="-116.28235000000001">
    <ele>10.83</ele>
   </trkpt>
   <trkpt lat="33.66819" lon="-116.28244000000001">
    <ele>11.63</ele>
   </trkpt>
   <trkpt lat="33.66812" lon="-116.28254000000001">
    <ele>11.63</ele>
   </trkpt>
   <trkpt lat="33.66809" lon="-116.28266">
    <ele>11.7</ele>
   </trkpt>
   <trkpt lat="33.667750000000005" lon="-116.28338000000001">
    <ele>10.47</ele>
   </trkpt>
   <trkpt lat="33.66767" lon="-116.28379000000001">
    <ele>11.690000000000001</ele>
   </trkpt>
   <trkpt lat="33.667570000000005" lon="-116.28402000000001">
    <ele>11.260000000000002</ele>
   </trkpt>
   <trkpt lat="33.6676" lon="-116.28420000000001">
    <ele>11.63</ele>
   </trkpt>
   <trkpt lat="33.66765" lon="-116.28431">
    <ele>11.540000000000001</ele>
   </trkpt>
   <trkpt lat="33.667750000000005" lon="-116.28443000000001">
    <ele>11.860000000000001</ele>
   </trkpt>
   <trkpt lat="33.6679" lon="-116.28453">
    <ele>11.940000000000001</ele>
   </trkpt>
   <trkpt lat="33.668060000000004" lon="-116.28459000000001">
    <ele>12.25</ele>
   </trkpt>
   <trkpt lat="33.66832" lon="-116.28473000000001">
    <ele>12.23</ele>
   </trkpt>
   <trkpt lat="33.66859" lon="-116.28476">
    <ele>12.020000000000001</ele>
   </trkpt>
   <trkpt lat="33.668800000000005" lon="-116.28491000000001">
    <ele>12.05</ele>
   </trkpt>
   <trkpt lat="33.66892" lon="-116.28497000000002">
    <ele>12.020000000000001</ele>
   </trkpt>
   <trkpt lat="33.66908" lon="-116.28494">
    <ele>12.110000000000001</ele>
   </trkpt>
   <trkpt lat="33.66928" lon="-116.28494">
    <ele>12.010000000000002</ele>
   </trkpt>
   <trkpt lat="33.66948" lon="-116.28490000000001">
    <ele>11.88</ele>
   </trkpt>
   <trkpt lat="33.66973" lon="-116.28464000000001">
    <ele>11.860000000000001</ele>
   </trkpt>
   <trkpt lat="33.669850000000004" lon="-116.28438000000001">
    <ele>11.8</ele>
   </trkpt>
   <trkpt lat="33.669940000000004" lon="-116.28425000000001">
    <ele>11.72</ele>
   </trkpt>
   <trkpt lat="33.67006" lon="-116.28425000000001">
    <ele>11.8</ele>
   </trkpt>
   <trkpt lat="33.67036" lon="-116.28437000000001">
    <ele>11.840000000000002</ele>
   </trkpt>
   <trkpt lat="33.670590000000004" lon="-116.28457000000002">
    <ele>11.850000000000001</ele>
   </trkpt>
   <trkpt lat="33.670660000000005" lon="-116.28466000000002">
    <ele>11.83</ele>
   </trkpt>
   <trkpt lat="33.670770000000005" lon="-116.28485">
    <ele>11.98</ele>
   </trkpt>
   <trkpt lat="33.67098" lon="-116.28506000000002">
    <ele>12.13</ele>
   </trkpt>
   <trkpt lat="33.67105" lon="-116.28516">
    <ele>12.13</ele>
   </trkpt>
   <trkpt lat="33.671110000000006" lon="-116.28533000000002">
    <ele>12.22</ele>
   </trkpt>
   <trkpt lat="33.671420000000005" lon="-116.28560000000002">
    <ele>12.16</ele>
   </trkpt>
   <trkpt lat="33.67156" lon="-116.28568000000001">
    <ele>12.16</ele>
   </trkpt>
   <trkpt lat="33.671690000000005" lon="-116.28572000000001">
    <ele>12.030000000000001</ele>
   </trkpt>
   <trkpt lat="33.67177" lon="-116.28579">
    <ele>11.91</ele>
   </trkpt>
   <trkpt lat="33.671800000000005" lon="-116.28591000000002">
    <ele>11.840000000000002</ele>
   </trkpt>
   <trkpt lat="33.671800000000005" lon="-116.28606">
    <ele>11.83</ele>
   </trkpt>
   <trkpt lat="33.671910000000004" lon="-116.28619">
    <ele>11.770000000000001</ele>
   </trkpt>
   <trkpt lat="33.67211" lon="-116.28651">
    <ele>11.850000000000001</ele>
   </trkpt>
   <trkpt lat="33.672090000000004" lon="-116.28664">
    <ele>11.950000000000001</ele>
   </trkpt>
   <trkpt lat="33.67199" lon="-116.28666000000001">
    <ele>12.0</ele>
   </trkpt>
   <trkpt lat="33.67188" lon="-116.28666000000001">
    <ele>12.010000000000002</ele>
   </trkpt>
   <trkpt lat="33.671640000000004" lon="-116.28672">
    <ele>12.16</ele>
   </trkpt>
   <trkpt lat="33.67143" lon="-116.28682">
    <ele>12.3</ele>
   </trkpt>
   <trkpt lat="33.67121" lon="-116.28678000000001">
    <ele>12.600000000000001</ele>
   </trkpt>
   <trkpt lat="33.67105" lon="-116.28672">
    <ele>12.620000000000001</ele>
   </trkpt>
   <trkpt lat="33.67094" lon="-116.28666000000001">
    <ele>12.58</ele>
   </trkpt>
   <trkpt lat="33.670790000000004" lon="-116.28648000000001">
    <ele>12.58</ele>
   </trkpt>
   <trkpt lat="33.670660000000005" lon="-116.28637">
    <ele>12.58</ele>
   </trkpt>
   <trkpt lat="33.670260000000006" lon="-116.28620000000001">
    <ele>12.58</ele>
   </trkpt>
   <trkpt lat="33.670030000000004" lon="-116.28608000000001">
    <ele>12.48</ele>
   </trkpt>
   <trkpt lat="33.66968" lon="-116.28595000000001">
    <ele>12.370000000000001</ele>
   </trkpt>
   <trkpt lat="33.669430000000006" lon="-116.28576000000001">
    <ele>12.350000000000001</ele>
   </trkpt>
   <trkpt lat="33.669270000000004" lon="-116.28556">
    <ele>12.110000000000001</ele>
   </trkpt>
   <trkpt lat="33.66913" lon="-116.28543">
    <ele>12.16</ele>
   </trkpt>
   <trkpt lat="33.669000000000004" lon="-116.28536000000001">
    <ele>12.25</ele>
   </trkpt>
   <trkpt lat="33.6689" lon="-116.28534">
    <ele>12.190000000000001</ele>
   </trkpt>
   <trkpt lat="33.668800000000005" lon="-116.28529">
    <ele>12.190000000000001</ele>
   </trkpt>
   <trkpt lat="33.668670000000006" lon="-116.28509000000001">
    <ele>12.200000000000001</ele>
   </trkpt>
   <trkpt lat="33.668600000000005" lon="-116.28502">
    <ele>12.24</ele>
   </trkpt>
   <trkpt lat="33.66837" lon="-116.28496000000001">
    <ele>12.39</ele>
   </trkpt>
   <trkpt lat="33.66825" lon="-116.28486000000001">
    <ele>12.39</ele>
   </trkpt>
   <trkpt lat="33.66801" lon="-116.28475">
    <ele>12.15</ele>
   </trkpt>
   <trkpt lat="33.66776" lon="-116.28471">
    <ele>12.32</ele>
   </trkpt>
   <trkpt lat="33.667660000000005" lon="-116.28473000000001">
    <ele>12.59</ele>
   </trkpt>
   <trkpt lat="33.66758" lon="-116.28478000000001">
    <ele>12.770000000000001</ele>
   </trkpt>
   <trkpt lat="33.66751" lon="-116.28486000000001">
    <ele>13.120000000000001</ele>
   </trkpt>
   <trkpt lat="33.667550000000006" lon="-116.28499000000001">
    <ele>13.290000000000001</ele>
   </trkpt>
   <trkpt lat="33.667680000000004" lon="-116.28509000000001">
    <ele>12.72</ele>
   </trkpt>
   <trkpt lat="33.667840000000005" lon="-116.28536000000001">
    <ele>12.790000000000001</ele>
   </trkpt>
   <trkpt lat="33.667970000000004" lon="-116.28546000000001">
    <ele>13.860000000000001</ele>
   </trkpt>
   <trkpt lat="33.66814" lon="-116.28549000000001">
    <ele>12.780000000000001</ele>
   </trkpt>
   <trkpt lat="33.66828" lon="-116.28546000000001">
    <ele>12.75</ele>
   </trkpt>
   <trkpt lat="33.66843" lon="-116.28547">
    <ele>12.57</ele>
   </trkpt>
   <trkpt lat="33.66868" lon="-116.28553000000001">
    <ele>12.280000000000001</ele>
   </trkpt>
   <trkpt lat="33.668780000000005" lon="-116.28561">
    <ele>12.21</ele>
   </trkpt>
   <trkpt lat="33.66883" lon="-116.28575000000001">
    <ele>12.21</ele>
   </trkpt>
   <trkpt lat="33.66886" lon="-116.28604000000001">
    <ele>12.23</ele>
   </trkpt>
   <trkpt lat="33.668890000000005" lon="-116.28617000000001">
    <ele>12.23</ele>
   </trkpt>
   <trkpt lat="33.669000000000004" lon="-116.28626000000001">
    <ele>12.23</ele>
   </trkpt>
   <trkpt lat="33.669270000000004" lon="-116.28627000000002">
    <ele>12.360000000000001</ele>
   </trkpt>
   <trkpt lat="33.669470000000004" lon="-116.28631000000001">
    <ele>12.530000000000001</ele>
   </trkpt>
   <trkpt lat="33.66959" lon="-116.28637">
    <ele>12.67</ele>
   </trkpt>
   <trkpt lat="33.66968" lon="-116.28643000000001">
    <ele>12.67</ele>
   </trkpt>
   <trkpt lat="33.669830000000005" lon="-116.28659">
    <ele>12.68</ele>
   </trkpt>
   <trkpt lat="33.66991" lon="-116.28674000000001">
    <ele>12.780000000000001</ele>
   </trkpt>
   <trkpt lat="33.67002" lon="-116.28682">
    <ele>12.790000000000001</ele>
   </trkpt>
   <trkpt lat="33.67013" lon="-116.28686">
    <ele>12.76</ele>
   </trkpt>
   <trkpt lat="33.67043" lon="-116.28692000000001">
    <ele>12.790000000000001</ele>
   </trkpt>
   <trkpt lat="33.67061" lon="-116.28694000000002">
    <ele>12.780000000000001</ele>
   </trkpt>
   <trkpt lat="33.670750000000005" lon="-116.28701000000001">
    <ele>12.72</ele>
   </trkpt>
   <trkpt lat="33.670880000000004" lon="-116.28711000000001">
    <ele>12.730000000000002</ele>
   </trkpt>
   <trkpt lat="33.6709" lon="-116.28723000000001">
    <ele>12.780000000000001</ele>
   </trkpt>
   <trkpt lat="33.670880000000004" lon="-116.28734000000001">
    <ele>12.780000000000001</ele>
   </trkpt>
   <trkpt lat="33.67092" lon="-116.28749">
    <ele>12.8</ele>
   </trkpt>
   <trkpt lat="33.67105" lon="-116.28771">
    <ele>12.8</ele>
   </trkpt>
   <trkpt lat="33.671150000000004" lon="-116.28791000000001">
    <ele>12.92</ele>
   </trkpt>
   <trkpt lat="33.671260000000004" lon="-116.28807">
    <ele>11.91</ele>
   </trkpt>
   <trkpt lat="33.67134" lon="-116.28814000000001">
    <ele>11.91</ele>
   </trkpt>
   <trkpt lat="33.67147" lon="-116.28817000000001">
    <ele>12.4</ele>
   </trkpt>
   <trkpt lat="33.671670000000006" lon="-116.28814000000001">
    <ele>12.450000000000001</ele>
   </trkpt>
   <trkpt lat="33.67186" lon="-116.28812">
    <ele>12.48</ele>
   </trkpt>
   <trkpt lat="33.672090000000004" lon="-116.28818000000001">
    <ele>12.4</ele>
   </trkpt>
   <trkpt lat="33.67221" lon="-116.28811">
    <ele>12.270000000000001</ele>
   </trkpt>
   <trkpt lat="33.672290000000004" lon="-116.28802">
    <ele>12.25</ele>
   </trkpt>
   <trkpt lat="33.67237" lon="-116.28787000000001">
    <ele>12.120000000000001</ele>
   </trkpt>
   <trkpt lat="33.672450000000005" lon="-116.28779000000002">
    <ele>12.120000000000001</ele>
   </trkpt>
   <trkpt lat="33.67282" lon="-116.28756000000001">
    <ele>11.430000000000001</ele>
   </trkpt>
   <trkpt lat="33.672900000000006" lon="-116.28751000000001">
    <ele>11.370000000000001</ele>
   </trkpt>
   <trkpt lat="33.67298" lon="-116.28742000000001">
    <ele>11.23</ele>
   </trkpt>
   <trkpt lat="33.673080000000006" lon="-116.2874">
    <ele>11.23</ele>
   </trkpt>
   <trkpt lat="33.673610000000004" lon="-116.28775">
    <ele>10.98</ele>
   </trkpt>
   <trkpt lat="33.67371" lon="-116.2878">
    <ele>10.98</ele>
   </trkpt>
   <trkpt lat="33.67396" lon="-116.28784">
    <ele>10.96</ele>
   </trkpt>
   <trkpt lat="33.67398" lon="-116.28773000000001">
    <ele>11.0</ele>
   </trkpt>
   <trkpt lat="33.67378" lon="-116.28763000000001">
    <ele>10.92</ele>
   </trkpt>
   <trkpt lat="33.673660000000005" lon="-116.28749">
    <ele>10.88</ele>
   </trkpt>
   <trkpt lat="33.67352" lon="-116.28738000000001">
    <ele>10.97</ele>
   </trkpt>
   <trkpt lat="33.67338" lon="-116.28719000000001">
    <ele>10.83</ele>
   </trkpt>
   <trkpt lat="33.673230000000004" lon="-116.28688000000001">
    <ele>10.900000000000002</ele>
   </trkpt>
   <trkpt lat="33.673230000000004" lon="-116.28665000000001">
    <ele>10.900000000000002</ele>
   </trkpt>
   <trkpt lat="33.67329" lon="-116.28638000000001">
    <ele>10.790000000000001</ele>
   </trkpt>
   <trkpt lat="33.673300000000005" lon="-116.28627000000002">
    <ele>10.84</ele>
   </trkpt>
   <trkpt lat="33.673280000000005" lon="-116.28611000000001">
    <ele>10.820000000000002</ele>
   </trkpt>
   <trkpt lat="33.67331" lon="-116.28596">
    <ele>10.89</ele>
   </trkpt>
   <trkpt lat="33.6736" lon="-116.28566000000001">
    <ele>10.51</ele>
   </trkpt>
   <trkpt lat="33.673840000000006" lon="-116.28548">
    <ele>10.31</ele>
   </trkpt>
   <trkpt lat="33.673750000000005" lon="-116.28539">
    <ele>10.4</ele>
   </trkpt>
   <trkpt lat="33.67365" lon="-116.28537000000001">
    <ele>10.4</ele>
   </trkpt>
   <trkpt lat="33.67349" lon="-116.28536000000001">
    <ele>10.76</ele>
   </trkpt>
   <trkpt lat="33.6734" lon="-116.28538">
    <ele>10.94</ele>
   </trkpt>
   <trkpt lat="33.673260000000006" lon="-116.28546000000001">
    <ele>11.080000000000002</ele>
   </trkpt>
   <trkpt lat="33.673170000000006" lon="-116.28549000000001">
    <ele>11.23</ele>
   </trkpt>
   <trkpt lat="33.67302" lon="-116.28548">
    <ele>11.240000000000002</ele>
   </trkpt>
   <trkpt lat="33.672900000000006" lon="-116.28542000000002">
    <ele>11.170000000000002</ele>
   </trkpt>
   <trkpt lat="33.67273" lon="-116.28525">
    <ele>10.81</ele>
   </trkpt>
   <trkpt lat="33.67251" lon="-116.28515000000002">
    <ele>10.71</ele>
   </trkpt>
   <trkpt lat="33.67217" lon="-116.28481000000001">
    <ele>11.120000000000001</ele>
   </trkpt>
   <trkpt lat="33.6721" lon="-116.28471">
    <ele>11.31</ele>
   </trkpt>
   <trkpt lat="33.67184" lon="-116.28460000000001">
    <ele>11.590000000000002</ele>
   </trkpt>
   <trkpt lat="33.67172" lon="-116.28453">
    <ele>11.63</ele>
   </trkpt>
   <trkpt lat="33.67152" lon="-116.28436">
    <ele>11.580000000000002</ele>
   </trkpt>
   <trkpt lat="33.67132" lon="-116.28428000000001">
    <ele>11.57</ele>
   </trkpt>
   <trkpt lat="33.67112" lon="-116.28411000000001">
    <ele>11.410000000000002</ele>
   </trkpt>
   <trkpt lat="33.67101" lon="-116.28404">
    <ele>11.290000000000001</ele>
   </trkpt>
   <trkpt lat="33.67092" lon="-116.28395">
    <ele>11.36</ele>
   </trkpt>
   <trkpt lat="33.67087" lon="-116.28376000000002">
    <ele>11.19</ele>
   </trkpt>
   <trkpt lat="33.67087" lon="-116.28361000000001">
    <ele>11.19</ele>
   </trkpt>
   <trkpt lat="33.67081" lon="-116.28333">
    <ele>10.89</ele>
   </trkpt>
   <trkpt lat="33.6708" lon="-116.28282000000002">
    <ele>10.560000000000002</ele>
   </trkpt>
   <trkpt lat="33.67049" lon="-116.28239">
    <ele>9.950000000000001</ele>
   </trkpt>
   <trkpt lat="33.6704" lon="-116.2822">
    <ele>9.860000000000001</ele>
   </trkpt>
   <trkpt lat="33.670120000000004" lon="-116.2818">
    <ele>9.79</ele>
   </trkpt>
   <trkpt lat="33.66996" lon="-116.28160000000001">
    <ele>9.62</ele>
   </trkpt>
   <trkpt lat="33.66986" lon="-116.28152000000001">
    <ele>9.62</ele>
   </trkpt>
   <trkpt lat="33.669760000000004" lon="-116.28147000000001">
    <ele>9.57</ele>
   </trkpt>
   <trkpt lat="33.66967" lon="-116.28125000000001">
    <ele>9.38</ele>
   </trkpt>
   <trkpt lat="33.67002" lon="-116.28104">
    <ele>11.44</ele>
   </trkpt>
   <trkpt lat="33.67024" lon="-116.28157000000002">
    <ele>11.44</ele>
   </trkpt>
   <trkpt lat="33.67052" lon="-116.28199000000001">
    <ele>11.66</ele>
   </trkpt>
   <trkpt lat="33.67113500143754" lon="-116.28256499598768">
    <ele>12.15</ele>
   </trkpt>
   <trkpt lat="33.67175" lon="-116.28314">
    <ele>13.040000000000001</ele>
   </trkpt>
   <trkpt lat="33.67184" lon="-116.28328">
    <ele>13.040000000000001</ele>
   </trkpt>
   <trkpt lat="33.67213" lon="-116.2835">
    <ele>13.22</ele>
   </trkpt>
   <trkpt lat="33.67248" lon="-116.28372">
    <ele>13.56</ele>
   </trkpt>
   <trkpt lat="33.67255" lon="-116.28346">
    <ele>13.620000000000001</ele>
   </trkpt>
   <trkpt lat="33.672180000000004" lon="-116.28337">
    <ele>13.39</ele>
   </trkpt>
   <trkpt lat="33.671870000000006" lon="-116.28318000000002">
    <ele>13.120000000000001</ele>
   </trkpt>
   <trkpt lat="33.67175" lon="-116.28314">
    <ele>13.0</ele>
   </trkpt>
   <trkpt lat="33.67165" lon="-116.28306">
    <ele>13.0</ele>
   </trkpt>
   <trkpt lat="33.671350000000004" lon="-116.2827">
    <ele>11.06</ele>
   </trkpt>
   <trkpt lat="33.67123" lon="-116.28248">
    <ele>10.26</ele>
   </trkpt>
   <trkpt lat="33.67114" lon="-116.28221">
    <ele>9.41</ele>
   </trkpt>
   <trkpt lat="33.67136" lon="-116.28212">
    <ele>10.030000000000001</ele>
   </trkpt>
   <trkpt lat="33.67147" lon="-116.28196000000001">
    <ele>9.930000000000001</ele>
   </trkpt>
   <trkpt lat="33.67177" lon="-116.28201000000001">
    <ele>9.89</ele>
   </trkpt>
   <trkpt lat="33.672070000000005" lon="-116.28191000000001">
    <ele>9.89</ele>
   </trkpt>
   <trkpt lat="33.67219" lon="-116.28191000000001">
    <ele>10.020000000000001</ele>
   </trkpt>
  </trkseg>
 </trk>
</gpx>
