<?xml version="1.0" encoding="UTF-8"?>
<gpx creator="StravaGPX" version="1.1" xmlns="http://www.topografix.com/GPX/1/1" xmlns:xsi="http://www.w3.org/2001/XMLSchema-instance" xsi:schemaLocation="http://www.topografix.com/GPX/1/1 http://www.topografix.com/GPX/1/1/gpx.xsd">
 <metadata>
  <name>Athletic Brewing IRONMAN 70.3 Oceanside - HOKA Run Course</name>
  <author>
   <name>IRONMAN North America Admin</name>
   <link href="https://www.strava.com/athletes/152522621"/>
  </author>
  <copyright author="OpenStreetMap contributors">
   <year>2020</year>
   <license>https://www.openstreetmap.org/copyright</license>
  </copyright>
  <link href="https://www.strava.com/routes/3313969724203793192"/>
 </metadata>
 <trk>
  <name>Athletic Brewing IRONMAN 70.3 Oceanside - HOKA Run Course</name>
  <link href="https://www.strava.com/routes/3313969724203793192"/>
  <type>running</type>
  <trkseg>
   <trkpt lat="33.205420000000004" lon="-117.39345000000002">
    <ele>4.51</ele>
   </trkpt>
   <trkpt lat="33.20506" lon="-117.39344000000001">
    <ele>4.59</ele>
   </trkpt>
   <trkpt lat="33.20485" lon="-117.39329000000001">
    <ele>4.59</ele>
   </trkpt>
   <trkpt lat="33.20427" lon="-117.39267000000001">
    <ele>4.57</ele>
   </trkpt>
   <trkpt lat="33.20374500119676" lon="-117.3921249967411">
    <ele>4.410000000000001</ele>
   </trkpt>
   <trkpt lat="33.20322" lon="-117.39158">
    <ele>4.16</ele>
   </trkpt>
   <trkpt lat="33.20364500196142" lon="-117.39089000325605">
    <ele>3.52</ele>
   </trkpt>
   <trkpt lat="33.20407" lon="-117.39020000000001">
    <ele>6.51</ele>
   </trkpt>
   <trkpt lat="33.20378" lon="-117.38993">
    <ele>6.68</ele>
   </trkpt>
   <trkpt lat="33.203500000000005" lon="-117.38952">
    <ele>7.08</ele>
   </trkpt>
   <trkpt lat="33.20324" lon="-117.38894">
    <ele>7.090000000000001</ele>
   </trkpt>
   <trkpt lat="33.202960000000004" lon="-117.38857000000002">
    <ele>7.55</ele>
   </trkpt>
   <trkpt lat="33.202760000000005" lon="-117.38837000000001">
    <ele>7.8500000000000005</ele>
   </trkpt>
   <trkpt lat="33.20239" lon="-117.38816000000001">
    <ele>8.38</ele>
   </trkpt>
   <trkpt lat="33.202090000000005" lon="-117.38805">
    <ele>8.5</ele>
   </trkpt>
   <trkpt lat="33.201550000000005" lon="-117.38778">
    <ele>8.43</ele>
   </trkpt>
   <trkpt lat="33.20134" lon="-117.38773">
    <ele>8.14</ele>
   </trkpt>
   <trkpt lat="33.201170000000005" lon="-117.38777">
    <ele>8.14</ele>
   </trkpt>
   <trkpt lat="33.20092" lon="-117.38793000000001">
    <ele>8.010000000000002</ele>
   </trkpt>
   <trkpt lat="33.201" lon="-117.38817000000002">
    <ele>7.4</ele>
   </trkpt>
   <trkpt lat="33.20102" lon="-117.38844">
    <ele>6.46</ele>
   </trkpt>
   <trkpt lat="33.20096" lon="-117.38863">
    <ele>5.7</ele>
   </trkpt>
   <trkpt lat="33.200500000000005" lon="-117.38939">
    <ele>4.69</ele>
   </trkpt>
   <trkpt lat="33.199772005845645" lon="-117.38878597992165">
    <ele>4.19</ele>
   </trkpt>
   <trkpt lat="33.199044008773775" lon="-117.38818196988741">
    <ele>4.19</ele>
   </trkpt>
   <trkpt lat="33.19831600878455" lon="-117.38757796989688">
    <ele>4.57</ele>
   </trkpt>
   <trkpt lat="33.19758800587811" lon="-117.38697397994962">
    <ele>4.57</ele>
   </trkpt>
   <trkpt lat="33.19686" lon="-117.38637000000001">
    <ele>4.57</ele>
   </trkpt>
   <trkpt lat="33.19624000340158" lon="-117.38583748869011">
    <ele>4.34</ele>
   </trkpt>
   <trkpt lat="33.195620004535684" lon="-117.3853049849206">
    <ele>4.37</ele>
   </trkpt>
   <trkpt lat="33.195000003402406" lon="-117.38477248869117">
    <ele>4.48</ele>
   </trkpt>
   <trkpt lat="33.19438" lon="-117.38424">
    <ele>4.48</ele>
   </trkpt>
   <trkpt lat="33.19399333679605" lon="-117.38489667244025">
    <ele>7.78</ele>
   </trkpt>
   <trkpt lat="33.193606670144064" lon="-117.38555333908188">
    <ele>7.74</ele>
   </trkpt>
   <trkpt lat="33.193220000000004" lon="-117.38621">
    <ele>8.47</ele>
   </trkpt>
   <trkpt lat="33.193220000000004" lon="-117.38622000000001">
    <ele>8.47</ele>
   </trkpt>
   <trkpt lat="33.193685002527715" lon="-117.38542500421961">
    <ele>7.74</ele>
   </trkpt>
   <trkpt lat="33.19415" lon="-117.38463000000002">
    <ele>7.840000000000002</ele>
   </trkpt>
   <trkpt lat="33.194100000000006" lon="-117.38459">
    <ele>7.840000000000002</ele>
   </trkpt>
   <trkpt lat="33.1946" lon="-117.38374">
    <ele>13.110000000000001</ele>
   </trkpt>
   <trkpt lat="33.19464" lon="-117.38371000000001">
    <ele>13.110000000000001</ele>
   </trkpt>
   <trkpt lat="33.19471" lon="-117.38372000000001">
    <ele>13.18</ele>
   </trkpt>
   <trkpt lat="33.194140001807085" lon="-117.38323999372214">
    <ele>12.97</ele>
   </trkpt>
   <trkpt lat="33.193570001771825" lon="-117.38275999369256">
    <ele>12.790000000000001</ele>
   </trkpt>
   <trkpt lat="33.193000000000005" lon="-117.38228000000001">
    <ele>12.870000000000001</ele>
   </trkpt>
   <trkpt lat="33.192690000000006" lon="-117.38283000000001">
    <ele>4.03</ele>
   </trkpt>
   <trkpt lat="33.19202201144406" lon="-117.3822659612862">
    <ele>4.03</ele>
   </trkpt>
   <trkpt lat="33.19135402034439" lon="-117.38170193117597">
    <ele>4.03</ele>
   </trkpt>
   <trkpt lat="33.190686026701066" lon="-117.38113790966908">
    <ele>4.03</ele>
   </trkpt>
   <trkpt lat="33.190018030514224" lon="-117.38057389676518">
    <ele>4.03</ele>
   </trkpt>
   <trkpt lat="33.18935003178394" lon="-117.38000989246399">
    <ele>4.95</ele>
   </trkpt>
   <trkpt lat="33.18868203051032" lon="-117.37944589676512">
    <ele>4.95</ele>
   </trkpt>
   <trkpt lat="33.18801402669348" lon="-117.37888190966834">
    <ele>4.95</ele>
   </trkpt>
   <trkpt lat="33.187346020333514" lon="-117.37831793117327">
    <ele>4.95</ele>
   </trkpt>
   <trkpt lat="33.186678011430544" lon="-117.37775396127964">
    <ele>4.95</ele>
   </trkpt>
   <trkpt lat="33.18601" lon="-117.37719000000001">
    <ele>4.96</ele>
   </trkpt>
   <trkpt lat="33.186280000000004" lon="-117.37673000000001">
    <ele>7.5</ele>
   </trkpt>
   <trkpt lat="33.18556309441624" lon="-117.37612609455269">
    <ele>7.5</ele>
   </trkpt>
   <trkpt lat="33.18484618591673" lon="-117.37552219898926">
    <ele>7.5</ele>
   </trkpt>
   <trkpt lat="33.18412927450161" lon="-117.37491831330935">
    <ele>9.58</ele>
   </trkpt>
   <trkpt lat="33.18341236017099" lon="-117.3743144375125">
    <ele>9.58</ele>
   </trkpt>
   <trkpt lat="33.18269544292501" lon="-117.37371057159841">
    <ele>9.58</ele>
   </trkpt>
   <trkpt lat="33.181978522763785" lon="-117.37310671556662">
    <ele>9.510000000000002</ele>
   </trkpt>
   <trkpt lat="33.18126159968747" lon="-117.37250286941676">
    <ele>9.840000000000002</ele>
   </trkpt>
   <trkpt lat="33.18054467369614" lon="-117.37189903314844">
    <ele>11.510000000000002</ele>
   </trkpt>
   <trkpt lat="33.179827744789975" lon="-117.37129520676127">
    <ele>11.53</ele>
   </trkpt>
   <trkpt lat="33.17911081296908" lon="-117.37069139025486">
    <ele>10.74</ele>
   </trkpt>
   <trkpt lat="33.17839387823357" lon="-117.37008758362883">
    <ele>7.46</ele>
   </trkpt>
   <trkpt lat="33.1776769405836" lon="-117.36948378688272">
    <ele>3.93</ele>
   </trkpt>
   <trkpt lat="33.17696" lon="-117.36888">
    <ele>4.4</ele>
   </trkpt>
   <trkpt lat="33.17685" lon="-117.36873000000001">
    <ele>4.3100000000000005</ele>
   </trkpt>
   <trkpt lat="33.176500000000004" lon="-117.36817">
    <ele>4.69</ele>
   </trkpt>
   <trkpt lat="33.17644" lon="-117.36812">
    <ele>4.69</ele>
   </trkpt>
   <trkpt lat="33.17580800444905" lon="-117.36759398484865">
    <ele>8.370000000000001</ele>
   </trkpt>
   <trkpt lat="33.17517600668628" lon="-117.36706797728388">
    <ele>10.870000000000001</ele>
   </trkpt>
   <trkpt lat="33.17454400671182" lon="-117.36654197730547">
    <ele>11.070000000000002</ele>
   </trkpt>
   <trkpt lat="33.17391200452573" lon="-117.36601598491315">
    <ele>10.09</ele>
   </trkpt>
   <trkpt lat="33.173280000000005" lon="-117.36549000000001">
    <ele>10.370000000000001</ele>
   </trkpt>
   <trkpt lat="33.17273000197341" lon="-117.36499332710156">
    <ele>10.620000000000001</ele>
   </trkpt>
   <trkpt lat="33.17218000197497" lon="-117.3644966604364">
    <ele>11.340000000000002</ele>
   </trkpt>
   <trkpt lat="33.17163" lon="-117.364">
    <ele>11.920000000000002</ele>
   </trkpt>
   <trkpt lat="33.17093500173175" lon="-117.36332999462758">
    <ele>12.71</ele>
   </trkpt>
   <trkpt lat="33.17024" lon="-117.36266">
    <ele>13.18</ele>
   </trkpt>
   <trkpt lat="33.16979000180047" lon="-117.36218332842277">
    <ele>13.71</ele>
   </trkpt>
   <trkpt lat="33.1693400017848" lon="-117.36170666173953">
    <ele>11.430000000000001</ele>
   </trkpt>
   <trkpt lat="33.168890000000005" lon="-117.36123">
    <ele>9.97</ele>
   </trkpt>
   <trkpt lat="33.168910000000004" lon="-117.36113">
    <ele>9.92</ele>
   </trkpt>
   <trkpt lat="33.169270000000004" lon="-117.36051">
    <ele>10.17</ele>
   </trkpt>
   <trkpt lat="33.169340000000005" lon="-117.36045000000001">
    <ele>10.23</ele>
   </trkpt>
   <trkpt lat="33.16937" lon="-117.36046">
    <ele>10.23</ele>
   </trkpt>
   <trkpt lat="33.16973000055115" lon="-117.36082499851996">
    <ele>10.34</ele>
   </trkpt>
   <trkpt lat="33.17009" lon="-117.36119000000001">
    <ele>10.96</ele>
   </trkpt>
   <trkpt lat="33.170640000000006" lon="-117.36179000000001">
    <ele>12.100000000000001</ele>
   </trkpt>
   <trkpt lat="33.17065" lon="-117.36179000000001">
    <ele>12.100000000000001</ele>
   </trkpt>
   <trkpt lat="33.17009" lon="-117.36119000000001">
    <ele>10.820000000000002</ele>
   </trkpt>
   <trkpt lat="33.169715000490626" lon="-117.36081999836142">
    <ele>10.34</ele>
   </trkpt>
   <trkpt lat="33.169340000000005" lon="-117.36045000000001">
    <ele>10.23</ele>
   </trkpt>
   <trkpt lat="33.16928" lon="-117.36051">
    <ele>10.23</ele>
   </trkpt>
   <trkpt lat="33.168910000000004" lon="-117.36113">
    <ele>9.92</ele>
   </trkpt>
   <trkpt lat="33.168890000000005" lon="-117.36123">
    <ele>9.97</ele>
   </trkpt>
   <trkpt lat="33.169340001831756" lon="-117.3617066617893">
    <ele>12.72</ele>
   </trkpt>
   <trkpt lat="33.169790001847424" lon="-117.36218332847251">
    <ele>13.71</ele>
   </trkpt>
   <trkpt lat="33.17024" lon="-117.36266">
    <ele>13.290000000000001</ele>
   </trkpt>
   <trkpt lat="33.170230000000004" lon="-117.36265000000002">
    <ele>13.290000000000001</ele>
   </trkpt>
   <trkpt lat="33.17069666835255" lon="-117.36309999527333">
    <ele>12.97</ele>
   </trkpt>
   <trkpt lat="33.17116333508648" lon="-117.36354999533816">
    <ele>12.47</ele>
   </trkpt>
   <trkpt lat="33.17163" lon="-117.364">
    <ele>11.920000000000002</ele>
   </trkpt>
   <trkpt lat="33.17218000197019" lon="-117.3644966604321">
    <ele>11.340000000000002</ele>
   </trkpt>
   <trkpt lat="33.172730001968624" lon="-117.36499332709725">
    <ele>10.620000000000001</ele>
   </trkpt>
   <trkpt lat="33.173280000000005" lon="-117.36549000000001">
    <ele>10.370000000000001</ele>
   </trkpt>
   <trkpt lat="33.173912004397636" lon="-117.36601598480652">
    <ele>10.42</ele>
   </trkpt>
   <trkpt lat="33.17454400658372" lon="-117.36654197719885">
    <ele>11.070000000000002</ele>
   </trkpt>
   <trkpt lat="33.17517600655819" lon="-117.36706797717723">
    <ele>10.870000000000001</ele>
   </trkpt>
   <trkpt lat="33.17580800432094" lon="-117.36759398474203">
    <ele>8.370000000000001</ele>
   </trkpt>
   <trkpt lat="33.17644" lon="-117.36812">
    <ele>4.69</ele>
   </trkpt>
   <trkpt lat="33.176500000000004" lon="-117.36817">
    <ele>4.69</ele>
   </trkpt>
   <trkpt lat="33.17685" lon="-117.36873000000001">
    <ele>4.3100000000000005</ele>
   </trkpt>
   <trkpt lat="33.17696" lon="-117.36888">
    <ele>4.4</ele>
   </trkpt>
   <trkpt lat="33.177676940564325" lon="-117.3694837868665">
    <ele>3.93</ele>
   </trkpt>
   <trkpt lat="33.178393878214294" lon="-117.37008758361256">
    <ele>7.46</ele>
   </trkpt>
   <trkpt lat="33.179110812949794" lon="-117.3706913902386">
    <ele>11.01</ele>
   </trkpt>
   <trkpt lat="33.1798277447707" lon="-117.37129520674502">
    <ele>11.53</ele>
   </trkpt>
   <trkpt lat="33.180544673676856" lon="-117.37189903313217">
    <ele>11.19</ele>
   </trkpt>
   <trkpt lat="33.181261599668176" lon="-117.37250286940049">
    <ele>9.840000000000002</ele>
   </trkpt>
   <trkpt lat="33.18197852274451" lon="-117.37310671555036">
    <ele>9.510000000000002</ele>
   </trkpt>
   <trkpt lat="33.18269544290573" lon="-117.37371057158215">
    <ele>8.31</ele>
   </trkpt>
   <trkpt lat="33.18341236015171" lon="-117.37431443749625">
    <ele>8.31</ele>
   </trkpt>
   <trkpt lat="33.18412927448233" lon="-117.37491831329308">
    <ele>8.31</ele>
   </trkpt>
   <trkpt lat="33.18484618589746" lon="-117.37552219897302">
    <ele>9.0</ele>
   </trkpt>
   <trkpt lat="33.18556309439696" lon="-117.37612609453645">
    <ele>9.0</ele>
   </trkpt>
   <trkpt lat="33.186280000000004" lon="-117.37673000000001">
    <ele>8.72</ele>
   </trkpt>
   <trkpt lat="33.18601" lon="-117.37719000000001">
    <ele>4.96</ele>
   </trkpt>
   <trkpt lat="33.18667801144589" lon="-117.37775396129257">
    <ele>4.670000000000001</ele>
   </trkpt>
   <trkpt lat="33.187346020348876" lon="-117.37831793118623">
    <ele>4.580000000000001</ele>
   </trkpt>
   <trkpt lat="33.188014026708835" lon="-117.37888190968128">
    <ele>4.6000000000000005</ele>
   </trkpt>
   <trkpt lat="33.188682030525676" lon="-117.3794458967781">
    <ele>5.050000000000001</ele>
   </trkpt>
   <trkpt lat="33.189350031799286" lon="-117.38000989247695">
    <ele>5.050000000000001</ele>
   </trkpt>
   <trkpt lat="33.19001803052957" lon="-117.38057389677813">
    <ele>5.050000000000001</ele>
   </trkpt>
   <trkpt lat="33.19068602671643" lon="-117.38113790968204">
    <ele>4.61</ele>
   </trkpt>
   <trkpt lat="33.19135402035974" lon="-117.38170193118891">
    <ele>4.61</ele>
   </trkpt>
   <trkpt lat="33.19202201145942" lon="-117.38226596129914">
    <ele>4.61</ele>
   </trkpt>
   <trkpt lat="33.192690000000006" lon="-117.38283000000001">
    <ele>4.61</ele>
   </trkpt>
   <trkpt lat="33.193000000000005" lon="-117.38228000000001">
    <ele>12.870000000000001</ele>
   </trkpt>
   <trkpt lat="33.1935700018775" lon="-117.38275999378152">
    <ele>12.790000000000001</ele>
   </trkpt>
   <trkpt lat="33.19414000191274" lon="-117.38323999381115">
    <ele>12.97</ele>
   </trkpt>
   <trkpt lat="33.19471" lon="-117.38372000000001">
    <ele>13.18</ele>
   </trkpt>
   <trkpt lat="33.19471" lon="-117.38383">
    <ele>12.92</ele>
   </trkpt>
   <trkpt lat="33.1942" lon="-117.38468">
    <ele>8.180000000000001</ele>
   </trkpt>
   <trkpt lat="33.19415" lon="-117.38463000000002">
    <ele>7.840000000000002</ele>
   </trkpt>
   <trkpt lat="33.193690002489575" lon="-117.38541500407896">
    <ele>7.74</ele>
   </trkpt>
   <trkpt lat="33.19323" lon="-117.38620000000002">
    <ele>8.450000000000001</ele>
   </trkpt>
   <trkpt lat="33.193220000000004" lon="-117.38620000000002">
    <ele>8.450000000000001</ele>
   </trkpt>
   <trkpt lat="33.19360667010098" lon="-117.38554667239981">
    <ele>1.06</ele>
   </trkpt>
   <trkpt lat="33.19399333678894" lon="-117.38489333903058">
    <ele>7.790000000000001</ele>
   </trkpt>
   <trkpt lat="33.19438" lon="-117.38424">
    <ele>4.48</ele>
   </trkpt>
   <trkpt lat="33.19500000340058" lon="-117.38477248868959">
    <ele>4.48</ele>
   </trkpt>
   <trkpt lat="33.195620004533865" lon="-117.38530498491905">
    <ele>4.37</ele>
   </trkpt>
   <trkpt lat="33.19624000339975" lon="-117.38583748868857">
    <ele>4.34</ele>
   </trkpt>
   <trkpt lat="33.19686" lon="-117.38637000000001">
    <ele>4.57</ele>
   </trkpt>
   <trkpt lat="33.19691" lon="-117.38635000000001">
    <ele>4.33</ele>
   </trkpt>
   <trkpt lat="33.196940000000005" lon="-117.38637000000001">
    <ele>4.33</ele>
   </trkpt>
   <trkpt lat="33.19765200582272" lon="-117.38697398034488">
    <ele>4.33</ele>
   </trkpt>
   <trkpt lat="33.198364008728326" lon="-117.38757797051194">
    <ele>4.33</ele>
   </trkpt>
   <trkpt lat="33.1990760087167" lon="-117.38818197050159">
    <ele>4.62</ele>
   </trkpt>
   <trkpt lat="33.19978800578773" lon="-117.38878598031421">
    <ele>4.62</ele>
   </trkpt>
   <trkpt lat="33.200500000000005" lon="-117.38939">
    <ele>4.69</ele>
   </trkpt>
   <trkpt lat="33.20096" lon="-117.38863">
    <ele>5.7</ele>
   </trkpt>
   <trkpt lat="33.20102" lon="-117.38844">
    <ele>6.46</ele>
   </trkpt>
   <trkpt lat="33.201" lon="-117.38817000000002">
    <ele>7.4</ele>
   </trkpt>
   <trkpt lat="33.20092" lon="-117.38793000000001">
    <ele>8.010000000000002</ele>
   </trkpt>
   <trkpt lat="33.201170000000005" lon="-117.38777">
    <ele>8.14</ele>
   </trkpt>
   <trkpt lat="33.20134" lon="-117.38773">
    <ele>8.14</ele>
   </trkpt>
   <trkpt lat="33.201550000000005" lon="-117.38778">
    <ele>8.43</ele>
   </trkpt>
   <trkpt lat="33.202090000000005" lon="-117.38805">
    <ele>8.5</ele>
   </trkpt>
   <trkpt lat="33.20239" lon="-117.38816000000001">
    <ele>8.38</ele>
   </trkpt>
   <trkpt lat="33.202760000000005" lon="-117.38837000000001">
    <ele>7.86</ele>
   </trkpt>
   <trkpt lat="33.202920000000006" lon="-117.38853">
    <ele>7.59</ele>
   </trkpt>
   <trkpt lat="33.202760000000005" lon="-117.38837000000001">
    <ele>7.86</ele>
   </trkpt>
   <trkpt lat="33.20239" lon="-117.38816000000001">
    <ele>8.38</ele>
   </trkpt>
   <trkpt lat="33.202090000000005" lon="-117.38805">
    <ele>8.5</ele>
   </trkpt>
   <trkpt lat="33.201550000000005" lon="-117.38778">
    <ele>8.43</ele>
   </trkpt>
   <trkpt lat="33.20134" lon="-117.38773">
    <ele>8.14</ele>
   </trkpt>
   <trkpt lat="33.201170000000005" lon="-117.38777">
    <ele>8.14</ele>
   </trkpt>
   <trkpt lat="33.20092" lon="-117.38793000000001">
    <ele>8.010000000000002</ele>
   </trkpt>
   <trkpt lat="33.201" lon="-117.38817000000002">
    <ele>7.4</ele>
   </trkpt>
   <trkpt lat="33.20102" lon="-117.38844">
    <ele>6.46</ele>
   </trkpt>
   <trkpt lat="33.20096" lon="-117.38863">
    <ele>5.7</ele>
   </trkpt>
   <trkpt lat="33.200500000000005" lon="-117.38939">
    <ele>4.69</ele>
   </trkpt>
   <trkpt lat="33.199772005845645" lon="-117.38878597992165">
    <ele>4.19</ele>
   </trkpt>
   <trkpt lat="33.199044008773775" lon="-117.38818196988741">
    <ele>4.19</ele>
   </trkpt>
   <trkpt lat="33.19831600878455" lon="-117.38757796989688">
    <ele>4.57</ele>
   </trkpt>
   <trkpt lat="33.19758800587811" lon="-117.38697397994962">
    <ele>4.57</ele>
   </trkpt>
   <trkpt lat="33.19686" lon="-117.38637000000001">
    <ele>4.57</ele>
   </trkpt>
   <trkpt lat="33.19624000340158" lon="-117.38583748869011">
    <ele>4.34</ele>
   </trkpt>
   <trkpt lat="33.195620004535684" lon="-117.3853049849206">
    <ele>4.37</ele>
   </trkpt>
   <trkpt lat="33.195000003402406" lon="-117.38477248869117">
    <ele>4.48</ele>
   </trkpt>
   <trkpt lat="33.19438" lon="-117.38424">
    <ele>4.48</ele>
   </trkpt>
   <trkpt lat="33.19400666985617" lon="-117.38487333876321">
    <ele>7.78</ele>
   </trkpt>
   <trkpt lat="33.193633336505016" lon="-117.38550667212672">
    <ele>7.74</ele>
   </trkpt>
   <trkpt lat="33.19326" lon="-117.38614000000001">
    <ele>8.360000000000001</ele>
   </trkpt>
   <trkpt lat="33.19372000546425" lon="-117.3853133420175">
    <ele>1.06</ele>
   </trkpt>
   <trkpt lat="33.194180005464254" lon="-117.38448667535097">
    <ele>13.200000000000001</ele>
   </trkpt>
   <trkpt lat="33.19464" lon="-117.38366">
    <ele>13.200000000000001</ele>
   </trkpt>
   <trkpt lat="33.19409333506854" lon="-117.38319999429365">
    <ele>12.97</ele>
   </trkpt>
   <trkpt lat="33.193546668445094" lon="-117.3827399943301">
    <ele>12.700000000000001</ele>
   </trkpt>
   <trkpt lat="33.193000000000005" lon="-117.38228000000001">
    <ele>12.870000000000001</ele>
   </trkpt>
   <trkpt lat="33.192690000000006" lon="-117.38283000000001">
    <ele>4.03</ele>
   </trkpt>
   <trkpt lat="33.19202201144406" lon="-117.3822659612862">
    <ele>4.03</ele>
   </trkpt>
   <trkpt lat="33.19135402034439" lon="-117.38170193117597">
    <ele>4.03</ele>
   </trkpt>
   <trkpt lat="33.190686026701066" lon="-117.38113790966908">
    <ele>4.03</ele>
   </trkpt>
   <trkpt lat="33.190018030514224" lon="-117.38057389676518">
    <ele>4.03</ele>
   </trkpt>
   <trkpt lat="33.18935003178394" lon="-117.38000989246399">
    <ele>4.95</ele>
   </trkpt>
   <trkpt lat="33.18868203051032" lon="-117.37944589676512">
    <ele>4.95</ele>
   </trkpt>
   <trkpt lat="33.18801402669348" lon="-117.37888190966834">
    <ele>4.95</ele>
   </trkpt>
   <trkpt lat="33.187346020333514" lon="-117.37831793117327">
    <ele>4.95</ele>
   </trkpt>
   <trkpt lat="33.186678011430544" lon="-117.37775396127964">
    <ele>4.95</ele>
   </trkpt>
   <trkpt lat="33.18601" lon="-117.37719000000001">
    <ele>4.96</ele>
   </trkpt>
   <trkpt lat="33.186280000000004" lon="-117.37673000000001">
    <ele>7.5</ele>
   </trkpt>
   <trkpt lat="33.18556309441624" lon="-117.37612609455269">
    <ele>7.5</ele>
   </trkpt>
   <trkpt lat="33.18484618591673" lon="-117.37552219898926">
    <ele>7.5</ele>
   </trkpt>
   <trkpt lat="33.18412927450161" lon="-117.37491831330935">
    <ele>9.58</ele>
   </trkpt>
   <trkpt lat="33.18341236017099" lon="-117.3743144375125">
    <ele>9.58</ele>
   </trkpt>
   <trkpt lat="33.18269544292501" lon="-117.37371057159841">
    <ele>9.58</ele>
   </trkpt>
   <trkpt lat="33.181978522763785" lon="-117.37310671556662">
    <ele>9.510000000000002</ele>
   </trkpt>
   <trkpt lat="33.18126159968747" lon="-117.37250286941676">
    <ele>9.840000000000002</ele>
   </trkpt>
   <trkpt lat="33.18054467369614" lon="-117.37189903314844">
    <ele>11.510000000000002</ele>
   </trkpt>
   <trkpt lat="33.179827744789975" lon="-117.37129520676127">
    <ele>11.53</ele>
   </trkpt>
   <trkpt lat="33.17911081296908" lon="-117.37069139025486">
    <ele>10.74</ele>
   </trkpt>
   <trkpt lat="33.17839387823357" lon="-117.37008758362883">
    <ele>7.46</ele>
   </trkpt>
   <trkpt lat="33.1776769405836" lon="-117.36948378688272">
    <ele>3.93</ele>
   </trkpt>
   <trkpt lat="33.17696" lon="-117.36888">
    <ele>4.4</ele>
   </trkpt>
   <trkpt lat="33.17685" lon="-117.36873000000001">
    <ele>4.3100000000000005</ele>
   </trkpt>
   <trkpt lat="33.176500000000004" lon="-117.36817">
    <ele>4.69</ele>
   </trkpt>
   <trkpt lat="33.17644" lon="-117.36812">
    <ele>4.69</ele>
   </trkpt>
   <trkpt lat="33.17580800444905" lon="-117.36759398484865">
    <ele>8.370000000000001</ele>
   </trkpt>
   <trkpt lat="33.17517600668628" lon="-117.36706797728388">
    <ele>10.870000000000001</ele>
   </trkpt>
   <trkpt lat="33.17454400671182" lon="-117.36654197730547">
    <ele>11.070000000000002</ele>
   </trkpt>
   <trkpt lat="33.17391200452573" lon="-117.36601598491315">
    <ele>10.09</ele>
   </trkpt>
   <trkpt lat="33.173280000000005" lon="-117.36549000000001">
    <ele>10.370000000000001</ele>
   </trkpt>
   <trkpt lat="33.17273000197341" lon="-117.36499332710156">
    <ele>10.620000000000001</ele>
   </trkpt>
   <trkpt lat="33.17218000197497" lon="-117.3644966604364">
    <ele>11.340000000000002</ele>
   </trkpt>
   <trkpt lat="33.17163" lon="-117.364">
    <ele>11.920000000000002</ele>
   </trkpt>
   <trkpt lat="33.17093500173175" lon="-117.36332999462758">
    <ele>12.71</ele>
   </trkpt>
   <trkpt lat="33.17024" lon="-117.36266">
    <ele>13.18</ele>
   </trkpt>
   <trkpt lat="33.16979000180047" lon="-117.36218332842277">
    <ele>13.66</ele>
   </trkpt>
   <trkpt lat="33.1693400017848" lon="-117.36170666173953">
    <ele>11.430000000000001</ele>
   </trkpt>
   <trkpt lat="33.168890000000005" lon="-117.36123">
    <ele>9.97</ele>
   </trkpt>
   <trkpt lat="33.168910000000004" lon="-117.36113">
    <ele>9.92</ele>
   </trkpt>
   <trkpt lat="33.169270000000004" lon="-117.36051">
    <ele>10.17</ele>
   </trkpt>
   <trkpt lat="33.169340000000005" lon="-117.36045000000001">
    <ele>10.23</ele>
   </trkpt>
   <trkpt lat="33.16937" lon="-117.36046">
    <ele>10.23</ele>
   </trkpt>
   <trkpt lat="33.16973000055115" lon="-117.36082499851996">
    <ele>10.34</ele>
   </trkpt>
   <trkpt lat="33.17009" lon="-117.36119000000001">
    <ele>10.96</ele>
   </trkpt>
   <trkpt lat="33.17054" lon="-117.36168">
    <ele>12.25</ele>
   </trkpt>
   <trkpt lat="33.17009" lon="-117.36119000000001">
    <ele>10.820000000000002</ele>
   </trkpt>
   <trkpt lat="33.169715000490626" lon="-117.36081999836142">
    <ele>10.34</ele>
   </trkpt>
   <trkpt lat="33.169340000000005" lon="-117.36045000000001">
    <ele>10.23</ele>
   </trkpt>
   <trkpt lat="33.16928" lon="-117.36051">
    <ele>10.23</ele>
   </trkpt>
   <trkpt lat="33.168910000000004" lon="-117.36113">
    <ele>9.92</ele>
   </trkpt>
   <trkpt lat="33.168890000000005" lon="-117.36123">
    <ele>9.97</ele>
   </trkpt>
   <trkpt lat="33.169340001831756" lon="-117.3617066617893">
    <ele>12.72</ele>
   </trkpt>
   <trkpt lat="33.169790001847424" lon="-117.36218332847251">
    <ele>13.71</ele>
   </trkpt>
   <trkpt lat="33.17024" lon="-117.36266">
    <ele>13.18</ele>
   </trkpt>
   <trkpt lat="33.17093500188327" lon="-117.36333499470854">
    <ele>12.63</ele>
   </trkpt>
   <trkpt lat="33.17163" lon="-117.36401000000001">
    <ele>11.88</ele>
   </trkpt>
   <trkpt lat="33.171620000000004" lon="-117.364">
    <ele>11.88</ele>
   </trkpt>
   <trkpt lat="33.17217333524261" lon="-117.36449666033964">
    <ele>11.340000000000002</ele>
   </trkpt>
   <trkpt lat="33.172726668513434" lon="-117.36499332695011">
    <ele>10.620000000000001</ele>
   </trkpt>
   <trkpt lat="33.173280000000005" lon="-117.36549000000001">
    <ele>10.370000000000001</ele>
   </trkpt>
   <trkpt lat="33.173912004397636" lon="-117.36601598480652">
    <ele>10.09</ele>
   </trkpt>
   <trkpt lat="33.17454400658372" lon="-117.36654197719885">
    <ele>11.070000000000002</ele>
   </trkpt>
   <trkpt lat="33.17517600655819" lon="-117.36706797717723">
    <ele>10.870000000000001</ele>
   </trkpt>
   <trkpt lat="33.17580800432094" lon="-117.36759398474203">
    <ele>8.370000000000001</ele>
   </trkpt>
   <trkpt lat="33.17644" lon="-117.36812">
    <ele>4.69</ele>
   </trkpt>
   <trkpt lat="33.176500000000004" lon="-117.36817">
    <ele>4.69</ele>
   </trkpt>
   <trkpt lat="33.17685" lon="-117.36873000000001">
    <ele>4.3100000000000005</ele>
   </trkpt>
   <trkpt lat="33.17696" lon="-117.36888">
    <ele>4.4</ele>
   </trkpt>
   <trkpt lat="33.177676940564325" lon="-117.3694837868665">
    <ele>3.93</ele>
   </trkpt>
   <trkpt lat="33.178393878214294" lon="-117.37008758361256">
    <ele>7.46</ele>
   </trkpt>
   <trkpt lat="33.179110812949794" lon="-117.3706913902386">
    <ele>11.01</ele>
   </trkpt>
   <trkpt lat="33.1798277447707" lon="-117.37129520674502">
    <ele>11.53</ele>
   </trkpt>
   <trkpt lat="33.180544673676856" lon="-117.37189903313217">
    <ele>11.19</ele>
   </trkpt>
   <trkpt lat="33.181261599668176" lon="-117.37250286940049">
    <ele>9.840000000000002</ele>
   </trkpt>
   <trkpt lat="33.18197852274451" lon="-117.37310671555036">
    <ele>9.510000000000002</ele>
   </trkpt>
   <trkpt lat="33.18269544290573" lon="-117.37371057158215">
    <ele>8.31</ele>
   </trkpt>
   <trkpt lat="33.18341236015171" lon="-117.37431443749625">
    <ele>8.31</ele>
   </trkpt>
   <trkpt lat="33.18412927448233" lon="-117.37491831329308">
    <ele>8.31</ele>
   </trkpt>
   <trkpt lat="33.18484618589746" lon="-117.37552219897302">
    <ele>9.0</ele>
   </trkpt>
   <trkpt lat="33.18556309439696" lon="-117.37612609453645">
    <ele>9.0</ele>
   </trkpt>
   <trkpt lat="33.186280000000004" lon="-117.37673000000001">
    <ele>8.72</ele>
   </trkpt>
   <trkpt lat="33.18601" lon="-117.37719000000001">
    <ele>5.42</ele>
   </trkpt>
   <trkpt lat="33.18667801144589" lon="-117.37775396129257">
    <ele>5.42</ele>
   </trkpt>
   <trkpt lat="33.187346020348876" lon="-117.37831793118623">
    <ele>5.42</ele>
   </trkpt>
   <trkpt lat="33.188014026708835" lon="-117.37888190968128">
    <ele>5.42</ele>
   </trkpt>
   <trkpt lat="33.188682030525676" lon="-117.3794458967781">
    <ele>5.42</ele>
   </trkpt>
   <trkpt lat="33.189350031799286" lon="-117.38000989247695">
    <ele>4.57</ele>
   </trkpt>
   <trkpt lat="33.19001803052957" lon="-117.38057389677813">
    <ele>4.57</ele>
   </trkpt>
   <trkpt lat="33.19068602671643" lon="-117.38113790968204">
    <ele>4.57</ele>
   </trkpt>
   <trkpt lat="33.19135402035974" lon="-117.38170193118891">
    <ele>4.57</ele>
   </trkpt>
   <trkpt lat="33.19202201145942" lon="-117.38226596129914">
    <ele>4.57</ele>
   </trkpt>
   <trkpt lat="33.192690000000006" lon="-117.38283000000001">
    <ele>4.59</ele>
   </trkpt>
   <trkpt lat="33.19324000100381" lon="-117.38328499728833">
    <ele>4.33</ele>
   </trkpt>
   <trkpt lat="33.19379" lon="-117.38374">
    <ele>4.33</ele>
   </trkpt>
  </trkseg>
 </trk>
</gpx>
